[
  {
    "name": "Aly, Deena",
    "street": "1423 Upland Orchard Dr ",
    "city": "Houston",
    "state": "TX",
    "zipCode": "77043-5619",
    "phone": "(832) 876-2084",
    "fax": "",
    "webSite": ""
  },
  {
    "name": "Am Integrative Dental Care Of El Paso Pc",
    "street": "5939 Gateway Blvd W Ste B ",
    "city": "El Paso",
    "state": "TX",
    "zipCode": "79925-3301",
    "phone": "(915) 779-6403",
    "fax": "",
    "webSite": ""
  },
  {
    "name": "Porter Smiles Dental",
    "street": "21693 Fm 1314 ",
    "city": "Porter",
    "state": "TX",
    "zipCode": "77365",
    "phone": "(773) 732-8288",
    "fax": "",
    "webSite": ""
  },
  {
    "name": "The Lakes Dental Center",
    "street": "6455 S Shore Blvd Ste 100 ",
    "city": "League City",
    "state": "TX",
    "zipCode": "77573-5525",
    "phone": "(281) 334-5354",
    "fax": "(281) 334-5344",
    "webSite": ""
  },
  {
    "name": "Houston Uptown Dentists",
    "street": "1300 Post Oak Blvd #1620 ",
    "city": "Houston",
    "state": "TX",
    "zipCode": "77056",
    "phone": "(480) 250-7327",
    "fax": "",
    "webSite": ""
  },
  {
    "name": "Amaning, James",
    "street": "14515 Katy Fwy Ste 400 ",
    "city": "Houston",
    "state": "TX",
    "zipCode": "77079-1300",
    "phone": "(346) 570-5983",
    "fax": "(346) 570-5989",
    "webSite": ""
  },
  {
    "name": "Amanova, Diyora",
    "street": "2817-B, Loop 250 Frontage Rd ",
    "city": "Midland",
    "state": "TX",
    "zipCode": "79705",
    "phone": "(143) 269-4480",
    "fax": "",
    "webSite": ""
  },
  {
    "name": "Michael D Vaclav Dds & Ryan Street Dds",
    "street": "4525 Van Winkle ",
    "city": "Amarillo",
    "state": "TX",
    "zipCode": "79119",
    "phone": "(806) 355-7463",
    "fax": "(806) 355-6014",
    "webSite": ""
  },
  {
    "name": "Amarillo Family Dentistry, Pa",
    "street": "3330 East Interstate 40 Unit J",
    "city": "Amarillo",
    "state": "TX",
    "zipCode": "79103-4801",
    "phone": "(806) 372-3076",
    "fax": "(806) 372-6504",
    "webSite": ""
  },
  {
    "name": "Oneida Dental",
    "street": "802 E Amarillo Blvd Ste 300 ",
    "city": "Amarillo",
    "state": "TX",
    "zipCode": "79107-5401",
    "phone": "(806) 553-7877",
    "fax": "",
    "webSite": ""
  },
  {
    "name": "Amatya, Smrity",
    "street": "3108 S 31St St ",
    "city": "Temple",
    "state": "TX",
    "zipCode": "76502-1803",
    "phone": "(254) 742-1800",
    "fax": "",
    "webSite": ""
  },
  {
    "name": "Amaze Smiles, Pllc",
    "street": "216 Dalton Dr ",
    "city": "Desoto",
    "state": "TX",
    "zipCode": "75115-4414",
    "phone": "(972) 230-1100",
    "fax": "(972) 230-1103",
    "webSite": ""
  },
  {
    "name": "Amazing Grace Family Dentistry, Pc",
    "street": "8989 Forest Ln Suite 150",
    "city": "Dallas",
    "state": "TX",
    "zipCode": "75243-4158",
    "phone": "(972) 238-5000",
    "fax": "",
    "webSite": ""
  },
  {
    "name": "Amazing Smiles Pllc",
    "street": "14090 Southwest Fwy Ste 402 ",
    "city": "Sugar Land",
    "state": "TX",
    "zipCode": "77478-3679",
    "phone": "(281) 240-8080",
    "fax": "",
    "webSite": ""
  },
  {
    "name": "Amber M James Dmd, Pllc",
    "street": "650 Fort Worth Ave Ste 130",
    "city": "Dallas",
    "state": "TX",
    "zipCode": "75208",
    "phone": "(214) 415-2125",
    "fax": "",
    "webSite": ""
  },
  {
    "name": "Ameri, Mash",
    "street": "13551 Will Clayton Pkwy Suite 5",
    "city": "Humble",
    "state": "TX",
    "zipCode": "77346-3758",
    "phone": "(281) 812-1122",
    "fax": "",
    "webSite": ""
  },
  {
    "name": "America'S Family Dental",
    "street": "616 W Main St ",
    "city": "Tomball",
    "state": "TX",
    "zipCode": "77375-5538",
    "phone": "(281) 290-8000",
    "fax": "(281) 516-2397",
    "webSite": ""
  },
  {
    "name": "American Abc Dental,Pllc",
    "street": "914 Edgebrook Dr B",
    "city": "Houston",
    "state": "TX",
    "zipCode": "77034-1955",
    "phone": "(713) 910-4644",
    "fax": "(713) 910-4697",
    "webSite": ""
  },
  {
    "name": "Cary A Shatto Dds",
    "street": "10233 E Nwhy 510",
    "city": "Dallas",
    "state": "TX",
    "zipCode": "75238",
    "phone": "(214) 340-4965",
    "fax": "(214) 343-0154",
    "webSite": ""
  },
  {
    "name": "Americas Dental Group, Pllc",
    "street": "201 S Americas Ave Ste. 206",
    "city": "El Paso",
    "state": "TX",
    "zipCode": "79907-6916",
    "phone": "(646) 662-3105",
    "fax": "",
    "webSite": ""
  },
  {
    "name": "Ameridental Associates",
    "street": "5631 Telephone Rd Suite A",
    "city": "Houston",
    "state": "TX",
    "zipCode": "77087-4485",
    "phone": "(713) 644-4446",
    "fax": "",
    "webSite": ""
  },
  {
    "name": "Amerismiles Dental",
    "street": "3600 Gus Thomasson Rd Suite # 145",
    "city": "Mesquite",
    "state": "TX",
    "zipCode": "75150-6200",
    "phone": "(214) 827-1305",
    "fax": "",
    "webSite": ""
  },
  {
    "name": "Amerson, Michael Harold",
    "street": "203 W 20Th St Suite C",
    "city": "Mt Pleasant",
    "state": "TX",
    "zipCode": "75455-1100",
    "phone": "(903) 572-1901",
    "fax": "(903) 575-0318",
    "webSite": ""
  },
  {
    "name": "Ames, Jonathan Charles",
    "street": "150 Deepwood Dr Round Rock Dental Group",
    "city": "Round Rock",
    "state": "TX",
    "zipCode": "78681-4943",
    "phone": "(512) 255-1000",
    "fax": "(512) 255-8763",
    "webSite": ""
  },
  {
    "name": "Amidzadeh, Sarah",
    "street": "9150 Main St Suite I",
    "city": "Houston",
    "state": "TX",
    "zipCode": "77025-3843",
    "phone": "(713) 665-7707",
    "fax": "",
    "webSite": ""
  },
  {
    "name": "Amie, Charmiah",
    "street": "3873 Hwy 64 W ",
    "city": "Tyler",
    "state": "TX",
    "zipCode": "75704-6925",
    "phone": "(903) 593-4872",
    "fax": "",
    "webSite": ""
  },
  {
    "name": "Barker Cypress Dental Care",
    "street": "10245 Kempwood Dr Suite C",
    "city": "Houston",
    "state": "TX",
    "zipCode": "77043-1803",
    "phone": "(713) 690-8585",
    "fax": "(713) 690-8586",
    "webSite": ""
  },
  {
    "name": "Amigos Dentistry Pllc",
    "street": "2425 S Cockrell Hill Rd Ste A ",
    "city": "Dallas",
    "state": "TX",
    "zipCode": "75211-8134",
    "phone": "(972) 285-2600",
    "fax": "(972) 285-2605",
    "webSite": ""
  },
  {
    "name": "Amin, Ankit A",
    "street": "6440 Hillcroft St Ste 200 ",
    "city": "Houston",
    "state": "TX",
    "zipCode": "77081-3112",
    "phone": "(713) 554-0453",
    "fax": "(713) 554-0456",
    "webSite": ""
  },
  {
    "name": "Amin, Prashant",
    "street": "11345 Alamo Ranch Pkwy #104",
    "city": "San Antonio",
    "state": "TX",
    "zipCode": "78253-6440",
    "phone": "(210) 538-2772",
    "fax": "",
    "webSite": ""
  },
  {
    "name": "Amin, Radha",
    "street": "3535 Clear Lake City Blvd Ste 400 ",
    "city": "Houston",
    "state": "TX",
    "zipCode": "77059-2508",
    "phone": "(281) 990-0677",
    "fax": "",
    "webSite": ""
  },
  {
    "name": "Amin, Sagar D",
    "street": "17910 Bulverde Rd Ste 112 ",
    "city": "San Antonio",
    "state": "TX",
    "zipCode": "78259-3762",
    "phone": "(210) 494-4200",
    "fax": "",
    "webSite": ""
  },
  {
    "name": "Amin, Sapna R",
    "street": "2736 Valley View Ln. Ste 300",
    "city": "Farmers Branch",
    "state": "TX",
    "zipCode": "75234",
    "phone": "(972) 241-1352",
    "fax": "(972) 241-5311",
    "webSite": ""
  },
  {
    "name": "Amin, Sharanvanti",
    "street": "11920 S Highway 6 ",
    "city": "Sugar Land",
    "state": "TX",
    "zipCode": "77478-5724",
    "phone": "(281) 564-5654",
    "fax": "",
    "webSite": ""
  },
  {
    "name": "Amine, Mahmoud Mohamad",
    "street": "3916 Call Field Rd Ste 600",
    "city": "Wichita Falls",
    "state": "TX",
    "zipCode": "76308-2693",
    "phone": "(940) 217-6000",
    "fax": "",
    "webSite": ""
  },
  {
    "name": "Amini Dental, Pllc",
    "street": "10350 S Post Oak Rd Ste H ",
    "city": "Houston",
    "state": "TX",
    "zipCode": "77035-3319",
    "phone": "(713) 551-9400",
    "fax": "",
    "webSite": ""
  },
  {
    "name": "Amini, Kambiz",
    "street": "1706 Treasure Hills Blvd ",
    "city": "Harlingen",
    "state": "TX",
    "zipCode": "78550-8911",
    "phone": "(956) 365-6003",
    "fax": "",
    "webSite": ""
  },
  {
    "name": "Amini, Roya A.",
    "street": "551 W. Mcdermott ",
    "city": "Allen",
    "state": "TX",
    "zipCode": "75013",
    "phone": "(972) 359-9950",
    "fax": "(972) 359-6715",
    "webSite": ""
  },
  {
    "name": "Amini, Shahnam",
    "street": "3109 Edgar Brown Dr ",
    "city": "West Orange",
    "state": "TX",
    "zipCode": "77630-5380",
    "phone": "(409) 330-4252",
    "fax": "",
    "webSite": ""
  },
  {
    "name": "Franklin Square Dental",
    "street": "3724 Jefferson St #100",
    "city": "Austin",
    "state": "TX",
    "zipCode": "78731-6225",
    "phone": "(512) 452-4661",
    "fax": "(512) 452-2999",
    "webSite": ""
  },
  {
    "name": "Trinity Dental Centers",
    "street": "5815 E Sam Houston Pkwy N ",
    "city": "Houston",
    "state": "TX",
    "zipCode": "77049-2523",
    "phone": "(281) 459-1555",
    "fax": "(281) 459-3284",
    "webSite": ""
  },
  {
    "name": "La. Plaza Dental",
    "street": "7008 Lyons Ave ",
    "city": "Houston",
    "state": "TX",
    "zipCode": "77020-5359",
    "phone": "(713) 674-0811",
    "fax": "(713) 671-9221",
    "webSite": ""
  },
  {
    "name": "183 Family Dentistry",
    "street": "1901 S Highway 183 ",
    "city": "Leander",
    "state": "TX",
    "zipCode": "78641-2101",
    "phone": "(512) 259-3365",
    "fax": "",
    "webSite": ""
  },
  {
    "name": "Nixon Family Dentistry",
    "street": "200 E 2Nd St ",
    "city": "Nixon",
    "state": "TX",
    "zipCode": "78140-2737",
    "phone": "(830) 582-2571",
    "fax": "(830) 582-3141",
    "webSite": ""
  },
  {
    "name": "Amor Dental Care",
    "street": "900 Bugg Ln Ste 218 ",
    "city": "San Marcos",
    "state": "TX",
    "zipCode": "78666-8004",
    "phone": "(512) 393-3800",
    "fax": "",
    "webSite": ""
  },
  {
    "name": "Amor Dental Care Pllc",
    "street": "1302 W Rundberg Ln ",
    "city": "Austin",
    "state": "TX",
    "zipCode": "78758-6238",
    "phone": "(512) 491-0077",
    "fax": "(512) 491-0796",
    "webSite": ""
  },
  {
    "name": "Amos Ross Dds Inc",
    "street": "4760 Barwick Dr Amos Ross Dds Inc Ste B",
    "city": "Ft Worth",
    "state": "TX",
    "zipCode": "76132",
    "phone": "(817) 292-2555",
    "fax": "(817) 370-0181",
    "webSite": ""
  },
  {
    "name": "Amria, May",
    "street": "3434 W Illinois Ave Ste 307 ",
    "city": "Dallas",
    "state": "TX",
    "zipCode": "75211",
    "phone": "(843) 303-1289",
    "fax": "",
    "webSite": ""
  },
  {
    "name": "Amsili, Gloria Michelle",
    "street": "1110 W William Cannon Dr Suite 401",
    "city": "Austin",
    "state": "TX",
    "zipCode": "78745-5468",
    "phone": "(512) 445-5811",
    "fax": "(512) 445-5721",
    "webSite": ""
  },
  {
    "name": "Amsili, Marc A",
    "street": "12335 Hymeadow Dr Suite 250",
    "city": "Austin",
    "state": "TX",
    "zipCode": "78750-1934",
    "phone": "(512) 250-5012",
    "fax": "(512) 219-8510",
    "webSite": ""
  },
  {
    "name": "Amuny, Ronald A",
    "street": "1112 Hwy 69 North Suite F",
    "city": "Nederland",
    "state": "TX",
    "zipCode": "77627",
    "phone": "(409) 727-5511",
    "fax": "(409) 727-6095",
    "webSite": ""
  },
  {
    "name": "Healthy Smiles Family Dentistry",
    "street": "820 Gessner Rd 1560",
    "city": "Houston",
    "state": "TX",
    "zipCode": "77024-4289",
    "phone": "(832) 563-9592",
    "fax": "",
    "webSite": ""
  },
  {
    "name": "An White, Dds, Pllc",
    "street": "3607 S Main St # 107 ",
    "city": "Stafford",
    "state": "TX",
    "zipCode": "77477-5406",
    "phone": "(832) 930-7847",
    "fax": "(281) 969-8032",
    "webSite": ""
  },
  {
    "name": "Ananaba, Nejay Pauline",
    "street": "790 N Preston Rd Ste 10 ",
    "city": "Prosper",
    "state": "TX",
    "zipCode": "75078-9840",
    "phone": "(972) 984-7345",
    "fax": "(972) 984-5227",
    "webSite": ""
  },
  {
    "name": "Anaya, Krystelle Nicole",
    "street": "3110 Trawood Dr Ste D",
    "city": "El Paso",
    "state": "TX",
    "zipCode": "79936-4394",
    "phone": "(915) 855-1000",
    "fax": "",
    "webSite": ""
  },
  {
    "name": "Anbar, Hedayat",
    "street": "4520 Frankford Rd Ste 900 ",
    "city": "Dallas",
    "state": "TX",
    "zipCode": "75287-6859",
    "phone": "(972) 818-5551",
    "fax": "",
    "webSite": ""
  },
  {
    "name": "Andersen, Kimberly C.",
    "street": "6704 Sterling Ridge Dr Suite G",
    "city": "The Woodlands",
    "state": "TX",
    "zipCode": "77382-2799",
    "phone": "(281) 298-0999",
    "fax": "(281) 298-8809",
    "webSite": ""
  },
  {
    "name": "Anderson Dental Clinic",
    "street": "22106 Hwy 71 W ",
    "city": "Spicewood",
    "state": "TX",
    "zipCode": "78669-6115",
    "phone": "(512) 264-9977",
    "fax": "(512) 264-9517",
    "webSite": ""
  },
  {
    "name": "Anderson Dentistry Bedford, Pllc",
    "street": "2620 Harwood Rd ",
    "city": "Bedford",
    "state": "TX",
    "zipCode": "76021-3700",
    "phone": "(817) 267-6101",
    "fax": "",
    "webSite": ""
  },
  {
    "name": "Anderson Lane Dental",
    "street": "1802 W Anderson Ln ",
    "city": "Austin",
    "state": "TX",
    "zipCode": "78757-1338",
    "phone": "(512) 459-4347",
    "fax": "",
    "webSite": ""
  },
  {
    "name": "Anderson, Alan",
    "street": "3873 Hwy 64 W ",
    "city": "Tyler",
    "state": "TX",
    "zipCode": "75704-6925",
    "phone": "(903) 593-4867",
    "fax": "",
    "webSite": ""
  },
  {
    "name": "Anderson, Austin",
    "street": "12221 Merit Dr Ste 470 ",
    "city": "Dallas",
    "state": "TX",
    "zipCode": "75251-2235",
    "phone": "(972) 628-6440",
    "fax": "(972) 628-6445",
    "webSite": ""
  },
  {
    "name": "Anderson, Brett W",
    "street": "22106 Hwy 71 W ",
    "city": "Spicewood",
    "state": "TX",
    "zipCode": "78669-6115",
    "phone": "(512) 264-9977",
    "fax": "",
    "webSite": ""
  },
  {
    "name": "Anderson, Chad William",
    "street": "2412 Avondale Haslet Rd Ste 100 ",
    "city": "Haslet",
    "state": "TX",
    "zipCode": "76052-3443",
    "phone": "(435) 256-3437",
    "fax": "",
    "webSite": ""
  },
  {
    "name": "Anderson, Charles Wayne",
    "street": "22106 State Highway 71 W ",
    "city": "Spicewood",
    "state": "TX",
    "zipCode": "78669-6115",
    "phone": "(512) 264-9977",
    "fax": "(512) 264-9517",
    "webSite": ""
  },
  {
    "name": "Anderson, Craig Graydon",
    "street": "1700 Crescent Pointe Pkwy ",
    "city": "College Station",
    "state": "TX",
    "zipCode": "77845",
    "phone": "(979) 846-1813",
    "fax": "(979) 260-9824",
    "webSite": ""
  },
  {
    "name": "Anderson, Cristina Sosa",
    "street": "800 E. Los Ebanos Blvd ",
    "city": "Brownsville",
    "state": "TX",
    "zipCode": "78520",
    "phone": "(956) 542-2000",
    "fax": "(956) 542-5194",
    "webSite": ""
  },
  {
    "name": "Anderson, Jonathan Scott",
    "street": "17350 State Highway 249 Ste 200",
    "city": "Houston",
    "state": "TX",
    "zipCode": "77064-1147",
    "phone": "(281) 469-8026",
    "fax": "",
    "webSite": ""
  },
  {
    "name": "Anderson, Julie A",
    "street": "59 Dg Af Postgraduate Dental School 2133 Pepperrell Street, Building 3352",
    "city": "Jbsa-Lackland",
    "state": "TX",
    "zipCode": "78236-5313",
    "phone": "(210) 292-6258",
    "fax": "(210) 292-2618",
    "webSite": ""
  },
  {
    "name": "Anderson, Keon",
    "street": "100 N Lamar St ",
    "city": "Fort Worth",
    "state": "TX",
    "zipCode": "76196-0216",
    "phone": "(817) 702-3567",
    "fax": "(817) 569-1421",
    "webSite": ""
  },
  {
    "name": "Anderson, Kipton Ford",
    "street": "1801 Harwood Ct ",
    "city": "Hurst",
    "state": "TX",
    "zipCode": "76054-3190",
    "phone": "(817) 788-0573",
    "fax": "",
    "webSite": ""
  },
  {
    "name": "Anderson, Martin L.",
    "street": "6911 Highway 6 S Suite 202",
    "city": "Houston",
    "state": "TX",
    "zipCode": "77083-6751",
    "phone": "(281) 438-0106",
    "fax": "(281) 561-9657",
    "webSite": ""
  },
  {
    "name": "Anderson, Monica",
    "street": "11044 Research Blvd Building D, Suite D-400",
    "city": "Austin",
    "state": "TX",
    "zipCode": "78759-5263",
    "phone": "(817) 798-8948",
    "fax": "",
    "webSite": ""
  },
  {
    "name": "Anderson, Natalie",
    "street": "5301 50Th St Ste 100 ",
    "city": "Lubbock",
    "state": "TX",
    "zipCode": "79414-5834",
    "phone": "(806) 793-3556",
    "fax": "",
    "webSite": ""
  },
  {
    "name": "Anderson, Rachel",
    "street": "2101 W White St Ste 100 ",
    "city": "Anna",
    "state": "TX",
    "zipCode": "75409-5347",
    "phone": "(972) 924-2452",
    "fax": "",
    "webSite": ""
  },
  {
    "name": "Anderson, Stephen P.",
    "street": "2915 E Southlake Blvd Suite 100",
    "city": "Southlake",
    "state": "TX",
    "zipCode": "76092-6626",
    "phone": "(817) 481-6553",
    "fax": "",
    "webSite": ""
  },
  {
    "name": "Anderson, Thomas Ray",
    "street": "113 Hwy. 274 S. ",
    "city": "Kemp",
    "state": "TX",
    "zipCode": "75143-0348",
    "phone": "(903) 498-8757",
    "fax": "",
    "webSite": ""
  },
  {
    "name": "Anderson, Todd",
    "street": "5303 Colleyville Blvd Ste B ",
    "city": "Colleyville",
    "state": "TX",
    "zipCode": "76034-6129",
    "phone": "(817) 485-2111",
    "fax": "",
    "webSite": ""
  },
  {
    "name": "Anderson, William",
    "street": "1502 N Zaragosa Rd ",
    "city": "El Paso",
    "state": "TX",
    "zipCode": "79936",
    "phone": "(915) 855-4442",
    "fax": "",
    "webSite": ""
  },
  {
    "name": "Odessa Family Dental",
    "street": "1157 E 42Nd St Ste A ",
    "city": "Odessa",
    "state": "TX",
    "zipCode": "79762-7723",
    "phone": "(432) 242-6666",
    "fax": "(832) 379-5175",
    "webSite": ""
  },
  {
    "name": "Andes Dental Pllc",
    "street": "5212 Cedar St ",
    "city": "Bellaire",
    "state": "TX",
    "zipCode": "77401-3915",
    "phone": "(713) 668-3677",
    "fax": "(713) 661-2597",
    "webSite": ""
  },
  {
    "name": "Andrea Silvestri Dds Pa",
    "street": "5205 Broadway Ave ",
    "city": "Haltom City",
    "state": "TX",
    "zipCode": "76117-3729",
    "phone": "(817) 834-3666",
    "fax": "",
    "webSite": ""
  },
  {
    "name": "Andreasen, Richard William",
    "street": "36000 Darnall Loop ",
    "city": "Fort Hood",
    "state": "TX",
    "zipCode": "76544-5095",
    "phone": "(254) 287-4227",
    "fax": "",
    "webSite": ""
  },
  {
    "name": "Andree, Nancy Lynn",
    "street": "201 W Fm 2410 Rd ",
    "city": "Harker Heights",
    "state": "TX",
    "zipCode": "76548-0385",
    "phone": "(254) 699-3565",
    "fax": "",
    "webSite": ""
  },
  {
    "name": "Andress, Ronnie Lee",
    "street": "6644 Garth Rd ",
    "city": "Baytown",
    "state": "TX",
    "zipCode": "77521-8623",
    "phone": "(281) 839-0532",
    "fax": "(281) 421-9720",
    "webSite": ""
  },
  {
    "name": "Andress, William",
    "street": "3602 Vista Rd ",
    "city": "Pasadena",
    "state": "TX",
    "zipCode": "77504-1942",
    "phone": "(713) 946-5171",
    "fax": "(713) 946-0047",
    "webSite": ""
  },
  {
    "name": "Andrew Cha Detistry",
    "street": "2560 Royal Ln #114",
    "city": "Dallas",
    "state": "TX",
    "zipCode": "75229-3452",
    "phone": "(972) 620-2875",
    "fax": "(972) 620-7207",
    "webSite": ""
  },
  {
    "name": "Andrew De La Garza, Jr., Dds, Pa",
    "street": "315 N San Saba Suite 925",
    "city": "San Antonio",
    "state": "TX",
    "zipCode": "78207-3154",
    "phone": "(210) 227-1991",
    "fax": "",
    "webSite": ""
  },
  {
    "name": "Andrew Edmonds, Dmd, Pllc",
    "street": "4405 Williams Dr Ste 300 ",
    "city": "Georgetown",
    "state": "TX",
    "zipCode": "78628-1383",
    "phone": "(405) 488-8379",
    "fax": "",
    "webSite": ""
  },
  {
    "name": "Galleria Smiles",
    "street": "5000 Westheimer Rd Ste 630 ",
    "city": "Houston",
    "state": "TX",
    "zipCode": "77056-5619",
    "phone": "(832) 831-5417",
    "fax": "",
    "webSite": ""
  },
  {
    "name": "Andrew J Crowson Dds",
    "street": "1920 N Main St Ste 104 ",
    "city": "Belton",
    "state": "TX",
    "zipCode": "76513-1948",
    "phone": "(254) 939-1868",
    "fax": "(254) 933-0402",
    "webSite": ""
  },
  {
    "name": "Dyer Family Dental",
    "street": "14505 Horizon Blvd Ste. B",
    "city": "Horizon City",
    "state": "TX",
    "zipCode": "79928-8564",
    "phone": "(909) 810-7306",
    "fax": "",
    "webSite": ""
  },
  {
    "name": "Andrew K Seamans Dds Inc",
    "street": "424 N Virginia St ",
    "city": "Port Lavaca",
    "state": "TX",
    "zipCode": "77979-3018",
    "phone": "(361) 552-2977",
    "fax": "",
    "webSite": ""
  },
  {
    "name": "Andrew Winslow Mcdaniel, Dmd, P.A.",
    "street": "2811 S Loop 289 Ste 12",
    "city": "Lubbock",
    "state": "TX",
    "zipCode": "79423-1488",
    "phone": "(806) 748-9797",
    "fax": "(806) 748-9788",
    "webSite": ""
  },
  {
    "name": "Colonial Dental",
    "street": "4645 Hwy 6 Suite G",
    "city": "Sugar Land",
    "state": "TX",
    "zipCode": "77478",
    "phone": "(281) 494-8188",
    "fax": "(281) 494-8190",
    "webSite": ""
  },
  {
    "name": "Andrews 2012 Pllc",
    "street": "711 Hospital Dr ",
    "city": "Andrews",
    "state": "TX",
    "zipCode": "79714-3616",
    "phone": "(888) 988-4066",
    "fax": "(847) 496-7603",
    "webSite": ""
  },
  {
    "name": "Andrews Dental Care, Pllc",
    "street": "2270 Matlock Rd Suite 102",
    "city": "Mansfield",
    "state": "TX",
    "zipCode": "76063-3709",
    "phone": "(817) 477-0994",
    "fax": "(817) 453-5450",
    "webSite": ""
  },
  {
    "name": "Andrews, Quentin T",
    "street": "20501 Katy Fwy Suite 104",
    "city": "Katy",
    "state": "TX",
    "zipCode": "77450-1935",
    "phone": "(281) 578-0211",
    "fax": "(281) 578-2487",
    "webSite": ""
  },
  {
    "name": "Andrews, Victoria Nina",
    "street": "908 Town And Country Blvd Suite 220 ",
    "city": "Houston",
    "state": "TX",
    "zipCode": "77024",
    "phone": "(713) 465-6665",
    "fax": "(713) 465-6477",
    "webSite": ""
  },
  {
    "name": "Andy Brian Duke, P.C.",
    "street": "3333 North St Suite B",
    "city": "Beaumont",
    "state": "TX",
    "zipCode": "77706-5041",
    "phone": "(409) 838-3800",
    "fax": "(409) 838-0920",
    "webSite": ""
  },
  {
    "name": "Nw Dental Group",
    "street": "1309 Northwest Hwy ",
    "city": "Garland",
    "state": "TX",
    "zipCode": "75041-5837",
    "phone": "(972) 926-4800",
    "fax": "(972) 926-4880",
    "webSite": ""
  },
  {
    "name": "Andy Dihn Dds Pllc",
    "street": "301 S 9Th St A",
    "city": "Richmond",
    "state": "TX",
    "zipCode": "77469-3448",
    "phone": "(713) 779-6900",
    "fax": "(713) 782-1136",
    "webSite": ""
  },
  {
    "name": "Anekwe, Loretta",
    "street": "3245 Main St Ste 235-308 ",
    "city": "Frisco",
    "state": "TX",
    "zipCode": "75034-4411",
    "phone": "(216) 368-7238",
    "fax": "",
    "webSite": ""
  },
  {
    "name": "Anew Dental P.C.",
    "street": "1601 Brinker Rd Unit 111",
    "city": "Denton",
    "state": "TX",
    "zipCode": "76208",
    "phone": "(940) 565-5049",
    "fax": "(940) 566-6587",
    "webSite": ""
  },
  {
    "name": "Angadi, Aparna",
    "street": "800 W Renner Rd #213",
    "city": "Richardson",
    "state": "TX",
    "zipCode": "75080-1028",
    "phone": "(972) 437-1063",
    "fax": "",
    "webSite": ""
  },
  {
    "name": "Angela Dental Center, P.L.L.C",
    "street": "6906 Airline Dr Ste 106 ",
    "city": "Houston",
    "state": "TX",
    "zipCode": "77076-2455",
    "phone": "(713) 691-8880",
    "fax": "",
    "webSite": ""
  },
  {
    "name": "Angela M Frost",
    "street": "8540 Broadway S Ste 2000",
    "city": "Pearland",
    "state": "TX",
    "zipCode": "77584",
    "phone": "(832) 524-4214",
    "fax": "",
    "webSite": ""
  },
  {
    "name": "Dba Southlake Family Dental Care",
    "street": "2000 E Highway 114 ",
    "city": "Southlake",
    "state": "TX",
    "zipCode": "76092-6514",
    "phone": "(817) 421-1444",
    "fax": "(817) 421-1411",
    "webSite": ""
  },
  {
    "name": "Angie Dinh Dds, Pa",
    "street": "3425 S Shepherd Dr Ste 250 ",
    "city": "Houston",
    "state": "TX",
    "zipCode": "77098-3337",
    "phone": "(713) 526-0056",
    "fax": "(713) 526-0070",
    "webSite": ""
  },
  {
    "name": "Angulo, Eloise Esther",
    "street": "10216 Beechnut St. ",
    "city": "Houston",
    "state": "TX",
    "zipCode": "77072-5016",
    "phone": "(281) 530-1900",
    "fax": "(281) 530-1901",
    "webSite": ""
  },
  {
    "name": "Just For Grins",
    "street": "681 S Main St Suite 300",
    "city": "Keller",
    "state": "TX",
    "zipCode": "76248-7036",
    "phone": "(817) 741-4455",
    "fax": "",
    "webSite": ""
  },
  {
    "name": "Angwin, Jonathan",
    "street": "200 E. State Highway 114 ",
    "city": "Roanoke",
    "state": "TX",
    "zipCode": "76262",
    "phone": "(817) 567-8040",
    "fax": "",
    "webSite": ""
  },
  {
    "name": "Angwin, Kristen Lee",
    "street": "681 S Main St Suite 100",
    "city": "Keller",
    "state": "TX",
    "zipCode": "76248-7036",
    "phone": "(214) 533-3089",
    "fax": "",
    "webSite": ""
  },
  {
    "name": "Anh Le Dds, P.A.",
    "street": "18484 Preston Rd Suite 212",
    "city": "Dallas",
    "state": "TX",
    "zipCode": "75252-5400",
    "phone": "(972) 867-3994",
    "fax": "(972) 867-9185",
    "webSite": ""
  },
  {
    "name": "Anh Van Duong,D.D.S.,P.C.",
    "street": "7746 Park Place Blvd ",
    "city": "Houston",
    "state": "TX",
    "zipCode": "77087-4528",
    "phone": "(713) 649-4800",
    "fax": "(713) 654-1700",
    "webSite": ""
  },
  {
    "name": "Aniemeke, Esther Oluwakemi",
    "street": "7228 Bandera Rd Ste 104 ",
    "city": "San Antonio",
    "state": "TX",
    "zipCode": "78238-1205",
    "phone": "(713) 377-2675",
    "fax": "",
    "webSite": ""
  },
  {
    "name": "Anila Shah Dds Pa",
    "street": "320 Southmore Ave Ste 312B ",
    "city": "Pasadena",
    "state": "TX",
    "zipCode": "77502-1135",
    "phone": "(713) 473-7733",
    "fax": "(713) 473-8787",
    "webSite": ""
  },
  {
    "name": "True Dental",
    "street": "1231 William D Tate Suite 400 ",
    "city": "Grapevine",
    "state": "TX",
    "zipCode": "76051",
    "phone": "(817) 421-4030",
    "fax": "(817) 421-4032",
    "webSite": ""
  },
  {
    "name": "Anita Paulus Dds Pc",
    "street": "4901 Byers Ave ",
    "city": "Fort Worth",
    "state": "TX",
    "zipCode": "76107",
    "phone": "(817) 738-2163",
    "fax": "(817) 738-9541",
    "webSite": ""
  },
  {
    "name": "Ann Le Dds Pa",
    "street": "5431 Barker Cypress Rd Ste 100 ",
    "city": "Houston",
    "state": "TX",
    "zipCode": "77084-1994",
    "phone": "(281) 855-2227",
    "fax": "(281) 855-9229",
    "webSite": ""
  },
  {
    "name": "Ann Le Dds Pa",
    "street": "12432 Fm 1960 Rd W ",
    "city": "Houston",
    "state": "TX",
    "zipCode": "77065-4809",
    "phone": "(832) 237-4444",
    "fax": "(832) 237-4444",
    "webSite": ""
  },
  {
    "name": "Bluebonnet Dental",
    "street": "804 S Central Expy Suite 201",
    "city": "Anna",
    "state": "TX",
    "zipCode": "75409-4512",
    "phone": "(214) 872-2391",
    "fax": "",
    "webSite": ""
  },
  {
    "name": "Anna C Ashley, Dds, Pa",
    "street": "5314 Everhart Rd Suite A",
    "city": "Corpus Christi",
    "state": "TX",
    "zipCode": "78411-4840",
    "phone": "(361) 991-0102",
    "fax": "",
    "webSite": ""
  },
  {
    "name": "Anna Cowdin Dental Llc",
    "street": "17300 Preston Rd Ste 100 ",
    "city": "Dallas",
    "state": "TX",
    "zipCode": "75252-5636",
    "phone": "(972) 380-6223",
    "fax": "",
    "webSite": ""
  },
  {
    "name": "Anna Dental Pllc",
    "street": "6370 N Eldridge Pkwy Suite B",
    "city": "Houston",
    "state": "TX",
    "zipCode": "77041-3516",
    "phone": "(713) 983-0099",
    "fax": "(713) 983-0071",
    "webSite": ""
  },
  {
    "name": "Garcia Family Dentistry",
    "street": "709 E Harrison Ave ",
    "city": "Harlingen",
    "state": "TX",
    "zipCode": "78550-9151",
    "phone": "(956) 428-8081",
    "fax": "",
    "webSite": ""
  },
  {
    "name": "Annapareddy, Anupama",
    "street": "1100 Lowes Blvd ",
    "city": "Killeen",
    "state": "TX",
    "zipCode": "76542-5491",
    "phone": "(254) 449-8163",
    "fax": "",
    "webSite": ""
  },
  {
    "name": "Annmarie Olson Dds Pa",
    "street": "11623 Angus Rd Ste 23 ",
    "city": "Austin",
    "state": "TX",
    "zipCode": "78759-4041",
    "phone": "(512) 345-9973",
    "fax": "(512) 345-9664",
    "webSite": ""
  },
  {
    "name": "Antee, Daniel Warren",
    "street": "102 Christie Dr ",
    "city": "Lufkin",
    "state": "TX",
    "zipCode": "75904-5567",
    "phone": "(936) 634-6110",
    "fax": "",
    "webSite": ""
  },
  {
    "name": "Anthony B. Henegar, Dds, Pa",
    "street": "7475 Las Colinas Blvd ",
    "city": "Irving",
    "state": "TX",
    "zipCode": "75063-7561",
    "phone": "(972) 594-6915",
    "fax": "(972) 409-0587",
    "webSite": ""
  },
  {
    "name": "Anthony C Garza Dds Inc",
    "street": "620 East Sinton Street ",
    "city": "Sinton",
    "state": "TX",
    "zipCode": "78387",
    "phone": "(361) 364-4410",
    "fax": "(361) 364-3309",
    "webSite": ""
  },
  {
    "name": "Anthony Dillard Dds Pllc",
    "street": "4364 N Josey Ln ",
    "city": "Carrollton",
    "state": "TX",
    "zipCode": "75010-4602",
    "phone": "(972) 394-1492",
    "fax": "(972) 394-8650",
    "webSite": ""
  },
  {
    "name": "Houston Northwest Dental Center",
    "street": "850 Fm 1960 Rd Suite F",
    "city": "Houston",
    "state": "TX",
    "zipCode": "77090-3418",
    "phone": "(281) 893-3144",
    "fax": "(281) 893-8996",
    "webSite": ""
  },
  {
    "name": "Antolin, Rhea Theresa Coronel",
    "street": "105 Country View Dr Ste 300 ",
    "city": "Roanoke",
    "state": "TX",
    "zipCode": "76262",
    "phone": "(682) 237-2353",
    "fax": "(682) 237-2352",
    "webSite": ""
  },
  {
    "name": "Anton, Angela Duffin",
    "street": "90 Wilson Rd ",
    "city": "Humble",
    "state": "TX",
    "zipCode": "77338-3922",
    "phone": "(281) 446-7353",
    "fax": "(281) 446-0789",
    "webSite": ""
  },
  {
    "name": "Anton, Christopher Sean",
    "street": "1445 North Loop W Ste 1000 ",
    "city": "Houston",
    "state": "TX",
    "zipCode": "77008-1680",
    "phone": "(713) 861-3231",
    "fax": "(713) 426-1720",
    "webSite": ""
  },
  {
    "name": "Antoon, Ousama",
    "street": "6521 Preston Road Suite 300",
    "city": "Plano",
    "state": "TX",
    "zipCode": "75024-2610",
    "phone": "(972) 267-5000",
    "fax": "(972) 267-5002",
    "webSite": ""
  },
  {
    "name": "Anwah, Joseph",
    "street": "2337 S. Beltline Rd. Ste 100",
    "city": "Grand Prairie",
    "state": "TX",
    "zipCode": "75051",
    "phone": "(972) 282-9444",
    "fax": "(972) 282-9446",
    "webSite": ""
  },
  {
    "name": "Aoms Canyon, Pllc",
    "street": "2808 4Th Ave ",
    "city": "Canyon",
    "state": "TX",
    "zipCode": "79015-4270",
    "phone": "(806) 557-4085",
    "fax": "(806) 353-7077",
    "webSite": ""
  },
  {
    "name": "Aoms Pediatric Dentistry, Llc",
    "street": "5051 S Soncy Rd ",
    "city": "Amarillo",
    "state": "TX",
    "zipCode": "79119-6667",
    "phone": "(806) 803-9452",
    "fax": "(806) 353-7077",
    "webSite": ""
  },
  {
    "name": "Dba: Aesthetic Plus",
    "street": "2304 Midway Rd Ste C",
    "city": "Plano",
    "state": "TX",
    "zipCode": "75093-1611",
    "phone": "(972) 473-8880",
    "fax": "",
    "webSite": ""
  },
  {
    "name": "Aparajita, Richa",
    "street": "1707 N Hall St Apartment 473",
    "city": "Dallas",
    "state": "TX",
    "zipCode": "75204-3911",
    "phone": "(412) 726-2365",
    "fax": "",
    "webSite": ""
  },
  {
    "name": "Aparicio, Kera C",
    "street": "2002 Holcombe Blvd ",
    "city": "Houston",
    "state": "TX",
    "zipCode": "77030-4211",
    "phone": "(713) 791-1414",
    "fax": "",
    "webSite": ""
  },
  {
    "name": "Apex Dental Associates, Inc",
    "street": "909 Dairy Ashford St Ste 210 ",
    "city": "Houston",
    "state": "TX",
    "zipCode": "77079-5306",
    "phone": "(281) 497-4740",
    "fax": "",
    "webSite": ""
  },
  {
    "name": "Apex Dental Pc",
    "street": "4610 North St Ste 101",
    "city": "Nacogdoches",
    "state": "TX",
    "zipCode": "75965-1813",
    "phone": "(617) 281-7947",
    "fax": "",
    "webSite": ""
  },
  {
    "name": "Highland Park Dental",
    "street": "6725 Hillcrest Ave Suite B",
    "city": "Dallas",
    "state": "TX",
    "zipCode": "75205-5640",
    "phone": "(214) 521-3730",
    "fax": "(214) 363-7794",
    "webSite": ""
  },
  {
    "name": "Apilado, Paul V",
    "street": "6955 N Mesa St Suite 110",
    "city": "El Paso",
    "state": "TX",
    "zipCode": "79912-4442",
    "phone": "(915) 584-1131",
    "fax": "(915) 584-7869",
    "webSite": ""
  },
  {
    "name": "Apodaca, Karla P",
    "street": "216 W Little York Rd Ste B ",
    "city": "Houston",
    "state": "TX",
    "zipCode": "77076-1432",
    "phone": "(713) 699-0527",
    "fax": "",
    "webSite": ""
  },
  {
    "name": "Apollo Dental",
    "street": "3341 Telephone Rd Suite 100",
    "city": "Houston",
    "state": "TX",
    "zipCode": "77023-5427",
    "phone": "(713) 923-2252",
    "fax": "(713) 923-2292",
    "webSite": ""
  },
  {
    "name": "Apollonia Dental, Pa",
    "street": "4427 Highway 6 Suite A",
    "city": "Sugar Land",
    "state": "TX",
    "zipCode": "77478-4424",
    "phone": "(281) 565-4321",
    "fax": "(281) 778-1222",
    "webSite": ""
  },
  {
    "name": "Appel, Robert Gerald",
    "street": "80 Wilson Rd Ste C ",
    "city": "Humble",
    "state": "TX",
    "zipCode": "77338-3961",
    "phone": "(281) 446-2362",
    "fax": "(281) 446-1309",
    "webSite": ""
  },
  {
    "name": "Appiah, Brenda",
    "street": "5105 Eldorado Pkwy Suite 150",
    "city": "Frisco",
    "state": "TX",
    "zipCode": "75033-8674",
    "phone": "(214) 387-0745",
    "fax": "",
    "webSite": ""
  },
  {
    "name": "Apple Dentists Pllc",
    "street": "13194 Bellaire Blvd Suite 100",
    "city": "Houston",
    "state": "TX",
    "zipCode": "77072-5102",
    "phone": "(281) 530-5050",
    "fax": "(281) 561-6522",
    "webSite": ""
  },
  {
    "name": "Apple Dentists, Pllc",
    "street": "11900 Bellaire Blvd Ste A ",
    "city": "Houston",
    "state": "TX",
    "zipCode": "77072-2305",
    "phone": "(281) 564-6665",
    "fax": "",
    "webSite": ""
  },
  {
    "name": "Applewhite Dental",
    "street": "6204 S Cooper St Suite 104",
    "city": "Arlington",
    "state": "TX",
    "zipCode": "76001-5700",
    "phone": "(817) 466-0200",
    "fax": "",
    "webSite": ""
  },
  {
    "name": "Applewhite Taylor, Ramona",
    "street": "4927 Lake Ridge Pkwy Ste 140",
    "city": "Grand Prairie",
    "state": "TX",
    "zipCode": "75052-3087",
    "phone": "(817) 591-7800",
    "fax": "(682) 323-8456",
    "webSite": ""
  },
  {
    "name": "Aqua Dental Of Texas Pllc",
    "street": "307 E Camp Wisdom Rd Suite 305",
    "city": "Duncanville",
    "state": "TX",
    "zipCode": "75116-2705",
    "phone": "(310) 923-3787",
    "fax": "",
    "webSite": ""
  },
  {
    "name": "Aqua Dental Ingram",
    "street": "6064 Ingram Rd ",
    "city": "San Antonio",
    "state": "TX",
    "zipCode": "78238-4402",
    "phone": "(972) 677-7845",
    "fax": "",
    "webSite": ""
  },
  {
    "name": "Aquarium Dental , Pllc",
    "street": "9404 W Sam Houston Pkwy S Ste A ",
    "city": "Houston",
    "state": "TX",
    "zipCode": "77099-2054",
    "phone": "(281) 568-1270",
    "fax": "(281) 568-1603",
    "webSite": ""
  },
  {
    "name": "Aquino, Federico Capnay",
    "street": "221 3Rd St W ",
    "city": "Jbsa Randolph",
    "state": "TX",
    "zipCode": "78150-4801",
    "phone": "(210) 652-1846",
    "fax": "",
    "webSite": ""
  },
  {
    "name": "Arab, Arash",
    "street": "240 Desert Pass St Ste A ",
    "city": "El Paso",
    "state": "TX",
    "zipCode": "79912-3614",
    "phone": "(915) 933-1800",
    "fax": "",
    "webSite": ""
  },
  {
    "name": "Arabzadeh, Ehsan",
    "street": "607 Timberdale Ln Suite 101",
    "city": "Houston",
    "state": "TX",
    "zipCode": "77090-3049",
    "phone": "(281) 440-0050",
    "fax": "(281) 440-0779",
    "webSite": ""
  },
  {
    "name": "Arafat, Sarah",
    "street": "6130 Highway 6 ",
    "city": "Missouri City",
    "state": "TX",
    "zipCode": "77459-3802",
    "phone": "(832) 539-3144",
    "fax": "",
    "webSite": ""
  },
  {
    "name": "Aragon, Kristine Ria",
    "street": "19961 Katy Fwy ",
    "city": "Houston",
    "state": "TX",
    "zipCode": "77094",
    "phone": "(713) 244-7799",
    "fax": "",
    "webSite": ""
  },
  {
    "name": "Arakotaram Ravikumar, Rakshith",
    "street": "1670 Highway 71 E Ste A ",
    "city": "Bastrop",
    "state": "TX",
    "zipCode": "78602-2034",
    "phone": "(512) 240-6496",
    "fax": "",
    "webSite": ""
  },
  {
    "name": "Arami, Masoud",
    "street": "4821 Saturn Rd Suite # 102",
    "city": "Garland",
    "state": "TX",
    "zipCode": "75041-5913",
    "phone": "(972) 270-8822",
    "fax": "(972) 613-4552",
    "webSite": ""
  },
  {
    "name": "Arana, Paulette Alma",
    "street": "3730 Kirby Dr Suite 815",
    "city": "Houston",
    "state": "TX",
    "zipCode": "77098-3905",
    "phone": "(713) 528-3384",
    "fax": "(713) 528-3567",
    "webSite": ""
  },
  {
    "name": "Aranda & Aranda D.D.S Pa",
    "street": "10905 Wurzbach Rd ",
    "city": "San Antonio",
    "state": "TX",
    "zipCode": "78230-2501",
    "phone": "(210) 690-5252",
    "fax": "(210) 690-3889",
    "webSite": ""
  },
  {
    "name": "Aranda, Gabriela",
    "street": "10905 Wurzbach Rd ",
    "city": "San Antonio",
    "state": "TX",
    "zipCode": "78230-2501",
    "phone": "(210) 690-5252",
    "fax": "",
    "webSite": ""
  },
  {
    "name": "Aranda, Rafael",
    "street": "10905 Wurzbach Rd ",
    "city": "San Antonio",
    "state": "TX",
    "zipCode": "78230-2501",
    "phone": "(210) 690-5252",
    "fax": "(210) 690-3889",
    "webSite": ""
  },
  {
    "name": "Aransas Dental Pllc",
    "street": "219 E Goodnight Ave ",
    "city": "Aransas Pass",
    "state": "TX",
    "zipCode": "78336-1903",
    "phone": "(713) 248-8780",
    "fax": "(682) 222-1093",
    "webSite": ""
  },
  {
    "name": "Arbaugh, Jesse",
    "street": "90 Spring Creek Vlg ",
    "city": "Dallas",
    "state": "TX",
    "zipCode": "75248-5735",
    "phone": "(972) 702-9017",
    "fax": "",
    "webSite": ""
  },
  {
    "name": "Arbogast, Amy Jo",
    "street": "805 E Mockingbird Ln Suite A",
    "city": "Victoria",
    "state": "TX",
    "zipCode": "77904-2145",
    "phone": "(361) 485-9607",
    "fax": "(361) 485-9613",
    "webSite": ""
  },
  {
    "name": "Arbor Dental Associates",
    "street": "9515 N Lamar Blvd Suite 158",
    "city": "Austin",
    "state": "TX",
    "zipCode": "78753-4188",
    "phone": "(512) 835-5780",
    "fax": "(512) 835-9758",
    "webSite": ""
  },
  {
    "name": "Arbor Modern Dentistry",
    "street": "18152 Preston Road Suite 1-2 ",
    "city": "Dallas",
    "state": "TX",
    "zipCode": "75252",
    "phone": "(972) 964-6949",
    "fax": "(972) 964-6929",
    "webSite": ""
  },
  {
    "name": "Arc 32 Family Dentistry",
    "street": "4 Horizon Court Suite 400 ",
    "city": "Heath",
    "state": "TX",
    "zipCode": "75032",
    "phone": "(469) 826-8878",
    "fax": "",
    "webSite": ""
  },
  {
    "name": "Arcade Dental",
    "street": "146 Caribbean Dr 103",
    "city": "Brownsville",
    "state": "TX",
    "zipCode": "78520-3615",
    "phone": "(956) 884-4911",
    "fax": "",
    "webSite": ""
  },
  {
    "name": "Arch Dental Of Debbie Pa",
    "street": "1450 Debbie Lane Suite #130",
    "city": "Arlington",
    "state": "TX",
    "zipCode": "76002",
    "phone": "(817) 533-4755",
    "fax": "(817) 533-4760",
    "webSite": ""
  },
  {
    "name": "Arch Dental Pc",
    "street": "9816 Memorial Blvd Suite 101",
    "city": "Humble",
    "state": "TX",
    "zipCode": "77338-4255",
    "phone": "(281) 446-6527",
    "fax": "",
    "webSite": ""
  },
  {
    "name": "Archangel Dental Group, P.A.",
    "street": "10100 Beechnut St Suite 110",
    "city": "Houston",
    "state": "TX",
    "zipCode": "77072-5000",
    "phone": "(281) 879-5800",
    "fax": "(281) 879-9300",
    "webSite": ""
  },
  {
    "name": "Archangel Dentistry, P.L.L.C.",
    "street": "10100 Beechnut St Suite 110",
    "city": "Houston",
    "state": "TX",
    "zipCode": "77072-5000",
    "phone": "(281) 879-5800",
    "fax": "(281) 879-5858",
    "webSite": ""
  },
  {
    "name": "Archer, Amanda",
    "street": "11010 W Fm 471 Ste 104 ",
    "city": "San Antonio",
    "state": "TX",
    "zipCode": "78253-4991",
    "phone": "(210) 688-9386",
    "fax": "",
    "webSite": ""
  },
  {
    "name": "Archer, John Michael",
    "street": "1900 Coulter Road Suite G",
    "city": "Amarillo",
    "state": "TX",
    "zipCode": "79107-1732",
    "phone": "(806) 355-7249",
    "fax": "(806) 355-3966",
    "webSite": ""
  },
  {
    "name": "Archer, Vincent",
    "street": "2133 Pepperrell St Bldg 3352 ",
    "city": "Jbsa Lackland",
    "state": "TX",
    "zipCode": "78236-5313",
    "phone": "(210) 292-0123",
    "fax": "",
    "webSite": ""
  },
  {
    "name": "Archie Dental Pllc",
    "street": "2208 W Park Row Dr Ste 102 ",
    "city": "Pantego",
    "state": "TX",
    "zipCode": "76013-7408",
    "phone": "(817) 422-9280",
    "fax": "(682) 323-5499",
    "webSite": ""
  },
  {
    "name": "Archstone Dental - Aledo Pllc",
    "street": "103 Willow Bend Drive Ste 100",
    "city": "Willow Park",
    "state": "TX",
    "zipCode": "76087",
    "phone": "(972) 869-3789",
    "fax": "",
    "webSite": ""
  },
  {
    "name": "Archstone Dental Pllc",
    "street": "639 Sherry Lane ",
    "city": "Fort Worth",
    "state": "TX",
    "zipCode": "76116",
    "phone": "(817) 737-7711",
    "fax": "(817) 737-7712",
    "webSite": ""
  },
  {
    "name": "Arcila, Paola Andrea",
    "street": "910 N Earl Rudder Fwy #100",
    "city": "Bryan",
    "state": "TX",
    "zipCode": "77802-2930",
    "phone": "(979) 431-3329",
    "fax": "",
    "webSite": ""
  },
  {
    "name": "Arendas, Andrew Nicholas",
    "street": "4441 Service Dr Hqs, Usa Dentac",
    "city": "Ft Hood",
    "state": "TX",
    "zipCode": "76544-5054",
    "phone": "(254) 287-2705",
    "fax": "(254) 287-1786",
    "webSite": ""
  },
  {
    "name": "Arfai, Naseem K",
    "street": "8550 S Braeswood Blvd Ste B ",
    "city": "Houston",
    "state": "TX",
    "zipCode": "77071-1110",
    "phone": "(713) 778-0999",
    "fax": "(713) 490-6755",
    "webSite": ""
  },
  {
    "name": "Argaez, Paola A",
    "street": "15718 S. Highway 288 Suite 160",
    "city": "Pearland",
    "state": "TX",
    "zipCode": "77584",
    "phone": "(713) 436-1046",
    "fax": "(713) 436-1049",
    "webSite": ""
  },
  {
    "name": "Argandona-Daab, Jackeline Audrey",
    "street": "2906 S Bagdad Rd Ste 100 ",
    "city": "Leander",
    "state": "TX",
    "zipCode": "78641-3269",
    "phone": "(512) 259-1250",
    "fax": "(512) 259-1160",
    "webSite": ""
  },
  {
    "name": "Arguelles, Alanna",
    "street": "1025 S Mason Rd ",
    "city": "Katy",
    "state": "TX",
    "zipCode": "77450-3840",
    "phone": "(281) 398-4500",
    "fax": "(281) 398-5718",
    "webSite": ""
  },
  {
    "name": "Arguelles, Courtney",
    "street": "2111 Ih 35 S Suite 1100",
    "city": "New Braunfels",
    "state": "TX",
    "zipCode": "78130-7506",
    "phone": "(830) 360-1618",
    "fax": "(830) 360-1774",
    "webSite": ""
  },
  {
    "name": "Arguelles, Forrest Anthony Eugene",
    "street": "4655 Sweetwater Blvd Ste 400 ",
    "city": "Sugar Land",
    "state": "TX",
    "zipCode": "77479-3015",
    "phone": "(281) 265-9000",
    "fax": "(281) 265-7554",
    "webSite": ""
  },
  {
    "name": "Arias, Ellen Marie",
    "street": "20131 Highway 59 N 1238",
    "city": "Humble",
    "state": "TX",
    "zipCode": "77338-2305",
    "phone": "(281) 446-4237",
    "fax": "(281) 446-6942",
    "webSite": ""
  },
  {
    "name": "Arisco, Jude T",
    "street": "2004B S 57Th St ",
    "city": "Temple",
    "state": "TX",
    "zipCode": "76504-6948",
    "phone": "(254) 773-2197",
    "fax": "(254) 773-5062",
    "webSite": ""
  },
  {
    "name": "Arise Dental Of Carthage Pllc",
    "street": "1100 W Panola St ",
    "city": "Carthage",
    "state": "TX",
    "zipCode": "75633-2342",
    "phone": "(903) 200-1114",
    "fax": "(903) 500-2703",
    "webSite": ""
  },
  {
    "name": "Arise Dental Pllc",
    "street": "879 Us Highway 271 N Ste 100 ",
    "city": "Gilmer",
    "state": "TX",
    "zipCode": "75644-5580",
    "phone": "(903) 730-6076",
    "fax": "(903) 471-3420",
    "webSite": ""
  },
  {
    "name": "Arjarapu, Apurva V",
    "street": "1821 S Lakeline Blvd Ste 101 ",
    "city": "Cedar Park",
    "state": "TX",
    "zipCode": "78613-4674",
    "phone": "(512) 852-8528",
    "fax": "(512) 906-2988",
    "webSite": ""
  },
  {
    "name": "Ark Dental, P. C.",
    "street": "9777 Ferguson Rd Suite 101",
    "city": "Dallas",
    "state": "TX",
    "zipCode": "75228-3838",
    "phone": "(214) 320-9444",
    "fax": "(214) 320-9555",
    "webSite": ""
  },
  {
    "name": "Ark Dental, P.C.",
    "street": "9777 Ferguson Rd 101",
    "city": "Dallas",
    "state": "TX",
    "zipCode": "75228-3838",
    "phone": "(214) 320-9444",
    "fax": "(214) 320-9555",
    "webSite": ""
  },
  {
    "name": "Arlen R Cowles Dds Pa",
    "street": "3208 Long Prairie Rd Suite A",
    "city": "Flower Mound",
    "state": "TX",
    "zipCode": "75022-2718",
    "phone": "(972) 539-7759",
    "fax": "(972) 539-4310",
    "webSite": ""
  },
  {
    "name": "Arlington Dental Associates",
    "street": "4654 S Cooper St Ste. 316",
    "city": "Arlington",
    "state": "TX",
    "zipCode": "76017-5865",
    "phone": "(817) 557-0095",
    "fax": "",
    "webSite": ""
  },
  {
    "name": "Arlington Family Dental Centre, Pa",
    "street": "101 E Randol Mill Rd Suite 107",
    "city": "Arlington",
    "state": "TX",
    "zipCode": "76011-4610",
    "phone": "(817) 277-8847",
    "fax": "(817) 277-9550",
    "webSite": ""
  },
  {
    "name": "All Star Smiles",
    "street": "939 East Park Row Dr. ",
    "city": "Arlington",
    "state": "TX",
    "zipCode": "76010-4508",
    "phone": "(817) 987-1293",
    "fax": "(817) 987-1297",
    "webSite": ""
  },
  {
    "name": "Mountain View Laser Dentistry",
    "street": "912 West Randol Mill Rd Suite C",
    "city": "Arlington",
    "state": "TX",
    "zipCode": "76012",
    "phone": "(817) 274-8223",
    "fax": "(817) 276-9243",
    "webSite": ""
  },
  {
    "name": "Armendariz, Alonso",
    "street": "1314 E San Benito ",
    "city": "Rio Grande City",
    "state": "TX",
    "zipCode": "78582-7858",
    "phone": "(956) 488-8354",
    "fax": "(956) 488-8247",
    "webSite": ""
  },
  {
    "name": "Armendariz-Valdes, Rosa Maria",
    "street": "4815 Alameda Ave ",
    "city": "El Paso",
    "state": "TX",
    "zipCode": "79905-2705",
    "phone": "(915) 521-7795",
    "fax": "(915) 521-7868",
    "webSite": ""
  },
  {
    "name": "Armstrong, Brookie Denise",
    "street": "2411 Williams Dr Ste 111",
    "city": "Georgetown",
    "state": "TX",
    "zipCode": "78628-3271",
    "phone": "(512) 864-1445",
    "fax": "(512) 864-1447",
    "webSite": ""
  },
  {
    "name": "Armstrong, Craig S.",
    "street": "10370 Richmond Ave Ste 780",
    "city": "Houston",
    "state": "TX",
    "zipCode": "77042-0001",
    "phone": "(832) 251-1234",
    "fax": "(832) 251-9555",
    "webSite": ""
  },
  {
    "name": "Armstrong, Dean N.",
    "street": "6020 Belpree Rd Ste B ",
    "city": "Amarillo",
    "state": "TX",
    "zipCode": "79106-3333",
    "phone": "(806) 355-6511",
    "fax": "(806) 355-7029",
    "webSite": ""
  },
  {
    "name": "Armstrong, Harriet Hays",
    "street": "180 Welborn St ",
    "city": "Silsbee",
    "state": "TX",
    "zipCode": "77656-5037",
    "phone": "(409) 385-5200",
    "fax": "(409) 385-2224",
    "webSite": ""
  },
  {
    "name": "Armstrong, Richard E.",
    "street": "2098 N Valley Mills Dr Ste A ",
    "city": "Waco",
    "state": "TX",
    "zipCode": "76710-2585",
    "phone": "(254) 776-0691",
    "fax": "(254) 751-0214",
    "webSite": ""
  },
  {
    "name": "Armstrong, Sophia Lynn",
    "street": "4815 Fm 2351 Rd Ste 104",
    "city": "Friendswood",
    "state": "TX",
    "zipCode": "77546-2830",
    "phone": "(281) 482-1020",
    "fax": "(281) 482-1057",
    "webSite": ""
  },
  {
    "name": "Arnason, Stephen C",
    "street": "1615 Truemper Street, Bldg 6418 59 Dts/Sgdtg",
    "city": "Jbsa-Lackland",
    "state": "TX",
    "zipCode": "78236",
    "phone": "(210) 292-0746",
    "fax": "",
    "webSite": ""
  },
  {
    "name": "Arnaud M. De Buyl, D,D,S.,Pa",
    "street": "24022 Cinco Village Center Blvd Ste 200 ",
    "city": "Katy",
    "state": "TX",
    "zipCode": "77494-8390",
    "phone": "(281) 392-9251",
    "fax": "(281) 392-5398",
    "webSite": ""
  },
  {
    "name": "Arndt, Shannon Nally",
    "street": "327 Coral Sea Rd Naval Health Branch Clinic",
    "city": "Ingleside",
    "state": "TX",
    "zipCode": "78362-5001",
    "phone": "(361) 776-4581",
    "fax": "",
    "webSite": ""
  },
  {
    "name": "Arnold P Neu Dds",
    "street": "902 Frostwood Suite 101",
    "city": "Houston",
    "state": "TX",
    "zipCode": "77024",
    "phone": "(713) 467-7480",
    "fax": "(713) 827-0985",
    "webSite": ""
  },
  {
    "name": "Arnold, Darnell Samuel",
    "street": "5608 Manor Rd ",
    "city": "Austin",
    "state": "TX",
    "zipCode": "78723-4731",
    "phone": "(512) 928-4390",
    "fax": "(512) 928-1834",
    "webSite": ""
  },
  {
    "name": "Arnold, David Wayne",
    "street": "825 N Travis St ",
    "city": "Liberty",
    "state": "TX",
    "zipCode": "77575-3531",
    "phone": "(936) 336-3696",
    "fax": "(936) 336-6319",
    "webSite": ""
  },
  {
    "name": "Arnold, Kristin Victoria",
    "street": "9550 Spring Green Blvd, Suite 140 ",
    "city": "Katy",
    "state": "TX",
    "zipCode": "77494-3641",
    "phone": "(281) 574-2900",
    "fax": "(281) 769-9398",
    "webSite": ""
  },
  {
    "name": "Arora, Kiran",
    "street": "2785 E Eldorado Pkwy # 105 ",
    "city": "Little Elm",
    "state": "TX",
    "zipCode": "75068-5632",
    "phone": "(972) 292-2288",
    "fax": "(972) 292-2330",
    "webSite": ""
  },
  {
    "name": "Arrechea, Gustavo C",
    "street": "3501 N Macarthur Blvd Ste 410 ",
    "city": "Irving",
    "state": "TX",
    "zipCode": "75062-3649",
    "phone": "(972) 546-4114",
    "fax": "",
    "webSite": ""
  },
  {
    "name": "Arrechea, Vanina C.",
    "street": "7033 Greenville Ave Suite 102",
    "city": "Dallas",
    "state": "TX",
    "zipCode": "75231-5116",
    "phone": "(214) 233-9460",
    "fax": "",
    "webSite": ""
  },
  {
    "name": "Arrechea, Warunsiri Paikoh",
    "street": "3501 N Macarthur Blvd Ste 410 ",
    "city": "Irving",
    "state": "TX",
    "zipCode": "75062-3649",
    "phone": "(972) 947-9625",
    "fax": "",
    "webSite": ""
  },
  {
    "name": "Arredondo, Daniel G",
    "street": "3740 Colony Dr Suite 254",
    "city": "San Antonio",
    "state": "TX",
    "zipCode": "78230-2234",
    "phone": "(210) 690-5170",
    "fax": "(210) 690-8522",
    "webSite": ""
  },
  {
    "name": "Arredondo, Henry J",
    "street": "4822 Holly Rd ",
    "city": "Corpus Christi",
    "state": "TX",
    "zipCode": "78411-4734",
    "phone": "(361) 994-4900",
    "fax": "",
    "webSite": ""
  },
  {
    "name": "Arredondo, Roger Eliseo",
    "street": "4819 Fredericksburg Rd ",
    "city": "San Antonio",
    "state": "TX",
    "zipCode": "78229-3627",
    "phone": "(210) 342-8251",
    "fax": "",
    "webSite": ""
  },
  {
    "name": "Arredondo-Lynch, Alma Gloria",
    "street": "1112 Garner Field Rd ",
    "city": "Uvalde",
    "state": "TX",
    "zipCode": "78801-4812",
    "phone": "(830) 278-8440",
    "fax": "(830) 278-7820",
    "webSite": ""
  },
  {
    "name": "Arriaga, Dianna Marie",
    "street": "5311 Kirby Dr Ste 211 ",
    "city": "Houston",
    "state": "TX",
    "zipCode": "77005-1339",
    "phone": "(713) 529-6334",
    "fax": "",
    "webSite": ""
  },
  {
    "name": "Arribas, Alfredo Roberto",
    "street": "10175 Gateway Blvd W Suite 304",
    "city": "El Paso",
    "state": "TX",
    "zipCode": "79925-7618",
    "phone": "(504) 957-7866",
    "fax": "",
    "webSite": ""
  },
  {
    "name": "Arrington, Emily Lloyd",
    "street": "208 W 28Th Ave ",
    "city": "Pampa",
    "state": "TX",
    "zipCode": "79065-2812",
    "phone": "(405) 642-9449",
    "fax": "(806) 669-2641",
    "webSite": ""
  },
  {
    "name": "Arrow Dental, P.A.",
    "street": "9515 Broadway Suite 117",
    "city": "Pearland",
    "state": "TX",
    "zipCode": "77584",
    "phone": "(832) 643-2048",
    "fax": "",
    "webSite": ""
  },
  {
    "name": "Arroyo, Francisco",
    "street": "8105 Culebra Rd ",
    "city": "San Antonio",
    "state": "TX",
    "zipCode": "78251-1634",
    "phone": "(210) 681-9780",
    "fax": "(210) 681-7029",
    "webSite": ""
  },
  {
    "name": "Arsanious, Sameh",
    "street": "14438 Bellaire Blvd ",
    "city": "Houston",
    "state": "TX",
    "zipCode": "77083-7520",
    "phone": "(281) 568-5184",
    "fax": "",
    "webSite": ""
  },
  {
    "name": "Art & Science Of Dentistry Pc",
    "street": "5016 Briarwood Ave ",
    "city": "Midland",
    "state": "TX",
    "zipCode": "79707-2753",
    "phone": "(432) 699-7334",
    "fax": "(432) 699-7336",
    "webSite": ""
  },
  {
    "name": "Art Of Dentistry",
    "street": "303 E Pleasant Run Rd ",
    "city": "Desoto",
    "state": "TX",
    "zipCode": "75115-3933",
    "phone": "(972) 224-2020",
    "fax": "(972) 224-2282",
    "webSite": ""
  },
  {
    "name": "Artaza, Hugo Eduardo",
    "street": "21510 Kingsland Blvd. ",
    "city": "Katy",
    "state": "TX",
    "zipCode": "77450-2709",
    "phone": "(281) 492-1985",
    "fax": "(281) 492-2005",
    "webSite": ""
  },
  {
    "name": "Arte Dental",
    "street": "2823 Kendale Dr ",
    "city": "Dallas",
    "state": "TX",
    "zipCode": "75220-4736",
    "phone": "(214) 843-3658",
    "fax": "",
    "webSite": ""
  },
  {
    "name": "Arte Dental Lewisville, Pllc",
    "street": "1640 S Business 121 Suite 130",
    "city": "Lewisville",
    "state": "TX",
    "zipCode": "75067",
    "phone": "(972) 382-2783",
    "fax": "",
    "webSite": ""
  },
  {
    "name": "Arte Dental Little Elm",
    "street": "1000 E Eldorado Pkwy Ste 130",
    "city": "Little Elm",
    "state": "TX",
    "zipCode": "75068-6443",
    "phone": "(469) 362-4111",
    "fax": "(469) 362-4111",
    "webSite": ""
  },
  {
    "name": "Arte Dental Plano, Pllc",
    "street": "8404 Preston Rd Ste 212 ",
    "city": "Plano",
    "state": "TX",
    "zipCode": "75024-3332",
    "phone": "(214) 872-2783",
    "fax": "",
    "webSite": ""
  },
  {
    "name": "Artell Dental",
    "street": "2111 W Colorado Blvd ",
    "city": "Dallas",
    "state": "TX",
    "zipCode": "75211-1925",
    "phone": "(214) 942-6106",
    "fax": "(214) 942-4678",
    "webSite": ""
  },
  {
    "name": "Big Smiles Family Dentistry",
    "street": "3460 W Walnut St Suite 600",
    "city": "Garland",
    "state": "TX",
    "zipCode": "75042-7151",
    "phone": "(214) 703-3700",
    "fax": "",
    "webSite": ""
  },
  {
    "name": "Henegar Dental",
    "street": "7475 Las Colinas Blvd ",
    "city": "Irving",
    "state": "TX",
    "zipCode": "75063",
    "phone": "(214) 703-3700",
    "fax": "(972) 276-6490",
    "webSite": ""
  },
  {
    "name": "Artille, Jessica",
    "street": "4940 State Highway 121 Ste 115 ",
    "city": "Lewisville",
    "state": "TX",
    "zipCode": "75056-2928",
    "phone": "(214) 983-0413",
    "fax": "",
    "webSite": ""
  },
  {
    "name": "Artistic Dentistry, Pc",
    "street": "1640 Fountain View Dr ",
    "city": "Houston",
    "state": "TX",
    "zipCode": "77057-2402",
    "phone": "(713) 697-4000",
    "fax": "",
    "webSite": ""
  },
  {
    "name": "Arturo J Bejarano Jr., D.D.S., P.C.",
    "street": "5630 Gateway Blvd E Ste 4 ",
    "city": "El Paso",
    "state": "TX",
    "zipCode": "79905-1748",
    "phone": "(915) 772-5200",
    "fax": "(915) 772-8907",
    "webSite": ""
  },
  {
    "name": "Arturo J. Lopez D.D.S.,P.A.",
    "street": "6900 N 10Th St Ste 7 ",
    "city": "Mcallen",
    "state": "TX",
    "zipCode": "78504-3151",
    "phone": "(956) 630-6130",
    "fax": "(956) 630-5298",
    "webSite": ""
  },
  {
    "name": "Aryafar, Gelareh",
    "street": "11020 Airline Dr ",
    "city": "Houston",
    "state": "TX",
    "zipCode": "77037-1112",
    "phone": "(281) 272-1959",
    "fax": "",
    "webSite": ""
  },
  {
    "name": "San Antonio Dental Center",
    "street": "1134 Culebra Rd 109",
    "city": "San Antonio",
    "state": "TX",
    "zipCode": "78201-6005",
    "phone": "(210) 800-9691",
    "fax": "(210) 800-9795",
    "webSite": ""
  },
  {
    "name": "Aryan, Frank",
    "street": "8373 Culebra Rd Suite # 102 A",
    "city": "San Antonio",
    "state": "TX",
    "zipCode": "78251-1663",
    "phone": "(210) 800-9691",
    "fax": "",
    "webSite": ""
  },
  {
    "name": "Aryan, Nona",
    "street": "623 Spaulding St ",
    "city": "San Angelo",
    "state": "TX",
    "zipCode": "76903-4925",
    "phone": "(210) 382-6529",
    "fax": "",
    "webSite": ""
  },
  {
    "name": "Arzegar, Shahram Sean",
    "street": "7112 Ed Bluestein Blvd ",
    "city": "Austin",
    "state": "TX",
    "zipCode": "78723-2900",
    "phone": "(210) 317-4677",
    "fax": "",
    "webSite": ""
  },
  {
    "name": "Arzumanyan, Gohar",
    "street": "8181 Fannin St #136 ",
    "city": "Houston",
    "state": "TX",
    "zipCode": "77054",
    "phone": "(702) 606-7033",
    "fax": "",
    "webSite": ""
  },
  {
    "name": "Asadi, Micah",
    "street": "9594 Potranco Rd ",
    "city": "San Antonio",
    "state": "TX",
    "zipCode": "78251-9618",
    "phone": "(210) 523-2323",
    "fax": "",
    "webSite": ""
  },
  {
    "name": "Mios Dental",
    "street": "1235 S Josey Ln Ste 534 ",
    "city": "Carrollton",
    "state": "TX",
    "zipCode": "75006-7684",
    "phone": "(972) 232-6411",
    "fax": "",
    "webSite": ""
  },
  {
    "name": "Asare, Abrefi-Kete",
    "street": "2316 S Zapata Hwy Ste 190 ",
    "city": "Laredo",
    "state": "TX",
    "zipCode": "78046-6590",
    "phone": "(956) 284-0600",
    "fax": "",
    "webSite": ""
  },
  {
    "name": "Asay, Calvin Mike",
    "street": "16 Chisholm Trl ",
    "city": "Round Rock",
    "state": "TX",
    "zipCode": "78681-5043",
    "phone": "(512) 244-2796",
    "fax": "(512) 244-7334",
    "webSite": ""
  },
  {
    "name": "Ascent Dental Llc",
    "street": "1674 Keller Pkwy Ste 180 ",
    "city": "Keller",
    "state": "TX",
    "zipCode": "76248-3756",
    "phone": "(785) 764-4535",
    "fax": "",
    "webSite": ""
  },
  {
    "name": "Asclepius Dental Center, Pllc",
    "street": "2412 Jacaman Rd Suite 101",
    "city": "Laredo",
    "state": "TX",
    "zipCode": "78041-6229",
    "phone": "(908) 400-3626",
    "fax": "",
    "webSite": ""
  },
  {
    "name": "Asgari, Fatemah Layla",
    "street": "12626 Woodforest Blvd ",
    "city": "Houston",
    "state": "TX",
    "zipCode": "77015-3425",
    "phone": "(713) 590-0999",
    "fax": "",
    "webSite": ""
  },
  {
    "name": "Asghar, Hassan",
    "street": "1110 Longfellow Dr # B ",
    "city": "Beaumont",
    "state": "TX",
    "zipCode": "77706-4820",
    "phone": "(631) 792-2662",
    "fax": "",
    "webSite": ""
  },
  {
    "name": "Ash Valley Dental P.A.",
    "street": "8202 N Loop 1604 W Ste 101",
    "city": "San Antonio",
    "state": "TX",
    "zipCode": "78249-2897",
    "phone": "(210) 694-5600",
    "fax": "(210) 694-5610",
    "webSite": ""
  },
  {
    "name": "Ashby, Terri Lynn",
    "street": "935 Eventide Dr ",
    "city": "San Antonio",
    "state": "TX",
    "zipCode": "78209-5559",
    "phone": "(210) 824-9566",
    "fax": "",
    "webSite": ""
  },
  {
    "name": "Ashcroft, Jason",
    "street": "544 Fm 156 S Suite 100",
    "city": "Haslet",
    "state": "TX",
    "zipCode": "76052-3605",
    "phone": "(817) 439-4999",
    "fax": "",
    "webSite": ""
  },
  {
    "name": "Ashdown, Thomas Hill",
    "street": "4122 22Nd Pl ",
    "city": "Lubbock",
    "state": "TX",
    "zipCode": "79410-1122",
    "phone": "(806) 725-6581",
    "fax": "(806) 723-6383",
    "webSite": ""
  },
  {
    "name": "Asher Dental Care",
    "street": "7475 Las Colinas Blvd. ",
    "city": "Irving",
    "state": "TX",
    "zipCode": "75062",
    "phone": "(469) 248-2342",
    "fax": "(972) 409-0587",
    "webSite": ""
  },
  {
    "name": "Ashitey, Harry",
    "street": "755 State Highway 121 Byp Suite A200",
    "city": "Lewisville",
    "state": "TX",
    "zipCode": "75067-8175",
    "phone": "(972) 315-9214",
    "fax": "(972) 315-9216",
    "webSite": ""
  },
  {
    "name": "Ashley Jackson, Dds",
    "street": "2701 Soda Springs Dr ",
    "city": "Mckinney",
    "state": "TX",
    "zipCode": "75071-6215",
    "phone": "(903) 522-0650",
    "fax": "",
    "webSite": ""
  },
  {
    "name": "Austin Family Dentistry",
    "street": "4631 Airport Blvd Ste 120A",
    "city": "Austin",
    "state": "TX",
    "zipCode": "78751-3453",
    "phone": "(979) 777-3258",
    "fax": "",
    "webSite": ""
  },
  {
    "name": "Creative Smiles Family Dentistry",
    "street": "7670 Katy Freeway #30",
    "city": "Houston",
    "state": "TX",
    "zipCode": "77024",
    "phone": "(713) 476-0123",
    "fax": "(281) 754-4811",
    "webSite": ""
  },
  {
    "name": "Ashmore, David Wayne",
    "street": "2535 Fm 1960 Rd E ",
    "city": "Houston",
    "state": "TX",
    "zipCode": "77073-2505",
    "phone": "(281) 443-7524",
    "fax": "",
    "webSite": ""
  },
  {
    "name": "Ashraf, Samina",
    "street": "1420 W. Mockingbird Lane Suite 500",
    "city": "Dallas",
    "state": "TX",
    "zipCode": "75247",
    "phone": "(214) 630-7080",
    "fax": "(214) 630-7085",
    "webSite": ""
  },
  {
    "name": "Ashrafi, Mujib Muquim",
    "street": "5357 W Bellfort St ",
    "city": "Houston",
    "state": "TX",
    "zipCode": "77035-3001",
    "phone": "(713) 723-3777",
    "fax": "(713) 723-6018",
    "webSite": ""
  },
  {
    "name": "Ashtiani, Amir Shahab",
    "street": "938 Wurzbach Pkwy Ste 107 ",
    "city": "San Antonio",
    "state": "TX",
    "zipCode": "78231",
    "phone": "(210) 610-7772",
    "fax": "(210) 904-2345",
    "webSite": ""
  },
  {
    "name": "Ashton, Justin Scott",
    "street": "808 Ne Mall Blvd ",
    "city": "Hurst",
    "state": "TX",
    "zipCode": "76053-4653",
    "phone": "(817) 595-9675",
    "fax": "",
    "webSite": ""
  },
  {
    "name": "Ashy, Susan Renell",
    "street": "2450 Fondren Rd Ste.250",
    "city": "Houston",
    "state": "TX",
    "zipCode": "77063-2318",
    "phone": "(713) 266-5773",
    "fax": "(713) 782-5747",
    "webSite": ""
  },
  {
    "name": "Askar Dental P. A.",
    "street": "125 E Las Milpas Rd Suite D",
    "city": "Pharr",
    "state": "TX",
    "zipCode": "78577-9863",
    "phone": "(956) 961-4273",
    "fax": "",
    "webSite": ""
  },
  {
    "name": "Idea Family Dentistry",
    "street": "310 S Cage Blvd ",
    "city": "Pharr",
    "state": "TX",
    "zipCode": "78577-4845",
    "phone": "(956) 223-4754",
    "fax": "(956) 223-4839",
    "webSite": ""
  },
  {
    "name": "Askar, Nihad",
    "street": "117 Southpoint Loop ",
    "city": "Livingston",
    "state": "TX",
    "zipCode": "77351-8899",
    "phone": "(713) 203-6682",
    "fax": "",
    "webSite": ""
  },
  {
    "name": "Askar, Soufian",
    "street": "7575 Callaghan Rd 219",
    "city": "San Antonio",
    "state": "TX",
    "zipCode": "78229",
    "phone": "(303) 731-9119",
    "fax": "",
    "webSite": ""
  },
  {
    "name": "Askew, Hubert C",
    "street": "902 Frostwood Suite 101",
    "city": "Houston",
    "state": "TX",
    "zipCode": "77024",
    "phone": "(713) 467-9566",
    "fax": "(713) 827-0985",
    "webSite": ""
  },
  {
    "name": "Askins, Cary Brian",
    "street": "1021 Sw 3Rd St ",
    "city": "Grand Prairie",
    "state": "TX",
    "zipCode": "75051-3070",
    "phone": "(972) 264-4791",
    "fax": "(972) 264-4794",
    "webSite": ""
  },
  {
    "name": "Askins, Derrick",
    "street": "3001 Knox St Suite 300",
    "city": "Dallas",
    "state": "TX",
    "zipCode": "75205-5584",
    "phone": "(214) 265-7771",
    "fax": "",
    "webSite": ""
  },
  {
    "name": "Aslin, William Ray",
    "street": "200 E Main St Ste C",
    "city": "Crowley",
    "state": "TX",
    "zipCode": "76036-2600",
    "phone": "(817) 297-2271",
    "fax": "(817) 297-3808",
    "webSite": ""
  },
  {
    "name": "Asnaashari, Leila",
    "street": "7700 San Felipe St Ste 150 ",
    "city": "Houston",
    "state": "TX",
    "zipCode": "77063-1691",
    "phone": "(713) 785-0234",
    "fax": "(713) 785-3857",
    "webSite": ""
  },
  {
    "name": "Assemu, Sileshi B",
    "street": "15 Waller St ",
    "city": "Austin",
    "state": "TX",
    "zipCode": "78702-5240",
    "phone": "(512) 978-9895",
    "fax": "(512) 978-9900",
    "webSite": ""
  },
  {
    "name": "Associates For Dental Heal, Pllc",
    "street": "20135 Highway 59 N Ste A ",
    "city": "Humble",
    "state": "TX",
    "zipCode": "77338-2372",
    "phone": "(281) 738-1579",
    "fax": "(713) 490-6464",
    "webSite": ""
  },
  {
    "name": "Associates For Dental Health, Pllc",
    "street": "12711 Fm 1960 Rd W ",
    "city": "Houston",
    "state": "TX",
    "zipCode": "77065-4014",
    "phone": "(281) 890-5002",
    "fax": "(713) 490-6464",
    "webSite": ""
  },
  {
    "name": "Associates For Dental Health, Pllc",
    "street": "304 W Bay Area Blvd Ste 300",
    "city": "Webster",
    "state": "TX",
    "zipCode": "77598-4156",
    "phone": "(281) 738-1579",
    "fax": "(713) 490-6464",
    "webSite": ""
  },
  {
    "name": "Associates For Dental Health, Pllc",
    "street": "3402 Highway 6 S Ste C ",
    "city": "Houston",
    "state": "TX",
    "zipCode": "77082-4207",
    "phone": "(281) 759-5900",
    "fax": "(281) 759-5800",
    "webSite": ""
  },
  {
    "name": "Associates For Dental Health, Pllc",
    "street": "4701 Airline Dr ",
    "city": "Houston",
    "state": "TX",
    "zipCode": "77022-3003",
    "phone": "(281) 738-1579",
    "fax": "(713) 490-6464",
    "webSite": ""
  },
  {
    "name": "Associates For Dental Health, Pllc",
    "street": "8570 Westheimer Rd ",
    "city": "Houston",
    "state": "TX",
    "zipCode": "77063-4212",
    "phone": "(281) 738-1579",
    "fax": "(713) 490-6464",
    "webSite": ""
  },
  {
    "name": "Associates For Dental Health, Pllc",
    "street": "4901 S Padre Island Dr ",
    "city": "Corpus Christi",
    "state": "TX",
    "zipCode": "78411-4203",
    "phone": "(281) 738-1579",
    "fax": "(713) 490-6464",
    "webSite": ""
  },
  {
    "name": "Associates For Dental Health, Pllc",
    "street": "6137 Kirby Dr ",
    "city": "Houston",
    "state": "TX",
    "zipCode": "77005-3148",
    "phone": "(281) 738-1579",
    "fax": "(713) 490-6464",
    "webSite": ""
  },
  {
    "name": "Associates For Dental Health, Pllc",
    "street": "995 Gulfgate Center Mall ",
    "city": "Houston",
    "state": "TX",
    "zipCode": "77087-3029",
    "phone": "(281) 738-1579",
    "fax": "(713) 490-6464",
    "webSite": ""
  },
  {
    "name": "Asthana, Samarth",
    "street": "15550 Interstate 35 Ste 110 ",
    "city": "Buda",
    "state": "TX",
    "zipCode": "78610-3887",
    "phone": "(512) 265-8427",
    "fax": "",
    "webSite": ""
  },
  {
    "name": "Aston, Jarom L",
    "street": "1530 W Grand Pkwy S ",
    "city": "Katy",
    "state": "TX",
    "zipCode": "77494-8257",
    "phone": "(281) 693-7373",
    "fax": "(281) 693-6299",
    "webSite": ""
  },
  {
    "name": "Asure Dental, Pa",
    "street": "1450 Fry Rd ",
    "city": "Houston",
    "state": "TX",
    "zipCode": "77084-5811",
    "phone": "(281) 398-2889",
    "fax": "",
    "webSite": ""
  },
  {
    "name": "Atanasiu, Mihaela",
    "street": "7403 Oconnor Dr ",
    "city": "Round Rock",
    "state": "TX",
    "zipCode": "78681-5509",
    "phone": "(512) 651-5090",
    "fax": "(512) 310-1268",
    "webSite": ""
  },
  {
    "name": "Atascocita Dental",
    "street": "7820 Fm 1960 Rd E 204",
    "city": "Humble",
    "state": "TX",
    "zipCode": "77346-2257",
    "phone": "(281) 852-5690",
    "fax": "",
    "webSite": ""
  },
  {
    "name": "Atascocita Dental Pllc",
    "street": "7820 Fm 1960 Rd E Ste 204",
    "city": "Humble",
    "state": "TX",
    "zipCode": "77346-2257",
    "phone": "(281) 852-5690",
    "fax": "(281) 852-5692",
    "webSite": ""
  },
  {
    "name": "Atascocita Family Dentistry Pllc",
    "street": "7058 Fm 1960 Rd E ",
    "city": "Humble",
    "state": "TX",
    "zipCode": "77346-2704",
    "phone": "(281) 852-2288",
    "fax": "(281) 852-0574",
    "webSite": ""
  },
  {
    "name": "Atascocita Modern Dentistry And Orthodontics",
    "street": "7315 Fm 1960 Road East ",
    "city": "Humble",
    "state": "TX",
    "zipCode": "77346",
    "phone": "(281) 812-7550",
    "fax": "(281) 812-7553",
    "webSite": ""
  },
  {
    "name": "Atassi, Shana",
    "street": "8500 Bluffstone Cv Suite B-101",
    "city": "Austin",
    "state": "TX",
    "zipCode": "78759-7808",
    "phone": "(512) 345-4998",
    "fax": "(512) 345-4966",
    "webSite": ""
  },
  {
    "name": "Athar, Zahra",
    "street": "6765 Hunters Ridge Dr ",
    "city": "Dallas",
    "state": "TX",
    "zipCode": "75248-5403",
    "phone": "(469) 226-1463",
    "fax": "",
    "webSite": ""
  },
  {
    "name": "Ather, Amber",
    "street": "204 State Highway 35 S Smile Experts Pllc",
    "city": "Port Lavaca",
    "state": "TX",
    "zipCode": "77979-2404",
    "phone": "(361) 482-0458",
    "fax": "",
    "webSite": ""
  },
  {
    "name": "Atkins, Michael Seth",
    "street": "110 Park Place Blvd Ste 100 ",
    "city": "Waxahachie",
    "state": "TX",
    "zipCode": "75165-1214",
    "phone": "(972) 937-8433",
    "fax": "(817) 201-9765",
    "webSite": ""
  },
  {
    "name": "Atkinson, Daniel J",
    "street": "2430 S Interstate 35 E Suite 210",
    "city": "Denton",
    "state": "TX",
    "zipCode": "76205-4986",
    "phone": "(940) 387-2214",
    "fax": "(940) 387-2212",
    "webSite": ""
  },
  {
    "name": "Atkinson, Eugenia",
    "street": "1500 Research Forest Dr, Ste 220 ",
    "city": "Shenandoah",
    "state": "TX",
    "zipCode": "77381",
    "phone": "(281) 859-4624",
    "fax": "(281) 859-4630",
    "webSite": ""
  },
  {
    "name": "Atkinson, James H",
    "street": "2417 Park Hill Dr Suite A",
    "city": "Fort Worth",
    "state": "TX",
    "zipCode": "76110-2200",
    "phone": "(817) 927-8783",
    "fax": "(817) 927-7971",
    "webSite": ""
  },
  {
    "name": "Atkinson, Jeffrey P",
    "street": "119 N Ellis St ",
    "city": "New Boston",
    "state": "TX",
    "zipCode": "75570",
    "phone": "(903) 628-5436",
    "fax": "(903) 628-9619",
    "webSite": ""
  },
  {
    "name": "Atlas Dental Lp",
    "street": "1723 N Avenue K ",
    "city": "Freeport",
    "state": "TX",
    "zipCode": "77541-3605",
    "phone": "(979) 233-1581",
    "fax": "(979) 233-8355",
    "webSite": ""
  },
  {
    "name": "Atobajeun, Oyelola Omowunmi",
    "street": "5607 Uvalde Rd ",
    "city": "Houston",
    "state": "TX",
    "zipCode": "77049",
    "phone": "(832) 243-6783",
    "fax": "",
    "webSite": ""
  },
  {
    "name": "Atonlin-Sanchez Dental Group Pllc",
    "street": "105 Country View Dr Ste 300 ",
    "city": "Roanoke",
    "state": "TX",
    "zipCode": "76262-2057",
    "phone": "(682) 237-2353",
    "fax": "(682) 237-2352",
    "webSite": ""
  },
  {
    "name": "Atrian, Carlos",
    "street": "3011 Highway 30 W Ste 101C ",
    "city": "Huntsville",
    "state": "TX",
    "zipCode": "77340-3534",
    "phone": "(936) 560-0900",
    "fax": "",
    "webSite": ""
  },
  {
    "name": "Attipoe, Quincy",
    "street": "824 Hunters Gln ",
    "city": "Murphy",
    "state": "TX",
    "zipCode": "75094-4375",
    "phone": "(972) 429-7264",
    "fax": "",
    "webSite": ""
  },
  {
    "name": "Atwood And Oliver Dental Partnership",
    "street": "2255 N Loop 336 W Ste C ",
    "city": "Conroe",
    "state": "TX",
    "zipCode": "77304-3632",
    "phone": "(936) 539-9400",
    "fax": "(936) 539-6337",
    "webSite": ""
  },
  {
    "name": "Atwood, Cliff M",
    "street": "2255 N Loop 336 W Suite C",
    "city": "Conroe",
    "state": "TX",
    "zipCode": "77304-3631",
    "phone": "(936) 539-9400",
    "fax": "(936) 539-6337",
    "webSite": ""
  },
  {
    "name": "Atwood, Gregory Jan",
    "street": "2455 E 11Th St ",
    "city": "Odessa",
    "state": "TX",
    "zipCode": "79761-4232",
    "phone": "(432) 337-6165",
    "fax": "(432) 337-5204",
    "webSite": ""
  },
  {
    "name": "Atwood, Thomas J",
    "street": "10615 Perrin Beitel Rd Ste. 103",
    "city": "San Antonio",
    "state": "TX",
    "zipCode": "78217-3138",
    "phone": "(210) 646-8818",
    "fax": "(210) 646-8878",
    "webSite": ""
  },
  {
    "name": "Atx Dental Group, Pllc",
    "street": "3100 S Congress Ave # 1F ",
    "city": "Austin",
    "state": "TX",
    "zipCode": "78704-6427",
    "phone": "(512) 240-6054",
    "fax": "",
    "webSite": ""
  },
  {
    "name": "Au-Yeung, Victor",
    "street": "1911 Binz St Apt 3 ",
    "city": "Houston",
    "state": "TX",
    "zipCode": "77004-7254",
    "phone": "(404) 434-8043",
    "fax": "",
    "webSite": ""
  },
  {
    "name": "Aubel, Jamilyn",
    "street": "335 N Allen Dr ",
    "city": "Allen",
    "state": "TX",
    "zipCode": "75013-2539",
    "phone": "(972) 727-0011",
    "fax": "(972) 727-0707",
    "webSite": ""
  },
  {
    "name": "Aubrey Dental Pllc",
    "street": "26745 E. University Dr. #110 ",
    "city": "Aubrey",
    "state": "TX",
    "zipCode": "76227",
    "phone": "(469) 715-6622",
    "fax": "(469) 715-6608",
    "webSite": ""
  },
  {
    "name": "Aubrey Family Dental",
    "street": "5099 Us Highway 377 S Suite 300",
    "city": "Aubrey",
    "state": "TX",
    "zipCode": "76227-6204",
    "phone": "(940) 365-3326",
    "fax": "(940) 365-3396",
    "webSite": ""
  },
  {
    "name": "Audu, Sherifat O",
    "street": "639 Alta Mere Drive ",
    "city": "Fort Worth",
    "state": "TX",
    "zipCode": "76114",
    "phone": "(281) 796-5629",
    "fax": "",
    "webSite": ""
  },
  {
    "name": "Augbon, Valencia Ann",
    "street": "4040 Airport Blvd ",
    "city": "Houston",
    "state": "TX",
    "zipCode": "77047-1158",
    "phone": "(713) 748-4141",
    "fax": "",
    "webSite": ""
  },
  {
    "name": "Augustine, Michael R.",
    "street": "12505 Hymeadow Dr Suite 2D",
    "city": "Austin",
    "state": "TX",
    "zipCode": "78750-1867",
    "phone": "(512) 258-3627",
    "fax": "(512) 258-0755",
    "webSite": ""
  },
  {
    "name": "Aulick, John Robert",
    "street": "1108 Northwood Dr ",
    "city": "Marble Falls",
    "state": "TX",
    "zipCode": "78654-4907",
    "phone": "(830) 693-5523",
    "fax": "(830) 693-5524",
    "webSite": ""
  },
  {
    "name": "Aura Dental , Pa",
    "street": "9210 Highway 6 S Ste D ",
    "city": "Houston",
    "state": "TX",
    "zipCode": "77083-6385",
    "phone": "(281) 561-9944",
    "fax": "",
    "webSite": ""
  },
  {
    "name": "Aurbach, Frederick Everett",
    "street": "5033 Ashbrook Rd ",
    "city": "Dallas",
    "state": "TX",
    "zipCode": "75227-2915",
    "phone": "(214) 388-3343",
    "fax": "(214) 388-7837",
    "webSite": ""
  },
  {
    "name": "Aurentz, Keisha Ann",
    "street": "3516 Preston Rd Ste 600 ",
    "city": "Plano",
    "state": "TX",
    "zipCode": "75093-8641",
    "phone": "(972) 612-0606",
    "fax": "(972) 612-0493",
    "webSite": ""
  },
  {
    "name": "Aurora, Gur Simran",
    "street": "3052 N Eastman Rd Ste 108 ",
    "city": "Longview",
    "state": "TX",
    "zipCode": "75605-5013",
    "phone": "(903) 686-1905",
    "fax": "",
    "webSite": ""
  },
  {
    "name": "Plaza Dental Arts",
    "street": "14900 Avery Ranch Blvd C-100",
    "city": "Austin",
    "state": "TX",
    "zipCode": "78717-3951",
    "phone": "(512) 238-1244",
    "fax": "",
    "webSite": ""
  },
  {
    "name": "Ausmus, James Wayne",
    "street": "12724 Woodforest Blvd ",
    "city": "Houston",
    "state": "TX",
    "zipCode": "77015-2774",
    "phone": "(713) 453-3511",
    "fax": "(713) 453-6955",
    "webSite": ""
  },
  {
    "name": "Austin A Barnett Dds Pc",
    "street": "7985 Hwy 105 ",
    "city": "Beaumont",
    "state": "TX",
    "zipCode": "77713",
    "phone": "(409) 899-2600",
    "fax": "(409) 899-2601",
    "webSite": ""
  },
  {
    "name": "Austin Blvd. Family Dentistry, P.C.",
    "street": "101 Austin Blvd., Ste 100 ",
    "city": "Red Oak",
    "state": "TX",
    "zipCode": "75154",
    "phone": "(770) 916-5031",
    "fax": "",
    "webSite": ""
  },
  {
    "name": "Austin City Dental",
    "street": "1500 W 38Th St Ste 37 ",
    "city": "Austin",
    "state": "TX",
    "zipCode": "78731-6318",
    "phone": "(512) 451-8256",
    "fax": "",
    "webSite": ""
  },
  {
    "name": "Austin Dental 2 Pllc",
    "street": "401 Ed Schmidt Blvd Ste 100 ",
    "city": "Hutto",
    "state": "TX",
    "zipCode": "78634-5715",
    "phone": "(512) 846-2011",
    "fax": "",
    "webSite": ""
  },
  {
    "name": "Austin Dental Center, Pc",
    "street": "2304 Hancock Dr Ste 1 ",
    "city": "Austin",
    "state": "TX",
    "zipCode": "78756-2537",
    "phone": "(512) 454-0414",
    "fax": "(512) 454-0426",
    "webSite": ""
  },
  {
    "name": "04 Dental",
    "street": "3115 S Lamar Blvd ",
    "city": "Austin",
    "state": "TX",
    "zipCode": "78704-5803",
    "phone": "(512) 640-4090",
    "fax": "(512) 386-1142",
    "webSite": ""
  },
  {
    "name": "Austin Dental Spa, Pllc",
    "street": "3305 Northland Ste 515 ",
    "city": "Austin",
    "state": "TX",
    "zipCode": "78731",
    "phone": "(512) 452-9296",
    "fax": "",
    "webSite": ""
  },
  {
    "name": "Austin Modern Dentistry",
    "street": "3601 W William Cannon Dr Bldg 4 ",
    "city": "Austin",
    "state": "TX",
    "zipCode": "78749-1533",
    "phone": "(512) 892-0817",
    "fax": "(512) 899-2111",
    "webSite": ""
  },
  {
    "name": "Austin Professional Dental",
    "street": "615 W Slaughter Ln Suite 117",
    "city": "Austin",
    "state": "TX",
    "zipCode": "78748-2094",
    "phone": "(512) 233-6825",
    "fax": "",
    "webSite": ""
  },
  {
    "name": "Dental Republic",
    "street": "2015 E Riverside Dr Bldg 2 Ste C",
    "city": "Austin",
    "state": "TX",
    "zipCode": "78741-1324",
    "phone": "(512) 264-7300",
    "fax": "",
    "webSite": ""
  },
  {
    "name": "Austin Road Dental Clinic Inc.",
    "street": "901 Austin Rd ",
    "city": "Graham",
    "state": "TX",
    "zipCode": "76450-4214",
    "phone": "(940) 549-9500",
    "fax": "(940) 549-9501",
    "webSite": ""
  },
  {
    "name": "Austin Sixth Street Smiles",
    "street": "1717 W 6Th St Suite 365",
    "city": "Austin",
    "state": "TX",
    "zipCode": "78703-4773",
    "phone": "(512) 516-1247",
    "fax": "(512) 351-8098",
    "webSite": ""
  },
  {
    "name": "Austin, Lauren R",
    "street": "142 Vintage Park Blvd Ste E ",
    "city": "Houston",
    "state": "TX",
    "zipCode": "77070-3997",
    "phone": "(281) 374-0611",
    "fax": "",
    "webSite": ""
  },
  {
    "name": "Austin, Sonya",
    "street": "4701 Bryant Irvin Rd N ",
    "city": "Fort Worth",
    "state": "TX",
    "zipCode": "76107-7627",
    "phone": "(817) 702-3567",
    "fax": "(817) 569-1421",
    "webSite": ""
  },
  {
    "name": "Austria, Mary Helainne Villaflor",
    "street": "13247 East Fwy ",
    "city": "Houston",
    "state": "TX",
    "zipCode": "77015-5812",
    "phone": "(713) 451-8888",
    "fax": "",
    "webSite": ""
  },
  {
    "name": "Auten, Clifford N",
    "street": "305A S Bosque St ",
    "city": "Whitney",
    "state": "TX",
    "zipCode": "76692-2739",
    "phone": "(254) 694-3114",
    "fax": "(254) 694-7084",
    "webSite": ""
  },
  {
    "name": "Auvenshine, Ronald Clark",
    "street": "7505 Main St Suite 210",
    "city": "Houston",
    "state": "TX",
    "zipCode": "77030-4520",
    "phone": "(713) 790-0531",
    "fax": "(713) 790-0725",
    "webSite": ""
  },
  {
    "name": "Auzenne, Lauren Michelle",
    "street": "5357 West Bellfort Ave ",
    "city": "Houston",
    "state": "TX",
    "zipCode": "77035",
    "phone": "(713) 203-5079",
    "fax": "",
    "webSite": ""
  },
  {
    "name": "Avani Dentistry Ii Pc",
    "street": "319 Highway 36 Byp S Unit # 3",
    "city": "Gatesville",
    "state": "TX",
    "zipCode": "76528-2741",
    "phone": "(509) 939-9600",
    "fax": "",
    "webSite": ""
  },
  {
    "name": "Avant Dental, Pllc",
    "street": "843 W Miller Rd ",
    "city": "Garland",
    "state": "TX",
    "zipCode": "75041",
    "phone": "(972) 864-0222",
    "fax": "(972) 864-0200",
    "webSite": ""
  },
  {
    "name": "Avant, James Cliff",
    "street": "1320 Village Creek Dr Suite 100",
    "city": "Plano",
    "state": "TX",
    "zipCode": "75093-4449",
    "phone": "(972) 732-1818",
    "fax": "(972) 732-1883",
    "webSite": ""
  },
  {
    "name": "Avendanio, Bernard Anthony",
    "street": "2929 Carlisle St Ste 100 ",
    "city": "Dallas",
    "state": "TX",
    "zipCode": "75204-4043",
    "phone": "(214) 953-0906",
    "fax": "(214) 953-0106",
    "webSite": ""
  },
  {
    "name": "Aventura Dental",
    "street": "11915 Perrin Beitel Rd ",
    "city": "San Antonio",
    "state": "TX",
    "zipCode": "78217-2127",
    "phone": "(214) 493-1216",
    "fax": "",
    "webSite": ""
  },
  {
    "name": "Avenue Dental Pllc",
    "street": "2602 Eldridge Pkwy Ste B ",
    "city": "Houston",
    "state": "TX",
    "zipCode": "77082-6874",
    "phone": "(713) 670-6116",
    "fax": "",
    "webSite": ""
  },
  {
    "name": "Avenue Family Dentistry, Pllc",
    "street": "5420 Dashwood Dr Suite 300",
    "city": "Houston",
    "state": "TX",
    "zipCode": "77081-5357",
    "phone": "(713) 664-1800",
    "fax": "(713) 664-0114",
    "webSite": ""
  },
  {
    "name": "Avery, Joni Michel",
    "street": "1001 Buckingham Rd Ste 112 ",
    "city": "Richardson",
    "state": "TX",
    "zipCode": "75081-5850",
    "phone": "(972) 231-5744",
    "fax": "(972) 231-3441",
    "webSite": ""
  },
  {
    "name": "Avila, Juan",
    "street": "8409 W. Cleburne ",
    "city": "Fort Worth",
    "state": "TX",
    "zipCode": "76123",
    "phone": "(817) 292-5927",
    "fax": "(817) 292-9595",
    "webSite": ""
  },
  {
    "name": "Avirett, Nathaniel Michael",
    "street": "9 Care Cir ",
    "city": "Amarillo",
    "state": "TX",
    "zipCode": "79124-2105",
    "phone": "(806) 358-2472",
    "fax": "",
    "webSite": ""
  },
  {
    "name": "Avue Cosmetic Dentistry",
    "street": "6509 W. Park Blvd 410",
    "city": "Plano",
    "state": "TX",
    "zipCode": "75093",
    "phone": "(972) 403-7640",
    "fax": "(972) 403-7642",
    "webSite": ""
  },
  {
    "name": "Awad, Yasmin",
    "street": "10901 Garland Rd ",
    "city": "Dallas",
    "state": "TX",
    "zipCode": "75218-2613",
    "phone": "(214) 321-8400",
    "fax": "",
    "webSite": ""
  },
  {
    "name": "Awadallah, Mai",
    "street": "2323 Babcock Rd ",
    "city": "San Antonio",
    "state": "TX",
    "zipCode": "78229-5066",
    "phone": "(830) 715-5037",
    "fax": "",
    "webSite": ""
  },
  {
    "name": "Axe, Jim Anderson",
    "street": "4501 50Th St Suite 200",
    "city": "Lubbock",
    "state": "TX",
    "zipCode": "79414-3613",
    "phone": "(806) 799-0034",
    "fax": "(806) 771-0731",
    "webSite": ""
  },
  {
    "name": "Ay Dental Pa",
    "street": "1723 N Avenue K ",
    "city": "Freeport",
    "state": "TX",
    "zipCode": "77541-3605",
    "phone": "(979) 233-1581",
    "fax": "",
    "webSite": ""
  },
  {
    "name": "Ay Mey Gan, D.D.S.,P.A",
    "street": "3801 Kirby Dr Suite 200",
    "city": "Houston",
    "state": "TX",
    "zipCode": "77098-4100",
    "phone": "(713) 522-9499",
    "fax": "(713) 522-8250",
    "webSite": ""
  },
  {
    "name": "Katy Dental Loft",
    "street": "94 W Grand Parkway S Suite 240",
    "city": "Katy",
    "state": "TX",
    "zipCode": "77494",
    "phone": "(281) 402-3351",
    "fax": "(281) 402-3352",
    "webSite": ""
  },
  {
    "name": "Art Of Dentistry",
    "street": "3620 S Cooper St Ste 140 ",
    "city": "Arlington",
    "state": "TX",
    "zipCode": "76015-3477",
    "phone": "(817) 468-8839",
    "fax": "",
    "webSite": ""
  },
  {
    "name": "Aycock, Mark W.",
    "street": "2539 S Gessner Rd Suite 16",
    "city": "Houston",
    "state": "TX",
    "zipCode": "77063-2034",
    "phone": "(713) 953-0010",
    "fax": "",
    "webSite": ""
  },
  {
    "name": "Aycock, Steven",
    "street": "312 Cheatham St ",
    "city": "San Marcos",
    "state": "TX",
    "zipCode": "78666-6912",
    "phone": "(512) 392-1214",
    "fax": "(512) 392-1215",
    "webSite": ""
  },
  {
    "name": "Aycox & Pearson Family Dentistry",
    "street": "307 E Ovilla Rd Suite 400",
    "city": "Red Oak",
    "state": "TX",
    "zipCode": "75154-3833",
    "phone": "(972) 576-0602",
    "fax": "(972) 576-1692",
    "webSite": ""
  },
  {
    "name": "Ayik, Murat",
    "street": "8335 Walnut Hill Lane #125",
    "city": "Dallas",
    "state": "TX",
    "zipCode": "75231",
    "phone": "(214) 691-5223",
    "fax": "(214) 691-2871",
    "webSite": ""
  },
  {
    "name": "Ayitey-Adjin, Joseph O",
    "street": "761 S Macarthur Blvd Suite 117",
    "city": "Coppell",
    "state": "TX",
    "zipCode": "75019-4227",
    "phone": "(972) 393-9700",
    "fax": "(972) 745-8842",
    "webSite": ""
  },
  {
    "name": "Ayres, Debora L",
    "street": "3900 Ranch Road 620 S Ste 106 ",
    "city": "Austin",
    "state": "TX",
    "zipCode": "78738-6311",
    "phone": "(512) 263-3330",
    "fax": "",
    "webSite": ""
  },
  {
    "name": "Ayyash, Deanna Fuad",
    "street": "692 W Pioneer Pkwy ",
    "city": "Grand Prairie",
    "state": "TX",
    "zipCode": "75051-4900",
    "phone": "(972) 743-5810",
    "fax": "",
    "webSite": ""
  },
  {
    "name": "Azad, Marjanew",
    "street": "6909 Hillcroft Suite 1F",
    "city": "Houston",
    "state": "TX",
    "zipCode": "77081",
    "phone": "(713) 772-6435",
    "fax": "(713) 981-8700",
    "webSite": ""
  },
  {
    "name": "Azarnoush, Kaveh",
    "street": "500 Canyon Ridge Dr Ste F100 ",
    "city": "Austin",
    "state": "TX",
    "zipCode": "78753-1658",
    "phone": "(512) 837-2900",
    "fax": "",
    "webSite": ""
  },
  {
    "name": "Azimpour, Parvaneh",
    "street": "5357 W Bellfort St ",
    "city": "Houston",
    "state": "TX",
    "zipCode": "77035-3001",
    "phone": "(713) 723-3777",
    "fax": "",
    "webSite": ""
  },
  {
    "name": "Azinge, Rachel C",
    "street": "2995 Preston Rd 1500",
    "city": "Frisco",
    "state": "TX",
    "zipCode": "75034-0602",
    "phone": "(972) 377-8177",
    "fax": "",
    "webSite": ""
  },
  {
    "name": "Azle Cube Smiles Pllc",
    "street": "100 Park Plc Ste 224 ",
    "city": "Azle",
    "state": "TX",
    "zipCode": "76020",
    "phone": "(682) 615-3336",
    "fax": "(682) 222-1093",
    "webSite": ""
  },
  {
    "name": "Budget Dental",
    "street": "1116 W Main St Ste B ",
    "city": "Gun Barrel City",
    "state": "TX",
    "zipCode": "75156-5318",
    "phone": "(903) 340-8540",
    "fax": "(903) 340-8543",
    "webSite": ""
  },
  {
    "name": "Azmoodeh, Afshin",
    "street": "228 W Campbell Rd ",
    "city": "Richardson",
    "state": "TX",
    "zipCode": "75080-3512",
    "phone": "(972) 644-3800",
    "fax": "",
    "webSite": ""
  },
  {
    "name": "Azteca Dental Pllc",
    "street": "4858 South Fwy ",
    "city": "Fort Worth",
    "state": "TX",
    "zipCode": "76115-3901",
    "phone": "(817) 534-7325",
    "fax": "(817) 534-4429",
    "webSite": ""
  },
  {
    "name": "The Center For Implant And General Dentistry",
    "street": "410 Eagle Spirit Drive ",
    "city": "Lindale",
    "state": "TX",
    "zipCode": "75771",
    "phone": "(903) 882-6141",
    "fax": "(903) 882-3558",
    "webSite": ""
  },
  {
    "name": "Vida Dental Central",
    "street": "711 W 38Th St Ste B10 ",
    "city": "Austin",
    "state": "TX",
    "zipCode": "78705-1135",
    "phone": "(512) 454-5825",
    "fax": "",
    "webSite": ""
  },
  {
    "name": "B-Bright Dental Pllc",
    "street": "17440 Fm 529 Rd Suite 100",
    "city": "Houston",
    "state": "TX",
    "zipCode": "77095-1167",
    "phone": "(832) 427-1901",
    "fax": "(832) 427-1997",
    "webSite": ""
  },
  {
    "name": "B.N.F. Dental Pllc",
    "street": "2011 N Henderson Ave ",
    "city": "Dallas",
    "state": "TX",
    "zipCode": "75206-7321",
    "phone": "(214) 823-2182",
    "fax": "(214) 823-2184",
    "webSite": ""
  },
  {
    "name": "Premier Dental Specialists",
    "street": "1013 Dairy Ashford Rd ",
    "city": "Houston",
    "state": "TX",
    "zipCode": "77079-4602",
    "phone": "(713) 446-8547",
    "fax": "",
    "webSite": ""
  },
  {
    "name": "Baber, Gregory Lee",
    "street": "2100 Garner Field Rd Suite A",
    "city": "Uvalde",
    "state": "TX",
    "zipCode": "78801-6216",
    "phone": "(830) 278-3888",
    "fax": "(830) 278-3838",
    "webSite": ""
  },
  {
    "name": "Valencia Dental",
    "street": "7324 Southwest Fwy Suite 380",
    "city": "Houston",
    "state": "TX",
    "zipCode": "77074-2012",
    "phone": "(832) 878-9989",
    "fax": "",
    "webSite": ""
  },
  {
    "name": "Babin, Janice F",
    "street": "14800 Westheimer Rd Ste M ",
    "city": "Houston",
    "state": "TX",
    "zipCode": "77082-1675",
    "phone": "(281) 497-0111",
    "fax": "(281) 556-1796",
    "webSite": ""
  },
  {
    "name": "Babin, Wayne M",
    "street": "3930 Old Bullard Rd ",
    "city": "Tyler",
    "state": "TX",
    "zipCode": "75701-9525",
    "phone": "(903) 561-6021",
    "fax": "(903) 561-4223",
    "webSite": ""
  },
  {
    "name": "Bach, Antoine",
    "street": "2400 Richmond Rd Ste 133 ",
    "city": "Texarkana",
    "state": "TX",
    "zipCode": "75503-2464",
    "phone": "(903) 306-0790",
    "fax": "",
    "webSite": ""
  },
  {
    "name": "Back, Mina",
    "street": "8210 Floyd Curl Dr ",
    "city": "San Antonio",
    "state": "TX",
    "zipCode": "78229-3923",
    "phone": "(214) 288-6619",
    "fax": "",
    "webSite": ""
  },
  {
    "name": "Bacon, Jason Troy",
    "street": "3701 W. Northwest Hwy Ste #306",
    "city": "Dallas",
    "state": "TX",
    "zipCode": "75220",
    "phone": "(214) 353-0683",
    "fax": "(972) 764-8760",
    "webSite": ""
  },
  {
    "name": "Badami, Christopher",
    "street": "2539 Judson Rd ",
    "city": "Longview",
    "state": "TX",
    "zipCode": "75605-4643",
    "phone": "(903) 470-7977",
    "fax": "",
    "webSite": ""
  },
  {
    "name": "Badawi, Moustafa Tarek",
    "street": "5110 Avenue H ",
    "city": "Rosenberg",
    "state": "TX",
    "zipCode": "77471-2014",
    "phone": "(832) 416-1743",
    "fax": "",
    "webSite": ""
  },
  {
    "name": "Badea, Luana G",
    "street": "323 Nw 24Th St ",
    "city": "San Antonio",
    "state": "TX",
    "zipCode": "78207",
    "phone": "(210) 436-6261",
    "fax": "(210) 436-7126",
    "webSite": ""
  },
  {
    "name": "Badheka, Shaunak Arun",
    "street": "515 W Loop 820 N ",
    "city": "Fort Worth",
    "state": "TX",
    "zipCode": "76108-1450",
    "phone": "(817) 937-3251",
    "fax": "",
    "webSite": ""
  },
  {
    "name": "Bae, Helwuk",
    "street": "2625 Old Denton Rd Suite 416",
    "city": "Carrollton",
    "state": "TX",
    "zipCode": "75007-5125",
    "phone": "(972) 242-0800",
    "fax": "(972) 242-5588",
    "webSite": ""
  },
  {
    "name": "Baer, Arthur Leroy",
    "street": "711 E 1St St Box 824",
    "city": "Dumas",
    "state": "TX",
    "zipCode": "79029-3217",
    "phone": "(806) 935-4488",
    "fax": "",
    "webSite": ""
  },
  {
    "name": "Baethge, Kevin",
    "street": "1601 Main St Ste 209 ",
    "city": "Richmond",
    "state": "TX",
    "zipCode": "77469-3230",
    "phone": "(281) 342-6492",
    "fax": "",
    "webSite": ""
  },
  {
    "name": "Baez, Jessica Maria",
    "street": "25300 Borough Park Dr ",
    "city": "Spring",
    "state": "TX",
    "zipCode": "77380-3552",
    "phone": "(281) 296-0052",
    "fax": "(281) 296-0118",
    "webSite": ""
  },
  {
    "name": "Bafna, Rishi",
    "street": "3680 State Highway 121 Ste 100 ",
    "city": "Plano",
    "state": "TX",
    "zipCode": "75025-5204",
    "phone": "(469) 333-3300",
    "fax": "",
    "webSite": ""
  },
  {
    "name": "Bafukai, Llc",
    "street": "902 S Airport Dr Ste 2 ",
    "city": "Weslaco",
    "state": "TX",
    "zipCode": "78596-6649",
    "phone": "(956) 437-2220",
    "fax": "",
    "webSite": ""
  },
  {
    "name": "Bagheri, Niknam",
    "street": "4502 S Mccoll Rd ",
    "city": "Edinburg",
    "state": "TX",
    "zipCode": "78539-9739",
    "phone": "(956) 630-4900",
    "fax": "(956) 682-9806",
    "webSite": ""
  },
  {
    "name": "Bagheri, Reyhaneh",
    "street": "430 E Lamar Blvd Ste 102 ",
    "city": "Arlington",
    "state": "TX",
    "zipCode": "76011-3692",
    "phone": "(817) 664-0224",
    "fax": "",
    "webSite": ""
  },
  {
    "name": "Baginski, Kendall Lynn",
    "street": "709 Ballybunion Cir ",
    "city": "Garland",
    "state": "TX",
    "zipCode": "75044-5125",
    "phone": "(214) 726-6651",
    "fax": "",
    "webSite": ""
  },
  {
    "name": "Baginski, Kyle",
    "street": "709 Ballybunion Cir ",
    "city": "Garland",
    "state": "TX",
    "zipCode": "75044-5125",
    "phone": "(214) 729-9889",
    "fax": "",
    "webSite": ""
  },
  {
    "name": "Bahadorzadeh, Shokooh",
    "street": "14270 Fm 2100 Rd ",
    "city": "Crosby",
    "state": "TX",
    "zipCode": "77532-9151",
    "phone": "(281) 886-3606",
    "fax": "",
    "webSite": ""
  },
  {
    "name": "Bahadur, Saikiran",
    "street": "4997 N Twin City Hwy ",
    "city": "Port Arthur",
    "state": "TX",
    "zipCode": "77642-5845",
    "phone": "(417) 619-3131",
    "fax": "",
    "webSite": ""
  },
  {
    "name": "Bahar, Giti Olfat",
    "street": "9150 Main St Ste I ",
    "city": "Houston",
    "state": "TX",
    "zipCode": "77025-3848",
    "phone": "(713) 665-7707",
    "fax": "",
    "webSite": ""
  },
  {
    "name": "Baharloo And Farzam Dds Pa",
    "street": "5516 Airline Dr 5516 Airline Dr",
    "city": "Houston",
    "state": "TX",
    "zipCode": "77076-4904",
    "phone": "(713) 695-8188",
    "fax": "(713) 695-8191",
    "webSite": ""
  },
  {
    "name": "Bahramipour, Mehrdad",
    "street": "7745 San Felipe St Ste 111 ",
    "city": "Houston",
    "state": "TX",
    "zipCode": "77063-1628",
    "phone": "(713) 952-3434",
    "fax": "(713) 952-8129",
    "webSite": ""
  },
  {
    "name": "Bahramnejad, Nadia Michelle",
    "street": "3604 Preston Rd ",
    "city": "Plano",
    "state": "TX",
    "zipCode": "75093-8629",
    "phone": "(972) 312-0000",
    "fax": "",
    "webSite": ""
  },
  {
    "name": "Bai, Anthony",
    "street": "7211 N Mesa St Ste. 3E.",
    "city": "El Paso",
    "state": "TX",
    "zipCode": "79912-3611",
    "phone": "(915) 841-6725",
    "fax": "",
    "webSite": ""
  },
  {
    "name": "Bailey, Clifton Wallace",
    "street": "271 Fort Richardson Ave ",
    "city": "Goodfellow Afb",
    "state": "TX",
    "zipCode": "76908-4901",
    "phone": "(325) 654-3050",
    "fax": "",
    "webSite": ""
  },
  {
    "name": "Bailey, Cory W.",
    "street": "11427 Jones Rd ",
    "city": "Houston",
    "state": "TX",
    "zipCode": "77070-6309",
    "phone": "(917) 880-5979",
    "fax": "",
    "webSite": ""
  },
  {
    "name": "Bailey, Herbert S",
    "street": "1206 Central Texas Expy ",
    "city": "Lampasas",
    "state": "TX",
    "zipCode": "76550-3321",
    "phone": "(512) 556-3261",
    "fax": "(512) 556-5111",
    "webSite": ""
  },
  {
    "name": "Bailey, Hoyit Barry",
    "street": "3219 Burke Rd Suite A",
    "city": "Pasadena",
    "state": "TX",
    "zipCode": "77504-1826",
    "phone": "(713) 943-7903",
    "fax": "",
    "webSite": ""
  },
  {
    "name": "Bailey, Hyacinth Erica",
    "street": "3865 Phelan Blvd ",
    "city": "Beaumont",
    "state": "TX",
    "zipCode": "77707-2243",
    "phone": "(409) 833-5437",
    "fax": "",
    "webSite": ""
  },
  {
    "name": "Bailey, Jack Lee",
    "street": "5701 Woodway Dr 250",
    "city": "Houston",
    "state": "TX",
    "zipCode": "77057-1515",
    "phone": "(713) 782-3123",
    "fax": "(713) 278-1596",
    "webSite": ""
  },
  {
    "name": "Bailey, Jamekia T",
    "street": "473 Laurence Dr ",
    "city": "Heath",
    "state": "TX",
    "zipCode": "75032-2092",
    "phone": "(469) 415-2100",
    "fax": "(469) 332-2814",
    "webSite": ""
  },
  {
    "name": "Bailliet, John Victor",
    "street": "5414 Antoine Dr Suite A",
    "city": "Houston",
    "state": "TX",
    "zipCode": "77091-4951",
    "phone": "(713) 290-0007",
    "fax": "(713) 688-5636",
    "webSite": ""
  },
  {
    "name": "Bainbridge, Jean Evelyn",
    "street": "3914 S Buckner Blvd ",
    "city": "Dallas",
    "state": "TX",
    "zipCode": "75227-4313",
    "phone": "(214) 388-4453",
    "fax": "(214) 388-9555",
    "webSite": ""
  },
  {
    "name": "Baines, Donna Denise",
    "street": "3333 W Camp Wisdom Rd Ste. 122",
    "city": "Dallas",
    "state": "TX",
    "zipCode": "75237-2557",
    "phone": "(972) 709-1979",
    "fax": "",
    "webSite": ""
  },
  {
    "name": "Baird, Brian",
    "street": "1406 S Day St ",
    "city": "Brenham",
    "state": "TX",
    "zipCode": "77833-4567",
    "phone": "(979) 830-8811",
    "fax": "",
    "webSite": ""
  },
  {
    "name": "Baird, Danny Paul",
    "street": "4020 Fm 2181 ",
    "city": "Hickory Creek",
    "state": "TX",
    "zipCode": "75065-7526",
    "phone": "(940) 321-2088",
    "fax": "(940) 497-3225",
    "webSite": ""
  },
  {
    "name": "Baird, Landon Taylor",
    "street": "1810 Southwest Pkwy Suite 100",
    "city": "Wichita Falls",
    "state": "TX",
    "zipCode": "76302-4700",
    "phone": "(940) 723-1511",
    "fax": "(940) 723-1514",
    "webSite": ""
  },
  {
    "name": "Baird, Robin",
    "street": "1406 S Day St ",
    "city": "Brenham",
    "state": "TX",
    "zipCode": "77833-4567",
    "phone": "(979) 830-8811",
    "fax": "",
    "webSite": ""
  },
  {
    "name": "Baird, Stephen Lynn",
    "street": "2915 Grant St ",
    "city": "Wichita Falls",
    "state": "TX",
    "zipCode": "76308-1726",
    "phone": "(940) 723-1511",
    "fax": "(940) 723-1511",
    "webSite": ""
  },
  {
    "name": "Bairi, Archana",
    "street": "9809 Fm 1960 Bypass Rd W ",
    "city": "Humble",
    "state": "TX",
    "zipCode": "77338-3519",
    "phone": "(281) 446-3855",
    "fax": "(281) 446-1650",
    "webSite": ""
  },
  {
    "name": "Baisden, Leilah",
    "street": "19961 Katy Fwy ",
    "city": "Houston",
    "state": "TX",
    "zipCode": "77094-1019",
    "phone": "(713) 244-7799",
    "fax": "",
    "webSite": ""
  },
  {
    "name": "Baity, Triston Shaun",
    "street": "4819 Avenue Q ",
    "city": "Lubbock",
    "state": "TX",
    "zipCode": "79412-2209",
    "phone": "(806) 686-6722",
    "fax": "",
    "webSite": ""
  },
  {
    "name": "Bajork-Marbach, Mary Elizabeth",
    "street": "1404 Stonehollow Dr Ste B ",
    "city": "Kingwood",
    "state": "TX",
    "zipCode": "77339-2070",
    "phone": "(281) 358-6414",
    "fax": "(281) 358-8542",
    "webSite": ""
  },
  {
    "name": "Baker, Alan W",
    "street": "1725 Cimarron Trl Ste. 3",
    "city": "Hurst",
    "state": "TX",
    "zipCode": "76054-3439",
    "phone": "(817) 280-0099",
    "fax": "(817) 280-0377",
    "webSite": ""
  },
  {
    "name": "Baker, Arthur Steve",
    "street": "444 Forest Sq Suite C",
    "city": "Longview",
    "state": "TX",
    "zipCode": "75605-4463",
    "phone": "(903) 757-5011",
    "fax": "",
    "webSite": ""
  },
  {
    "name": "Baker, Christopher Scott",
    "street": "770 Road To Six Flags St E Ste 174 ",
    "city": "Arlington",
    "state": "TX",
    "zipCode": "76011-8407",
    "phone": "(817) 277-7800",
    "fax": "(817) 277-1442",
    "webSite": ""
  },
  {
    "name": "Baker, David Arthur",
    "street": "4201 Bee Cave Rd Ste. B-210",
    "city": "West Lake Hills",
    "state": "TX",
    "zipCode": "78746-6465",
    "phone": "(512) 328-0911",
    "fax": "(512) 328-3801",
    "webSite": ""
  },
  {
    "name": "Baker, David L",
    "street": "1708 Coit Rd Ste 290 ",
    "city": "Plano",
    "state": "TX",
    "zipCode": "75075-5029",
    "phone": "(972) 612-3920",
    "fax": "(972) 612-3544",
    "webSite": ""
  },
  {
    "name": "Baker, Glenn Edwin",
    "street": "1550 Norwood Dr 400",
    "city": "Hurst",
    "state": "TX",
    "zipCode": "76054-3646",
    "phone": "(817) 282-3411",
    "fax": "(817) 268-3529",
    "webSite": ""
  },
  {
    "name": "Baker, John Thomas",
    "street": "115 E Woodin Blvd ",
    "city": "Dallas",
    "state": "TX",
    "zipCode": "75216",
    "phone": "(214) 946-3100",
    "fax": "",
    "webSite": ""
  },
  {
    "name": "Baker, Justin C",
    "street": "235 Grand Ave ",
    "city": "Bacliff",
    "state": "TX",
    "zipCode": "77518-1609",
    "phone": "(281) 559-1531",
    "fax": "(281) 559-1532",
    "webSite": ""
  },
  {
    "name": "Baker, Kenneth W.",
    "street": "5000 N 10Th St ",
    "city": "Mcallen",
    "state": "TX",
    "zipCode": "78504-2832",
    "phone": "(956) 686-2052",
    "fax": "(956) 682-1749",
    "webSite": ""
  },
  {
    "name": "Baker, Kimberley Anne",
    "street": "1405 Cannon Pkwy ",
    "city": "Roanoke",
    "state": "TX",
    "zipCode": "76262-3620",
    "phone": "(817) 430-1212",
    "fax": "(817) 491-0154",
    "webSite": ""
  },
  {
    "name": "Baker, Kimberly Ann",
    "street": "3501 Towne Crossing Blvd # 180",
    "city": "Mesquite",
    "state": "TX",
    "zipCode": "75150-2783",
    "phone": "(972) 270-6646",
    "fax": "",
    "webSite": ""
  },
  {
    "name": "Baker, Morton",
    "street": "1151 E Hwy 377 Ste 101 ",
    "city": "Granbury",
    "state": "TX",
    "zipCode": "76048-4009",
    "phone": "(817) 573-3033",
    "fax": "",
    "webSite": ""
  },
  {
    "name": "Baker, Richard Y.",
    "street": "1509 Northwest Hwy ",
    "city": "Garland",
    "state": "TX",
    "zipCode": "75041-5231",
    "phone": "(972) 840-6100",
    "fax": "(972) 840-6103",
    "webSite": ""
  },
  {
    "name": "Baker, Robert Andrew",
    "street": "3210 Stone Rd Suite B",
    "city": "Kilgore",
    "state": "TX",
    "zipCode": "75662-2966",
    "phone": "(903) 984-2047",
    "fax": "(903) 983-2980",
    "webSite": ""
  },
  {
    "name": "Bakhiet, Sarah Abdel Fattah",
    "street": "18851 University Blvd Ste 210 ",
    "city": "Sugar Land",
    "state": "TX",
    "zipCode": "77479-6818",
    "phone": "(281) 990-0685",
    "fax": "",
    "webSite": ""
  },
  {
    "name": "Baki, Raja",
    "street": "7301 State Highway 161 Ste 198 ",
    "city": "Irving",
    "state": "TX",
    "zipCode": "75039-2880",
    "phone": "(972) 869-3789",
    "fax": "(972) 869-3791",
    "webSite": ""
  },
  {
    "name": "Baklas, Lefter J",
    "street": "2318 Nw Military Hwy Ste. 101",
    "city": "San Antonio",
    "state": "TX",
    "zipCode": "78231-2539",
    "phone": "(210) 342-9678",
    "fax": "",
    "webSite": ""
  },
  {
    "name": "Balajelini, Saman",
    "street": "518 S. Closner Blvd. 518",
    "city": "Edinburg",
    "state": "TX",
    "zipCode": "78539",
    "phone": "(956) 287-4677",
    "fax": "(956) 287-4926",
    "webSite": ""
  },
  {
    "name": "Balan, Nitya",
    "street": "715 Discovery Blvd Suite 119",
    "city": "Cedar Park",
    "state": "TX",
    "zipCode": "78613-2287",
    "phone": "(512) 260-8330",
    "fax": "(512) 260-8332",
    "webSite": ""
  },
  {
    "name": "Balandran, Jaime",
    "street": "2301 Ellis Ave ",
    "city": "Fort Worth",
    "state": "TX",
    "zipCode": "76106-8190",
    "phone": "(817) 625-8888",
    "fax": "",
    "webSite": ""
  },
  {
    "name": "Balazadeh, Honey",
    "street": "2539 Judson Rd ",
    "city": "Longview",
    "state": "TX",
    "zipCode": "75605-4643",
    "phone": "(903) 331-0359",
    "fax": "",
    "webSite": ""
  },
  {
    "name": "Balch Springs Dental, P.A.",
    "street": "12227 Lake June Rd Ste. #500",
    "city": "Balch Springs",
    "state": "TX",
    "zipCode": "75180-1633",
    "phone": "(972) 216-8880",
    "fax": "(972) 216-8882",
    "webSite": ""
  },
  {
    "name": "Balderas, Victoria Dominque",
    "street": "1117 W De La Rosa St ",
    "city": "Del Rio",
    "state": "TX",
    "zipCode": "78840-6224",
    "phone": "(830) 774-1700",
    "fax": "(830) 774-2860",
    "webSite": ""
  },
  {
    "name": "Balderas, William Ed",
    "street": "3111 Southwest Blvd ",
    "city": "San Angelo",
    "state": "TX",
    "zipCode": "76904-5742",
    "phone": "(325) 224-4333",
    "fax": "",
    "webSite": ""
  },
  {
    "name": "Balderrama, Daniel Vasques",
    "street": "2602 S Washington Ave ",
    "city": "Marshall",
    "state": "TX",
    "zipCode": "75672-7666",
    "phone": "(903) 938-5662",
    "fax": "",
    "webSite": ""
  },
  {
    "name": "Baldwin, Douglas James",
    "street": "206 W Mahl St ",
    "city": "Edinburg",
    "state": "TX",
    "zipCode": "78539-4331",
    "phone": "(956) 383-4400",
    "fax": "",
    "webSite": ""
  },
  {
    "name": "Baldwin, Jesse Jordan",
    "street": "8097 Callaghan Rd ",
    "city": "San Antonio",
    "state": "TX",
    "zipCode": "78230-4718",
    "phone": "(210) 341-2131",
    "fax": "(210) 341-2131",
    "webSite": ""
  },
  {
    "name": "Balic, Ana",
    "street": "1250 Garth Rd Ste B ",
    "city": "Baytown",
    "state": "TX",
    "zipCode": "77520-2424",
    "phone": "(832) 572-5820",
    "fax": "",
    "webSite": ""
  },
  {
    "name": "Balington, Todd",
    "street": "1201 Bent Oaks Ct ",
    "city": "Denton",
    "state": "TX",
    "zipCode": "76210-3300",
    "phone": "(305) 502-5174",
    "fax": "(940) 383-3300",
    "webSite": ""
  },
  {
    "name": "Ball, James Andrew",
    "street": "630 West Interstate 30 Suite 610",
    "city": "Garland",
    "state": "TX",
    "zipCode": "75043-5799",
    "phone": "(972) 226-7600",
    "fax": "",
    "webSite": ""
  },
  {
    "name": "Ballard Family Dentistry, Pa",
    "street": "701 W Bailey Boswell Rd ",
    "city": "Saginaw",
    "state": "TX",
    "zipCode": "76179-1007",
    "phone": "(817) 367-6453",
    "fax": "",
    "webSite": ""
  },
  {
    "name": "Ballard, Scott L",
    "street": "701 W Bailey Boswell Rd ",
    "city": "Saginaw",
    "state": "TX",
    "zipCode": "76179-1007",
    "phone": "(817) 367-6453",
    "fax": "(817) 847-1194",
    "webSite": ""
  },
  {
    "name": "Balli, Larry N",
    "street": "1123 S 10Th Ave ",
    "city": "Edinburg",
    "state": "TX",
    "zipCode": "78539-5547",
    "phone": "(956) 318-3384",
    "fax": "(956) 380-1414",
    "webSite": ""
  },
  {
    "name": "Balser, Christopher Charles",
    "street": "1110 B St ",
    "city": "Floresville",
    "state": "TX",
    "zipCode": "78114-1956",
    "phone": "(830) 393-2064",
    "fax": "(830) 393-1874",
    "webSite": ""
  },
  {
    "name": "Baluyot, Rondre Florant",
    "street": "1100 Wilford Hall Loop Bldg 4554 ",
    "city": "Jbsa Lackland",
    "state": "TX",
    "zipCode": "78236",
    "phone": "(210) 671-9526",
    "fax": "",
    "webSite": ""
  },
  {
    "name": "Bammel Dental, P.C.",
    "street": "10911 Bammel North Houston Rd Ste 234 ",
    "city": "Houston",
    "state": "TX",
    "zipCode": "77086-1434",
    "phone": "(281) 537-9991",
    "fax": "",
    "webSite": ""
  },
  {
    "name": "Bammel, E Harold",
    "street": "817 Sidney Baker St ",
    "city": "Kerrville",
    "state": "TX",
    "zipCode": "78028-3350",
    "phone": "(830) 896-3804",
    "fax": "(830) 896-3223",
    "webSite": ""
  },
  {
    "name": "Bana, Anum Shiraz",
    "street": "419 W Little York Rd Ste H ",
    "city": "Houston",
    "state": "TX",
    "zipCode": "77076-1352",
    "phone": "(214) 821-6468",
    "fax": "",
    "webSite": ""
  },
  {
    "name": "Bandera Dental Office",
    "street": "8428 Bandera Rd ",
    "city": "San Antonio",
    "state": "TX",
    "zipCode": "78250-2543",
    "phone": "(210) 681-1500",
    "fax": "",
    "webSite": ""
  },
  {
    "name": "Bandera Family Dental Practice",
    "street": "302 Bandera Rd ",
    "city": "San Antonio",
    "state": "TX",
    "zipCode": "78228-5518",
    "phone": "(210) 736-0298",
    "fax": "(210) 736-6847",
    "webSite": ""
  },
  {
    "name": "Bandi, Venkata Siva Prasad",
    "street": "6914 Fm 78 Suite 108",
    "city": "San Antonio",
    "state": "TX",
    "zipCode": "78244-1771",
    "phone": "(210) 892-8484",
    "fax": "",
    "webSite": ""
  },
  {
    "name": "Bandley, Richard Andrew",
    "street": "500 N Zaragoza Rd Ste. K",
    "city": "El Paso",
    "state": "TX",
    "zipCode": "79907-4700",
    "phone": "(915) 201-2610",
    "fax": "",
    "webSite": ""
  },
  {
    "name": "Bang, Jeffrey Nanjoong",
    "street": "3388 W Main St Ste 200 ",
    "city": "Frisco",
    "state": "TX",
    "zipCode": "75033-4553",
    "phone": "(972) 624-7812",
    "fax": "(972) 624-7813",
    "webSite": ""
  },
  {
    "name": "Banh, Robert",
    "street": "11416 N Fm 620 Suite K",
    "city": "Austin",
    "state": "TX",
    "zipCode": "78726-1161",
    "phone": "(626) 347-3206",
    "fax": "",
    "webSite": ""
  },
  {
    "name": "Banks, Benny L.",
    "street": "4229 W Lovers Ln ",
    "city": "Dallas",
    "state": "TX",
    "zipCode": "75209",
    "phone": "(214) 350-2311",
    "fax": "(214) 350-4240",
    "webSite": ""
  },
  {
    "name": "Banks, Diane Padilla",
    "street": "2150 Richmond Ave Ste 100 ",
    "city": "Houston",
    "state": "TX",
    "zipCode": "77098-3327",
    "phone": "(832) 742-7613",
    "fax": "",
    "webSite": ""
  },
  {
    "name": "Banks, Glenn",
    "street": "5438 North Fwy ",
    "city": "Houston",
    "state": "TX",
    "zipCode": "77076-4701",
    "phone": "(713) 697-9100",
    "fax": "",
    "webSite": ""
  },
  {
    "name": "Banks, John Steven",
    "street": "3440 Bell St Unit 230 ",
    "city": "Amarillo",
    "state": "TX",
    "zipCode": "79109-4145",
    "phone": "(806) 352-0404",
    "fax": "(806) 467-8244",
    "webSite": ""
  },
  {
    "name": "Banks, Juan Hubert",
    "street": "4500 S Lancaster Rd Dallas Veterans Hospital",
    "city": "Dallas",
    "state": "TX",
    "zipCode": "75216-7167",
    "phone": "(214) 857-1082",
    "fax": "",
    "webSite": ""
  },
  {
    "name": "Banks, Michael Dwaine",
    "street": "606 Brookside Dr ",
    "city": "Jacksonville",
    "state": "TX",
    "zipCode": "75766-2519",
    "phone": "(903) 586-1551",
    "fax": "(903) 586-1552",
    "webSite": ""
  },
  {
    "name": "Bannister, Brandy",
    "street": "7575 San Felipe St ",
    "city": "Houston",
    "state": "TX",
    "zipCode": "77063-1711",
    "phone": "(713) 783-2800",
    "fax": "",
    "webSite": ""
  },
  {
    "name": "Bansal, Ankita",
    "street": "100 Wolfe Nursery Rd 190",
    "city": "Stephenville",
    "state": "TX",
    "zipCode": "76401-3731",
    "phone": "(484) 431-9143",
    "fax": "",
    "webSite": ""
  },
  {
    "name": "Banskota, Pabitra",
    "street": "5439 Ray Ellison Blvd ",
    "city": "San Antonio",
    "state": "TX",
    "zipCode": "78242-2219",
    "phone": "(210) 922-7000",
    "fax": "(210) 457-3396",
    "webSite": ""
  },
  {
    "name": "Banyan Tree Dental, P.A.",
    "street": "11416 Fm 620 Ste N Suite K",
    "city": "Austin",
    "state": "TX",
    "zipCode": "78726-1165",
    "phone": "(512) 382-7123",
    "fax": "",
    "webSite": ""
  },
  {
    "name": "Bao, Andrew An",
    "street": "7417 S Kirkwood Rd ",
    "city": "Houston",
    "state": "TX",
    "zipCode": "77072-3301",
    "phone": "(832) 351-2999",
    "fax": "(832) 351-2114",
    "webSite": ""
  },
  {
    "name": "Barajas, Priscilla Ashley",
    "street": "2120 W Oaklawn Rd Unit E ",
    "city": "Pleasanton",
    "state": "TX",
    "zipCode": "78064-4623",
    "phone": "(830) 569-8135",
    "fax": "",
    "webSite": ""
  },
  {
    "name": "Barbara Brough, D D S, P A",
    "street": "735 Oak Park Avenue ",
    "city": "Corpus Christi",
    "state": "TX",
    "zipCode": "78408-2840",
    "phone": "(361) 883-3993",
    "fax": "(361) 882-1048",
    "webSite": ""
  },
  {
    "name": "Barber, Anthony B",
    "street": "3028-A Sandage Avenue ",
    "city": "Fort Worth",
    "state": "TX",
    "zipCode": "76109-1781",
    "phone": "(817) 926-2631",
    "fax": "",
    "webSite": ""
  },
  {
    "name": "Barberee, Robert Earl",
    "street": "140 S Harbin Dr ",
    "city": "Stephenville",
    "state": "TX",
    "zipCode": "76401-3937",
    "phone": "(254) 968-7980",
    "fax": "(254) 968-0450",
    "webSite": ""
  }
]
