[
  {
    "name": "Barbosa, Ernest A",
    "street": "1205 N Expressway Ste B 1205 N Expressway Ste B",
    "city": "Brownsville",
    "state": "TX",
    "zipCode": "78520-8622",
    "phone": "(956) 542-1545",
    "fax": "(956) 542-3094",
    "webSite": ""
  },
  {
    "name": "Barfield, James K",
    "street": "104 Tyson St ",
    "city": "New Boston",
    "state": "TX",
    "zipCode": "75570-2820",
    "phone": "(903) 628-3312",
    "fax": "(903) 628-5631",
    "webSite": ""
  },
  {
    "name": "Barfield, Rick L",
    "street": "1300 Village Creek Dr ",
    "city": "Plano",
    "state": "TX",
    "zipCode": "75093",
    "phone": "(972) 380-8105",
    "fax": "",
    "webSite": ""
  },
  {
    "name": "Bari, Kauser Rubina",
    "street": "6300 West Loop S Ste 650 ",
    "city": "Bellaire",
    "state": "TX",
    "zipCode": "77401-2997",
    "phone": "(713) 663-7960",
    "fax": "(713) 663-6948",
    "webSite": ""
  },
  {
    "name": "Bariki, Sandeep Kumar",
    "street": "4215 Franklin Ave Ste 300 ",
    "city": "Waco",
    "state": "TX",
    "zipCode": "76710-6903",
    "phone": "(254) 227-6444",
    "fax": "",
    "webSite": ""
  },
  {
    "name": "Barker, Bradley J.",
    "street": "23501 Cinco Ranch Blvd Ste B228 ",
    "city": "Katy",
    "state": "TX",
    "zipCode": "77494-3278",
    "phone": "(281) 391-4200",
    "fax": "(281) 391-4203",
    "webSite": ""
  },
  {
    "name": "Barker, Kim",
    "street": "115 Hyde Park Blvd Ste 100 ",
    "city": "Cleburne",
    "state": "TX",
    "zipCode": "76033-4524",
    "phone": "(817) 645-7201",
    "fax": "(817) 645-5273",
    "webSite": ""
  },
  {
    "name": "Barkley, Timothy Paul",
    "street": "8678 Louetta Rd Suite B",
    "city": "Spring",
    "state": "TX",
    "zipCode": "77379-6679",
    "phone": "(281) 374-9490",
    "fax": "(281) 374-9929",
    "webSite": ""
  },
  {
    "name": "Barksdale And Hastings, Dds",
    "street": "2606 Bens Branch Dr Suite A",
    "city": "Kingwood",
    "state": "TX",
    "zipCode": "77339-4902",
    "phone": "(281) 358-3843",
    "fax": "(281) 358-7900",
    "webSite": ""
  },
  {
    "name": "Barksdale, Woody Thomas",
    "street": "2606A Bens Branch Drive ",
    "city": "Kingwood",
    "state": "TX",
    "zipCode": "77339",
    "phone": "(281) 358-3843",
    "fax": "",
    "webSite": ""
  },
  {
    "name": "Barlapudi, Neelima",
    "street": "9619 Leaning Tree Lane ",
    "city": "Houston",
    "state": "TX",
    "zipCode": "77064",
    "phone": "(504) 810-2565",
    "fax": "",
    "webSite": ""
  },
  {
    "name": "Barnes Filzen, Angela F.",
    "street": "190 Heights Blvd Good Neighbor Healthcare Center",
    "city": "Houston",
    "state": "TX",
    "zipCode": "77007-3729",
    "phone": "(713) 387-7134",
    "fax": "(713) 529-2996",
    "webSite": ""
  },
  {
    "name": "Barnes, Aaron Edward",
    "street": "7010 S Zarzamora St Ste. 113",
    "city": "San Antonio",
    "state": "TX",
    "zipCode": "78224-1142",
    "phone": "(210) 921-0603",
    "fax": "",
    "webSite": ""
  },
  {
    "name": "Barnes, James Edward",
    "street": "5080 Virginia Pkwy Ste. 100",
    "city": "Mckinney",
    "state": "TX",
    "zipCode": "75071-5599",
    "phone": "(972) 529-9697",
    "fax": "(972) 529-9066",
    "webSite": ""
  },
  {
    "name": "Barnes, John",
    "street": "650 International Pkwy Suite 100",
    "city": "Richardson",
    "state": "TX",
    "zipCode": "75081-6612",
    "phone": "(972) 437-4795",
    "fax": "",
    "webSite": ""
  },
  {
    "name": "Barnes, Joseph Leroy",
    "street": "800 N Bryant St ",
    "city": "Pleasanton",
    "state": "TX",
    "zipCode": "78064-2550",
    "phone": "(361) 649-3067",
    "fax": "",
    "webSite": ""
  },
  {
    "name": "Barnes, Karry B",
    "street": "625 N Carrier Pkwy Suite 100",
    "city": "Grand Prairie",
    "state": "TX",
    "zipCode": "75050-5463",
    "phone": "(972) 642-1276",
    "fax": "(972) 642-1279",
    "webSite": ""
  },
  {
    "name": "Barnes, Michael Douglas",
    "street": "1811 Army Blvd Apt A Bldg 2018",
    "city": "Fort Sam Houston",
    "state": "TX",
    "zipCode": "78234-6200",
    "phone": "(210) 221-0835",
    "fax": "(210) 221-0824",
    "webSite": ""
  },
  {
    "name": "Barnes, William W",
    "street": "546 W Seminary Dr ",
    "city": "Fort Worth",
    "state": "TX",
    "zipCode": "76115-1361",
    "phone": "(817) 924-0091",
    "fax": "",
    "webSite": ""
  },
  {
    "name": "Barnett, Arlene Slade",
    "street": "6628 Lake Worth Blvd Suite 200",
    "city": "Lake Worth",
    "state": "TX",
    "zipCode": "76135-3018",
    "phone": "(817) 238-7984",
    "fax": "(817) 238-7306",
    "webSite": ""
  },
  {
    "name": "Barnett, Jerald Lewis",
    "street": "149 Hart Street Sheppard Air Force Base Building 1200, Dental Clinic",
    "city": "Sheppard Air Force Base",
    "state": "TX",
    "zipCode": "76311-3478",
    "phone": "(940) 676-2006",
    "fax": "",
    "webSite": ""
  },
  {
    "name": "Barnett, Mark",
    "street": "3012 E Hebron Pkwy #108",
    "city": "Carrollton",
    "state": "TX",
    "zipCode": "75010",
    "phone": "(972) 662-3111",
    "fax": "",
    "webSite": ""
  },
  {
    "name": "Barnett, Peter R.",
    "street": "5944 W Parker Rd Ste 500",
    "city": "Plano",
    "state": "TX",
    "zipCode": "75093-6430",
    "phone": "(972) 943-5944",
    "fax": "(972) 801-9005",
    "webSite": ""
  },
  {
    "name": "Barnett, Scott D",
    "street": "5604 Colleyville Blvd Ste K",
    "city": "Colleyville",
    "state": "TX",
    "zipCode": "76034-6036",
    "phone": "(817) 427-9176",
    "fax": "",
    "webSite": ""
  },
  {
    "name": "Barone, Philip Ralph",
    "street": "7 Amds/Sgpd Dyess Afb",
    "city": "Abilene",
    "state": "TX",
    "zipCode": "79607",
    "phone": "(325) 696-2304",
    "fax": "",
    "webSite": ""
  },
  {
    "name": "Barquet, Charles",
    "street": "2604 Old Denton Rd Ste 112 ",
    "city": "Carrollton",
    "state": "TX",
    "zipCode": "75007-5137",
    "phone": "(972) 323-5060",
    "fax": "",
    "webSite": ""
  },
  {
    "name": "Barras, John Denton",
    "street": "2415 W Alabama St Ste 210 ",
    "city": "Houston",
    "state": "TX",
    "zipCode": "77098-2263",
    "phone": "(713) 526-2555",
    "fax": "(713) 526-2556",
    "webSite": ""
  },
  {
    "name": "Barratt, George F.",
    "street": "8000 Research Forest Dr Suite 350",
    "city": "The Woodlands",
    "state": "TX",
    "zipCode": "77382-1504",
    "phone": "(281) 363-4345",
    "fax": "(281) 292-0108",
    "webSite": ""
  },
  {
    "name": "Barrera, Iris",
    "street": "1002 W Sam Houston Blvd Suite 6",
    "city": "Pharr",
    "state": "TX",
    "zipCode": "78577-5224",
    "phone": "(956) 545-0668",
    "fax": "(956) 545-0669",
    "webSite": ""
  },
  {
    "name": "Barrera, Orlando",
    "street": "5050 Fm 1960 Rd W Ste 126 ",
    "city": "Houston",
    "state": "TX",
    "zipCode": "77069-4525",
    "phone": "(281) 440-0814",
    "fax": "(281) 440-6130",
    "webSite": ""
  },
  {
    "name": "Barrera, Ramiro",
    "street": "1123 E 9Th St Ste 10-A ",
    "city": "Mission",
    "state": "TX",
    "zipCode": "78572-4404",
    "phone": "(956) 587-5554",
    "fax": "(956) 628-4900",
    "webSite": ""
  },
  {
    "name": "Barrett L. Bartell, D.D.S., Pa",
    "street": "6013 Wedgwood Dr ",
    "city": "Fort Worth",
    "state": "TX",
    "zipCode": "76133-2770",
    "phone": "(817) 346-6411",
    "fax": "(817) 346-0463",
    "webSite": ""
  },
  {
    "name": "Barrett, Gilbert Charles",
    "street": "2851 Plano Pkwy Ste 220",
    "city": "The Colony",
    "state": "TX",
    "zipCode": "75056-6627",
    "phone": "(214) 430-5045",
    "fax": "",
    "webSite": ""
  },
  {
    "name": "Barrett, Kayla Vaquera",
    "street": "4021 Belt Line Rd Ste 102 ",
    "city": "Addison",
    "state": "TX",
    "zipCode": "75001-5878",
    "phone": "(817) 938-3248",
    "fax": "",
    "webSite": ""
  },
  {
    "name": "Barrilleaux, Camilla Cristina",
    "street": "107 Yale St Ste 300 ",
    "city": "Houston",
    "state": "TX",
    "zipCode": "77007-3754",
    "phone": "(832) 900-2071",
    "fax": "",
    "webSite": ""
  },
  {
    "name": "Barrington, Craig M",
    "street": "401 N Highway 77 Ste 10 ",
    "city": "Waxahachie",
    "state": "TX",
    "zipCode": "75165-1874",
    "phone": "(972) 923-0374",
    "fax": "",
    "webSite": ""
  },
  {
    "name": "Barrington, Jennifer J",
    "street": "401 N Highway 77 Ste 10 ",
    "city": "Waxahachie",
    "state": "TX",
    "zipCode": "75165-1874",
    "phone": "(972) 923-0374",
    "fax": "",
    "webSite": ""
  },
  {
    "name": "Barron, Gary Neal",
    "street": "1100 E Highway 377 Suite 109",
    "city": "Granbury",
    "state": "TX",
    "zipCode": "76048-2544",
    "phone": "(817) 573-7377",
    "fax": "(817) 573-7851",
    "webSite": ""
  },
  {
    "name": "Barron, Raymond",
    "street": "164 Wall St ",
    "city": "Tenaha",
    "state": "TX",
    "zipCode": "75974-5412",
    "phone": "(936) 248-4224",
    "fax": "",
    "webSite": ""
  },
  {
    "name": "Barron, Ruben",
    "street": "1975 Verterans Blvd Suite 4",
    "city": "Eagle Pass",
    "state": "TX",
    "zipCode": "78852",
    "phone": "(830) 773-8448",
    "fax": "(830) 773-8711",
    "webSite": ""
  },
  {
    "name": "Barros, Juliana Almeida",
    "street": "6516 M D Anderson Blvd Suite 478",
    "city": "Houston",
    "state": "TX",
    "zipCode": "77030-3402",
    "phone": "(713) 500-4564",
    "fax": "(713) 500-4108",
    "webSite": ""
  },
  {
    "name": "Barroso, Elizabeth Marie",
    "street": "937 Fm 1821 Ste K ",
    "city": "Mineral Wells",
    "state": "TX",
    "zipCode": "76067-9134",
    "phone": "(940) 325-4200",
    "fax": "",
    "webSite": ""
  },
  {
    "name": "Barsch, Timothy Harry",
    "street": "510 S Adams St ",
    "city": "Fredericksburg",
    "state": "TX",
    "zipCode": "78624-4437",
    "phone": "(830) 997-9825",
    "fax": "",
    "webSite": ""
  },
  {
    "name": "Bart Bourland D.D.S., P.A.",
    "street": "4601 Buffalo Gap Rd Ste. D-1",
    "city": "Abilene",
    "state": "TX",
    "zipCode": "79606-3375",
    "phone": "(325) 695-3300",
    "fax": "(325) 695-9899",
    "webSite": ""
  },
  {
    "name": "Bartee, Barry K",
    "street": "3234 64Th St ",
    "city": "Lubbock",
    "state": "TX",
    "zipCode": "79413-5760",
    "phone": "(806) 792-0030",
    "fax": "(806) 792-8730",
    "webSite": ""
  },
  {
    "name": "Bartee, James William",
    "street": "1246 S Highway 377 Ste 500 ",
    "city": "Pilot Point",
    "state": "TX",
    "zipCode": "76258-4378",
    "phone": "(940) 606-2201",
    "fax": "",
    "webSite": ""
  },
  {
    "name": "Bartell, Barrett",
    "street": "6013 Wedgwood Dr ",
    "city": "Fort Worth",
    "state": "TX",
    "zipCode": "76133-2770",
    "phone": "(817) 346-6411",
    "fax": "",
    "webSite": ""
  },
  {
    "name": "Bartelli, Bradley K.",
    "street": "6262 Weber Rd Ste 120",
    "city": "Corpus Christi",
    "state": "TX",
    "zipCode": "78413-4006",
    "phone": "(361) 851-2828",
    "fax": "",
    "webSite": ""
  },
  {
    "name": "Barth, Robert Walter",
    "street": "611 N Esplanade St ",
    "city": "Cuero",
    "state": "TX",
    "zipCode": "77954-3605",
    "phone": "(361) 275-9144",
    "fax": "(361) 275-3636",
    "webSite": ""
  },
  {
    "name": "Bartlett, Ben Philip Sylvan",
    "street": "3000 N Garfield St Ste 220 ",
    "city": "Midland",
    "state": "TX",
    "zipCode": "79705-6417",
    "phone": "(432) 683-5313",
    "fax": "",
    "webSite": ""
  },
  {
    "name": "Bartlett, James P",
    "street": "908 W Main St ",
    "city": "Atlanta",
    "state": "TX",
    "zipCode": "75551-3430",
    "phone": "(903) 796-7183",
    "fax": "",
    "webSite": ""
  },
  {
    "name": "Bartlett, Michael Scott",
    "street": "3140 Central Mall Dr. ",
    "city": "Port Arthur",
    "state": "TX",
    "zipCode": "77642-8039",
    "phone": "(409) 727-2164",
    "fax": "(409) 727-5222",
    "webSite": ""
  },
  {
    "name": "Bartley, Emily J",
    "street": "5534 N Wayside Dr ",
    "city": "Houston",
    "state": "TX",
    "zipCode": "77028-5210",
    "phone": "(713) 517-7322",
    "fax": "(713) 676-0111",
    "webSite": ""
  },
  {
    "name": "Barto, Shivani Kamodia",
    "street": "6212 De Zavala Rd ",
    "city": "San Antonio",
    "state": "TX",
    "zipCode": "78249-2201",
    "phone": "(607) 239-0910",
    "fax": "",
    "webSite": ""
  },
  {
    "name": "Barton, Albert John",
    "street": "20131 Highway 59 N Ste 1238 ",
    "city": "Humble",
    "state": "TX",
    "zipCode": "77338-2332",
    "phone": "(281) 446-4237",
    "fax": "(281) 446-6942",
    "webSite": ""
  },
  {
    "name": "Barton, Thomas Scott",
    "street": "5983 Bandera Rd ",
    "city": "San Antonio",
    "state": "TX",
    "zipCode": "78238-1822",
    "phone": "(210) 681-4867",
    "fax": "(210) 681-3831",
    "webSite": ""
  },
  {
    "name": "Bartosh, Mark Walter",
    "street": "1011 Augusta Dr Ste 208 ",
    "city": "Houston",
    "state": "TX",
    "zipCode": "77057-2060",
    "phone": "(713) 780-3427",
    "fax": "",
    "webSite": ""
  },
  {
    "name": "Bartosh, William Frank",
    "street": "3144 Executive Dr ",
    "city": "San Angelo",
    "state": "TX",
    "zipCode": "76904-6802",
    "phone": "(325) 949-8581",
    "fax": "(325) 949-8582",
    "webSite": ""
  },
  {
    "name": "Bartz, Karina",
    "street": "110 Smirl Dr Ste 101 ",
    "city": "Heath",
    "state": "TX",
    "zipCode": "75032-2080",
    "phone": "(917) 583-9507",
    "fax": "",
    "webSite": ""
  },
  {
    "name": "Barwise, Britt V",
    "street": "1220 Airline Rd Suite 210",
    "city": "Corpus Christi",
    "state": "TX",
    "zipCode": "78412-3473",
    "phone": "(361) 993-9551",
    "fax": "(361) 991-7887",
    "webSite": ""
  },
  {
    "name": "Basawaraj, Sujata",
    "street": "4679 Sh 121 Suite 109",
    "city": "Lewisville",
    "state": "TX",
    "zipCode": "75056-4010",
    "phone": "(972) 370-1200",
    "fax": "(972) 370-2679",
    "webSite": ""
  },
  {
    "name": "Bash, Vincent C.",
    "street": "3000 N Garfield St Suite 275",
    "city": "Midland",
    "state": "TX",
    "zipCode": "79705-6453",
    "phone": "(432) 682-0565",
    "fax": "(432) 682-9709",
    "webSite": ""
  },
  {
    "name": "Basic Dental Of Mesa, Pllc",
    "street": "6238 N Mesa St ",
    "city": "El Paso",
    "state": "TX",
    "zipCode": "79912-4520",
    "phone": "(940) 220-4983",
    "fax": "",
    "webSite": ""
  },
  {
    "name": "Basit, Saadia",
    "street": "11661 Preston Rd Suite 104",
    "city": "Dallas",
    "state": "TX",
    "zipCode": "75230-2745",
    "phone": "(469) 579-1817",
    "fax": "",
    "webSite": ""
  },
  {
    "name": "Bass, Kelli Lanette",
    "street": "1712 N Access Rd ",
    "city": "Clyde",
    "state": "TX",
    "zipCode": "79510-3352",
    "phone": "(325) 893-4010",
    "fax": "",
    "webSite": ""
  },
  {
    "name": "Bassi, Megha",
    "street": "910 W 11Th St Suite 260",
    "city": "Elgin",
    "state": "TX",
    "zipCode": "78621-2042",
    "phone": "(512) 285-9685",
    "fax": "",
    "webSite": ""
  },
  {
    "name": "Bassin, Stephanie",
    "street": "12101 Greenville Ave Suite 101",
    "city": "Dallas",
    "state": "TX",
    "zipCode": "75243-0583",
    "phone": "(214) 575-5253",
    "fax": "",
    "webSite": ""
  },
  {
    "name": "Bassoo, Sonja",
    "street": "8535 W Bellfort St ",
    "city": "Houston",
    "state": "TX",
    "zipCode": "77071-2263",
    "phone": "(713) 777-8999",
    "fax": "",
    "webSite": ""
  },
  {
    "name": "Basta, Melody Nightingale",
    "street": "5800 N Tarrant Pkwy Ste 102 ",
    "city": "Fort Worth",
    "state": "TX",
    "zipCode": "76244-8003",
    "phone": "(817) 581-6453",
    "fax": "",
    "webSite": ""
  },
  {
    "name": "Bastani, Sean E",
    "street": "1105 E James St ",
    "city": "Baytown",
    "state": "TX",
    "zipCode": "77520-5821",
    "phone": "(281) 422-8268",
    "fax": "(281) 837-6100",
    "webSite": ""
  },
  {
    "name": "Bastrop Family Dentistry",
    "street": "1113 Main St ",
    "city": "Bastrop",
    "state": "TX",
    "zipCode": "78602-3218",
    "phone": "(512) 332-2353",
    "fax": "",
    "webSite": ""
  },
  {
    "name": "Bateman, Matthew Eric",
    "street": "3205 N University Dr Ste B ",
    "city": "Nacogdoches",
    "state": "TX",
    "zipCode": "75965",
    "phone": "(936) 657-0110",
    "fax": "",
    "webSite": ""
  },
  {
    "name": "Bates, Bobby L",
    "street": "105 N Lutterloh Ave ",
    "city": "Gatesville",
    "state": "TX",
    "zipCode": "76528-1421",
    "phone": "(254) 865-7918",
    "fax": "(254) 865-7908",
    "webSite": ""
  },
  {
    "name": "Bates, Carole Lynne",
    "street": "1010 West Audie Murphy Parkway Farmersville Dental",
    "city": "Farmersville",
    "state": "TX",
    "zipCode": "75442",
    "phone": "(972) 784-8282",
    "fax": "(972) 784-7084",
    "webSite": ""
  },
  {
    "name": "Bates, Jimmy David",
    "street": "304 University Ave Suite 101",
    "city": "Marshall",
    "state": "TX",
    "zipCode": "75670-5210",
    "phone": "(903) 938-5591",
    "fax": "(903) 938-1481",
    "webSite": ""
  },
  {
    "name": "Bates, Michael",
    "street": "17700 Us 281 North Suite 320",
    "city": "San Antonio",
    "state": "TX",
    "zipCode": "78232",
    "phone": "(210) 495-6255",
    "fax": "",
    "webSite": ""
  },
  {
    "name": "Battarbee, Winston R",
    "street": "909 Dairy Ashford St Ste 202 ",
    "city": "Houston",
    "state": "TX",
    "zipCode": "77079-5306",
    "phone": "(281) 497-4142",
    "fax": "",
    "webSite": ""
  },
  {
    "name": "Batteaux, Robert Anthony",
    "street": "6776 Southwest Fwy 252",
    "city": "Houston",
    "state": "TX",
    "zipCode": "77074-2107",
    "phone": "(713) 266-2929",
    "fax": "",
    "webSite": ""
  },
  {
    "name": "Batten, William",
    "street": "908 W Whitestone Blvd Ste 400 ",
    "city": "Cedar Park",
    "state": "TX",
    "zipCode": "78613-7951",
    "phone": "(512) 668-9770",
    "fax": "",
    "webSite": ""
  },
  {
    "name": "Batton, Robert D",
    "street": "3600 Hulen St Bldg D",
    "city": "Fort Worth",
    "state": "TX",
    "zipCode": "76107-6863",
    "phone": "(817) 732-6622",
    "fax": "",
    "webSite": ""
  },
  {
    "name": "Bauch-Friedrich, Allyson Kay",
    "street": "1505 E Rio Grande St Ste 120 ",
    "city": "Victoria",
    "state": "TX",
    "zipCode": "77901-7397",
    "phone": "(361) 235-4283",
    "fax": "",
    "webSite": ""
  },
  {
    "name": "Baucum, John W",
    "street": "537 Gordon St ",
    "city": "Corpus Christi",
    "state": "TX",
    "zipCode": "78404-2535",
    "phone": "(361) 855-3900",
    "fax": "(361) 855-7931",
    "webSite": ""
  },
  {
    "name": "Bauer Family Dentistry Pllc",
    "street": "551 W Cantu Rd ",
    "city": "Del Rio",
    "state": "TX",
    "zipCode": "78840-3013",
    "phone": "(830) 775-2421",
    "fax": "(830) 774-4231",
    "webSite": ""
  },
  {
    "name": "Bauer, Jeffrey Alan",
    "street": "206 Meadow Mountain Dr ",
    "city": "Waco",
    "state": "TX",
    "zipCode": "76712-8162",
    "phone": "(254) 666-6292",
    "fax": "(254) 666-2190",
    "webSite": ""
  },
  {
    "name": "Baugh, Amelia Haffner",
    "street": "1373 Avondale Haslet Rd ",
    "city": "Haslet",
    "state": "TX",
    "zipCode": "76052-3511",
    "phone": "(817) 847-0100",
    "fax": "(817) 847-0126",
    "webSite": ""
  },
  {
    "name": "Baugh, Tommy J",
    "street": "11003 Resource Pkwy Suite 101",
    "city": "Houston",
    "state": "TX",
    "zipCode": "77089-6141",
    "phone": "(281) 484-1006",
    "fax": "(281) 484-4024",
    "webSite": ""
  },
  {
    "name": "Bautista, Lorraine",
    "street": "24179 State Highway 249 ",
    "city": "Tomball",
    "state": "TX",
    "zipCode": "77375-8298",
    "phone": "(281) 357-9460",
    "fax": "",
    "webSite": ""
  },
  {
    "name": "Bautista, Rhesa Del Rosario",
    "street": "4418 Almeda Rd ",
    "city": "Houston",
    "state": "TX",
    "zipCode": "77004-4902",
    "phone": "(713) 528-0040",
    "fax": "",
    "webSite": ""
  },
  {
    "name": "Bautsch, Jerry W",
    "street": "2815 W Lake Houston Pkwy Suite 107",
    "city": "Kingwood",
    "state": "TX",
    "zipCode": "77339-5227",
    "phone": "(281) 361-2011",
    "fax": "(281) 360-6517",
    "webSite": ""
  },
  {
    "name": "Bautsch, Kyle",
    "street": "2815 W Lake Houston Pkwy Ste 107 ",
    "city": "Kingwood",
    "state": "TX",
    "zipCode": "77339-5220",
    "phone": "(281) 361-2011",
    "fax": "",
    "webSite": ""
  },
  {
    "name": "Bawcom, Terry B",
    "street": "2201 S Danville Dr ",
    "city": "Abilene",
    "state": "TX",
    "zipCode": "79605-4719",
    "phone": "(325) 692-6031",
    "fax": "",
    "webSite": ""
  },
  {
    "name": "Baxley, William Kyle",
    "street": "4320 E Lucas Dr ",
    "city": "Beaumont",
    "state": "TX",
    "zipCode": "77708-5500",
    "phone": "(409) 892-2208",
    "fax": "(409) 892-4110",
    "webSite": ""
  },
  {
    "name": "Baxter, Robert Mitchell",
    "street": "3992 Denton Hwy ",
    "city": "Haltom City",
    "state": "TX",
    "zipCode": "76117-2509",
    "phone": "(817) 838-2344",
    "fax": "(817) 838-9444",
    "webSite": ""
  },
  {
    "name": "Baxter, William Jesse",
    "street": "1404 N Grandview Ave ",
    "city": "Odessa",
    "state": "TX",
    "zipCode": "79761-3140",
    "phone": "(432) 362-3471",
    "fax": "",
    "webSite": ""
  },
  {
    "name": "Bay City Kids Dentistry Pllc",
    "street": "4208 Avenue F ",
    "city": "Bay City",
    "state": "TX",
    "zipCode": "77414-8006",
    "phone": "(979) 541-5400",
    "fax": "",
    "webSite": ""
  },
  {
    "name": "Bay Colony P.A.",
    "street": "2251 Fm 646 Rd W Suite 150",
    "city": "Dickinson",
    "state": "TX",
    "zipCode": "77539-3235",
    "phone": "(281) 337-9000",
    "fax": "(281) 337-9011",
    "webSite": ""
  },
  {
    "name": "Bayarea Gentle Dental",
    "street": "1309 W Fairmont Pkwy Ste C ",
    "city": "La Porte",
    "state": "TX",
    "zipCode": "77571-6123",
    "phone": "(281) 842-9934",
    "fax": "",
    "webSite": ""
  },
  {
    "name": "Bayat Movahed, Saeed",
    "street": "8373 Culebra Rd Suite 102A",
    "city": "San Antonio",
    "state": "TX",
    "zipCode": "78251-1663",
    "phone": "(210) 800-9691",
    "fax": "",
    "webSite": ""
  },
  {
    "name": "Bayat, Mahboobeh",
    "street": "2100 W Northwest Hwy Suite 204",
    "city": "Grapevine",
    "state": "TX",
    "zipCode": "76051-7808",
    "phone": "(817) 329-6000",
    "fax": "(817) 251-1833",
    "webSite": ""
  },
  {
    "name": "Baybrook Mall Dental Pc",
    "street": "1012 Baybrook Mall ",
    "city": "Friendswood",
    "state": "TX",
    "zipCode": "77546-2744",
    "phone": "(281) 461-6515",
    "fax": "",
    "webSite": ""
  },
  {
    "name": "Bayless, Jeanne Hansen",
    "street": "1034 N Willis St ",
    "city": "Abilene",
    "state": "TX",
    "zipCode": "79603-4622",
    "phone": "(325) 673-8164",
    "fax": "(325) 673-0812",
    "webSite": ""
  },
  {
    "name": "Bayless, Matthew",
    "street": "6300 West Loop S Ste 650 ",
    "city": "Bellaire",
    "state": "TX",
    "zipCode": "77401-2997",
    "phone": "(713) 663-7960",
    "fax": "(713) 663-6948",
    "webSite": ""
  },
  {
    "name": "Bayne, Howard Mark",
    "street": "940 Peyton Gin Rd ",
    "city": "Austin",
    "state": "TX",
    "zipCode": "78758-6720",
    "phone": "(512) 836-5250",
    "fax": "(512) 347-1486",
    "webSite": ""
  },
  {
    "name": "Bayou City Dental, Pa",
    "street": "11723 S Sam Houston Pkwy E ",
    "city": "Houston",
    "state": "TX",
    "zipCode": "77089-4764",
    "phone": "(281) 464-9901",
    "fax": "(281) 464-9663",
    "webSite": ""
  },
  {
    "name": "Bays, P. Christopher",
    "street": "24200 W Interstate 10 Suite 112",
    "city": "San Antonio",
    "state": "TX",
    "zipCode": "78257-1145",
    "phone": "(210) 687-1133",
    "fax": "",
    "webSite": ""
  },
  {
    "name": "Bc Corp Pllc",
    "street": "228 E 3 Mile Rd Ste 101",
    "city": "Palmhurst",
    "state": "TX",
    "zipCode": "78573",
    "phone": "(956) 255-8005",
    "fax": "",
    "webSite": ""
  },
  {
    "name": "My Dentist",
    "street": "8015 Shoal Creek Blvd Ste 108 ",
    "city": "Austin",
    "state": "TX",
    "zipCode": "78757-8051",
    "phone": "(512) 454-5219",
    "fax": "",
    "webSite": ""
  },
  {
    "name": "Beacham, Nadia Chene'",
    "street": "3720 Call Field Rd ",
    "city": "Wichita Falls",
    "state": "TX",
    "zipCode": "76308-2765",
    "phone": "(940) 217-5574",
    "fax": "",
    "webSite": ""
  },
  {
    "name": "Beall, William L",
    "street": "5952 Royal Ln Suite 258",
    "city": "Dallas",
    "state": "TX",
    "zipCode": "75230-3862",
    "phone": "(214) 691-5651",
    "fax": "(214) 691-4543",
    "webSite": ""
  },
  {
    "name": "Beals, Shawn Shumway",
    "street": "5150 Montana Ave ",
    "city": "El Paso",
    "state": "TX",
    "zipCode": "79903-4904",
    "phone": "(915) 730-6355",
    "fax": "",
    "webSite": ""
  },
  {
    "name": "Bean, Christopher Louis",
    "street": "2913 Overland Trl Suite 200",
    "city": "Sherman",
    "state": "TX",
    "zipCode": "75092-4493",
    "phone": "(903) 868-8506",
    "fax": "(903) 868-9655",
    "webSite": ""
  },
  {
    "name": "Bean, Jansen D",
    "street": "9300 Wade Blvd Ste 230 ",
    "city": "Frisco",
    "state": "TX",
    "zipCode": "75035-2175",
    "phone": "(972) 668-5608",
    "fax": "",
    "webSite": ""
  },
  {
    "name": "Bean, Rhonda Lonell",
    "street": "17214 Woodland Creek Ln ",
    "city": "Houston",
    "state": "TX",
    "zipCode": "77095-4388",
    "phone": "(713) 201-0693",
    "fax": "",
    "webSite": ""
  },
  {
    "name": "Bear Creek Family Dentistry, Pa",
    "street": "4201 E Berry St ",
    "city": "Fort Worth",
    "state": "TX",
    "zipCode": "76105-5053",
    "phone": "(817) 535-8200",
    "fax": "",
    "webSite": ""
  },
  {
    "name": "Beardsley, Barrett Nash",
    "street": "3551 Roger Brooke Dr ",
    "city": "Fort Sam Houston",
    "state": "TX",
    "zipCode": "78234-4504",
    "phone": "(210) 916-2549",
    "fax": "",
    "webSite": ""
  },
  {
    "name": "Dental Doc",
    "street": "2358 E Southcross Blvd ",
    "city": "San Antonio",
    "state": "TX",
    "zipCode": "78223-2263",
    "phone": "(210) 532-9998",
    "fax": "",
    "webSite": ""
  },
  {
    "name": "Beatty, Robert",
    "street": "8102 Stonebrook Pkwy Suite 100",
    "city": "Frisco",
    "state": "TX",
    "zipCode": "75034-7220",
    "phone": "(972) 335-2500",
    "fax": "(972) 335-4208",
    "webSite": ""
  },
  {
    "name": "Lakeline Mall Family Dental",
    "street": "11200 Lakeline Mall Dr #B1",
    "city": "Cedar Park",
    "state": "TX",
    "zipCode": "78613-1501",
    "phone": "(512) 448-4867",
    "fax": "(512) 335-7668",
    "webSite": ""
  },
  {
    "name": "Beaumont Dental Pllc",
    "street": "4400 Highland Ave ",
    "city": "Beaumont",
    "state": "TX",
    "zipCode": "77705-5205",
    "phone": "(409) 813-1702",
    "fax": "",
    "webSite": ""
  },
  {
    "name": "Beaumont Smile Center, P.A.",
    "street": "3560 Delaware St Suite 102",
    "city": "Beaumont",
    "state": "TX",
    "zipCode": "77706-3067",
    "phone": "(713) 269-0446",
    "fax": "",
    "webSite": ""
  },
  {
    "name": "Beaumont Smiles Youth Dentistry, Pllc",
    "street": "3865 Phelan Blvd ",
    "city": "Beaumont",
    "state": "TX",
    "zipCode": "77707-2243",
    "phone": "(409) 833-5497",
    "fax": "(409) 833-5441",
    "webSite": ""
  },
  {
    "name": "Beaumont Texas Dental Pc",
    "street": "3939 Dowlen Rd Ste 17 ",
    "city": "Beaumont",
    "state": "TX",
    "zipCode": "77706-6876",
    "phone": "(409) 924-7800",
    "fax": "",
    "webSite": ""
  },
  {
    "name": "Beautiful Dental Pllc",
    "street": "1809 Tulane Dr ",
    "city": "Lufkin",
    "state": "TX",
    "zipCode": "75901-5637",
    "phone": "(936) 225-3544",
    "fax": "",
    "webSite": ""
  },
  {
    "name": "Bebermeyer, Richard David",
    "street": "6516 M.D. Anderson Blvd. Suite 493",
    "city": "Houston",
    "state": "TX",
    "zipCode": "77030",
    "phone": "(713) 500-4286",
    "fax": "(713) 500-4108",
    "webSite": ""
  },
  {
    "name": "Alamo Oral Health",
    "street": "8647 Wurzbach Rd Bldg B ",
    "city": "San Antonio",
    "state": "TX",
    "zipCode": "78240-1245",
    "phone": "(210) 691-1211",
    "fax": "(210) 697-0829",
    "webSite": ""
  },
  {
    "name": "Bec, Ioan P",
    "street": "8647 Wurzbach Rd Bldg B ",
    "city": "San Antonio",
    "state": "TX",
    "zipCode": "78240-1245",
    "phone": "(210) 691-1211",
    "fax": "(210) 697-0829",
    "webSite": ""
  },
  {
    "name": "Beck, Brody",
    "street": "410 N 3Rd St ",
    "city": "Longview",
    "state": "TX",
    "zipCode": "75601-6507",
    "phone": "(903) 753-2633",
    "fax": "",
    "webSite": ""
  },
  {
    "name": "Beck, Charles Glenn",
    "street": "1700 11Th St ",
    "city": "Wichita Falls",
    "state": "TX",
    "zipCode": "76301-5050",
    "phone": "(940) 723-4512",
    "fax": "(940) 767-2386",
    "webSite": ""
  },
  {
    "name": "Beck, Michael Dewain",
    "street": "1824 Strawberry Rd ",
    "city": "Pasadena",
    "state": "TX",
    "zipCode": "77502-2610",
    "phone": "(713) 477-3858",
    "fax": "(713) 477-0187",
    "webSite": ""
  },
  {
    "name": "Beck, Rosa Elena",
    "street": "2131 N Collins St Ste 415 ",
    "city": "Arlington",
    "state": "TX",
    "zipCode": "76011-2811",
    "phone": "(214) 458-0862",
    "fax": "",
    "webSite": ""
  },
  {
    "name": "Beck, Tyson Turrell",
    "street": "5005 N Piedras St ",
    "city": "El Paso",
    "state": "TX",
    "zipCode": "79920",
    "phone": "(915) 744-6083",
    "fax": "",
    "webSite": ""
  },
  {
    "name": "Becker, John Douglas",
    "street": "2222 N Highway 281 ",
    "city": "Blanco",
    "state": "TX",
    "zipCode": "78606-5356",
    "phone": "(830) 833-2200",
    "fax": "(830) 833-2203",
    "webSite": ""
  },
  {
    "name": "Beckmann, Robert H",
    "street": "6134 Sherry Ln ",
    "city": "Dallas",
    "state": "TX",
    "zipCode": "75225-6301",
    "phone": "(214) 691-7371",
    "fax": "(214) 691-2281",
    "webSite": ""
  },
  {
    "name": "Bednarik, Vanessa Frances",
    "street": "12710 W Ih 10 Ste 120 ",
    "city": "San Antonio",
    "state": "TX",
    "zipCode": "78230-1002",
    "phone": "(210) 836-9920",
    "fax": "",
    "webSite": ""
  },
  {
    "name": "Bedwell, Michael George",
    "street": "1111 Kinwest Pkwy Suite 150",
    "city": "Irving",
    "state": "TX",
    "zipCode": "75063-3409",
    "phone": "(214) 461-0425",
    "fax": "(214) 461-0429",
    "webSite": ""
  },
  {
    "name": "Bee Creek Dental Pllc",
    "street": "4900 Bee Creek Rd. ",
    "city": "Spicewood",
    "state": "TX",
    "zipCode": "78669",
    "phone": "(512) 266-9585",
    "fax": "",
    "webSite": ""
  },
  {
    "name": "Beeler, Dwayne E",
    "street": "6717 Telephone Rd ",
    "city": "Fort Worth",
    "state": "TX",
    "zipCode": "76135-2909",
    "phone": "(817) 237-9701",
    "fax": "(817) 238-9153",
    "webSite": ""
  },
  {
    "name": "Beeler, Jack E.",
    "street": "621 N Virginia St ",
    "city": "Port Lavaca",
    "state": "TX",
    "zipCode": "77979-3021",
    "phone": "(361) 552-6814",
    "fax": "(361) 552-8193",
    "webSite": ""
  },
  {
    "name": "Beelman, Ryan T",
    "street": "308 Harwood Rd ",
    "city": "Bedford",
    "state": "TX",
    "zipCode": "76021-4148",
    "phone": "(817) 282-1241",
    "fax": "(817) 282-2087",
    "webSite": ""
  },
  {
    "name": "Antoine Dental Center",
    "street": "6206 Antoine Dr ",
    "city": "Houston",
    "state": "TX",
    "zipCode": "77091-2615",
    "phone": "(713) 263-8900",
    "fax": "(713) 263-7479",
    "webSite": ""
  },
  {
    "name": "Behzadi, Mitra",
    "street": "5416 Basswood Blvd ",
    "city": "Fort Worth",
    "state": "TX",
    "zipCode": "76137-4400",
    "phone": "(817) 656-1215",
    "fax": "",
    "webSite": ""
  },
  {
    "name": "Belanger, Lizandre",
    "street": "2133 Pepperrell St ",
    "city": "San Antonio",
    "state": "TX",
    "zipCode": "78236-5313",
    "phone": "(210) 292-0123",
    "fax": "",
    "webSite": ""
  },
  {
    "name": "Belken, Megan",
    "street": "428 S Old Betsy Rd Suite C",
    "city": "Keene",
    "state": "TX",
    "zipCode": "76059-1411",
    "phone": "(817) 641-0000",
    "fax": "",
    "webSite": ""
  },
  {
    "name": "Dba: Sweeny Family Dental",
    "street": "303 N Mckinney St Ste A ",
    "city": "Sweeny",
    "state": "TX",
    "zipCode": "77480-2808",
    "phone": "(979) 548-2184",
    "fax": "(979) 548-3108",
    "webSite": ""
  },
  {
    "name": "Bell, Brian Keith",
    "street": "102 Flag Lake Dr Ste C ",
    "city": "Lake Jackson",
    "state": "TX",
    "zipCode": "77566-6215",
    "phone": "(979) 297-1201",
    "fax": "(979) 297-6226",
    "webSite": ""
  },
  {
    "name": "Bell, Brooke Lea",
    "street": "3000 Medical Arts St # A ",
    "city": "Austin",
    "state": "TX",
    "zipCode": "78705-3305",
    "phone": "(512) 479-6633",
    "fax": "",
    "webSite": ""
  },
  {
    "name": "Bell, Clifford Randall",
    "street": "208 Crestway St ",
    "city": "Athens",
    "state": "TX",
    "zipCode": "75751-2117",
    "phone": "(713) 203-2103",
    "fax": "",
    "webSite": ""
  },
  {
    "name": "Bell, Michael Caldwell",
    "street": "2525 Wallingwood Dr Building 11",
    "city": "Austin",
    "state": "TX",
    "zipCode": "78746-6900",
    "phone": "(512) 327-7750",
    "fax": "(512) 327-4695",
    "webSite": ""
  },
  {
    "name": "Bell, Michael Wayne",
    "street": "308 Harwood Rd ",
    "city": "Bedford",
    "state": "TX",
    "zipCode": "76021-4148",
    "phone": "(817) 282-1241",
    "fax": "(817) 282-2087",
    "webSite": ""
  },
  {
    "name": "Bell, Patrick Stanley",
    "street": "400 Del Webb Blvd Ste 104 ",
    "city": "Georgetown",
    "state": "TX",
    "zipCode": "78633-4354",
    "phone": "(512) 868-5000",
    "fax": "",
    "webSite": ""
  },
  {
    "name": "Bell, Randell Wallace",
    "street": "2409 W Illinois Ste B",
    "city": "Midland",
    "state": "TX",
    "zipCode": "79701",
    "phone": "(432) 687-0041",
    "fax": "(432) 687-3817",
    "webSite": ""
  },
  {
    "name": "Bella Family Dentistry Pllc",
    "street": "5159 Wichita St Ste 170 ",
    "city": "Fort Worth",
    "state": "TX",
    "zipCode": "76119-5686",
    "phone": "(682) 326-0186",
    "fax": "",
    "webSite": ""
  },
  {
    "name": "Bella Smiles-Mt. Pleasant Pllc",
    "street": "1401 S Jefferson Ave Ste 4 ",
    "city": "Mount Pleasant",
    "state": "TX",
    "zipCode": "75455-5647",
    "phone": "(903) 572-1600",
    "fax": "(903) 572-1608",
    "webSite": ""
  },
  {
    "name": "Wild Smiles",
    "street": "5720 Bellaire Blvd Suite D",
    "city": "Houston",
    "state": "TX",
    "zipCode": "77081-5514",
    "phone": "(713) 668-5437",
    "fax": "",
    "webSite": ""
  },
  {
    "name": "Bellam, Krantikumari",
    "street": "8801 Tarter Ave Apt 304",
    "city": "Amarillo",
    "state": "TX",
    "zipCode": "79119-6351",
    "phone": "(781) 708-6656",
    "fax": "",
    "webSite": ""
  },
  {
    "name": "Bellinger, Audrea Lavern",
    "street": "10804 S. Post Oak Rd Suite 100",
    "city": "Houston",
    "state": "TX",
    "zipCode": "77035",
    "phone": "(713) 489-3454",
    "fax": "",
    "webSite": ""
  },
  {
    "name": "Bellinger, Daniel Patrick",
    "street": "3802 Larkin Ln ",
    "city": "Garland",
    "state": "TX",
    "zipCode": "75043-2528",
    "phone": "(713) 213-5564",
    "fax": "",
    "webSite": ""
  },
  {
    "name": "Bello, Maria Fernanda",
    "street": "8209 Broadway St Suite 104",
    "city": "Pearland",
    "state": "TX",
    "zipCode": "77581-7896",
    "phone": "(281) 997-8996",
    "fax": "",
    "webSite": ""
  },
  {
    "name": "Manhattan Dental",
    "street": "8209 Broadway St Suite 104",
    "city": "Pearland",
    "state": "TX",
    "zipCode": "77581-7896",
    "phone": "(281) 997-8996",
    "fax": "(281) 997-9239",
    "webSite": ""
  },
  {
    "name": "Belman, David Benjamin",
    "street": "123 Keller Pkwy # 100 ",
    "city": "Keller",
    "state": "TX",
    "zipCode": "76248",
    "phone": "(817) 431-4200",
    "fax": "",
    "webSite": ""
  },
  {
    "name": "Belozer, Scott",
    "street": "117 Southpoint Loop Ste 400 ",
    "city": "Livingston",
    "state": "TX",
    "zipCode": "77351-8899",
    "phone": "(936) 327-9490",
    "fax": "",
    "webSite": ""
  },
  {
    "name": "Beltran, Alexander M",
    "street": "18640 Farm To Market Rd 1488 Suite I",
    "city": "Magnolia",
    "state": "TX",
    "zipCode": "77354",
    "phone": "(832) 379-5488",
    "fax": "",
    "webSite": ""
  },
  {
    "name": "Beltran-Starnes, Cristina",
    "street": "804 S Crowley Rd Suite 16",
    "city": "Crowley",
    "state": "TX",
    "zipCode": "76036-3665",
    "phone": "(817) 297-1300",
    "fax": "(817) 297-7320",
    "webSite": ""
  },
  {
    "name": "Beltrane, Sheryl Ann",
    "street": "14845 Nacogdoches Rd Suite 5",
    "city": "San Antonio",
    "state": "TX",
    "zipCode": "78247-1926",
    "phone": "(210) 656-1515",
    "fax": "",
    "webSite": ""
  },
  {
    "name": "Beltre, Balbino",
    "street": "2251 Fm 646 Rd W Suite 150",
    "city": "Dickinson",
    "state": "TX",
    "zipCode": "77539-3235",
    "phone": "(281) 337-9000",
    "fax": "(281) 337-9011",
    "webSite": ""
  },
  {
    "name": "Belz, Jeffrey D",
    "street": "642 Uptown Blvd Suite 160",
    "city": "Cedar Hill",
    "state": "TX",
    "zipCode": "75104-3519",
    "phone": "(469) 272-8505",
    "fax": "(469) 272-8508",
    "webSite": ""
  },
  {
    "name": "Bemis, Nathaniel Lin",
    "street": "2210 Reese Ln ",
    "city": "Azle",
    "state": "TX",
    "zipCode": "76020-1528",
    "phone": "(801) 310-7542",
    "fax": "",
    "webSite": ""
  },
  {
    "name": "Ben L Smith Dds Pc",
    "street": "107 South Stemmons ",
    "city": "Sanger",
    "state": "TX",
    "zipCode": "76266-0898",
    "phone": "(940) 458-7441",
    "fax": "(940) 458-7286",
    "webSite": ""
  },
  {
    "name": "Benavides, Roberto",
    "street": "1214 Dixieland Rd Ste 4 ",
    "city": "Harlingen",
    "state": "TX",
    "zipCode": "78552-3314",
    "phone": "(956) 428-5322",
    "fax": "",
    "webSite": ""
  },
  {
    "name": "Benavides, Roberto Adrian",
    "street": "9234 N Loop 1604 W Ste 121&123 ",
    "city": "San Antonio",
    "state": "TX",
    "zipCode": "78249-2983",
    "phone": "(210) 681-1121",
    "fax": "",
    "webSite": ""
  },
  {
    "name": "Benbrook Smiles Pllc",
    "street": "8731 Benbrook Blvd ",
    "city": "Benbrook",
    "state": "TX",
    "zipCode": "76126-3442",
    "phone": "(713) 248-8780",
    "fax": "(682) 222-1093",
    "webSite": ""
  },
  {
    "name": "Bengtson, Nils",
    "street": "1900 S Kirkwood Rd Suite C",
    "city": "Houston",
    "state": "TX",
    "zipCode": "77077-6210",
    "phone": "(281) 597-9419",
    "fax": "",
    "webSite": ""
  },
  {
    "name": "Benham, Adam W",
    "street": "8504 Boulder River Trl ",
    "city": "Mckinney",
    "state": "TX",
    "zipCode": "75070-6111",
    "phone": "(469) 231-6672",
    "fax": "",
    "webSite": ""
  },
  {
    "name": "Beninger, Chistine K",
    "street": "1420 W Mockingbird Ln Suite 500",
    "city": "Dallas",
    "state": "TX",
    "zipCode": "75247-4931",
    "phone": "(214) 630-7078",
    "fax": "(214) 630-7085",
    "webSite": ""
  },
  {
    "name": "Benitez, Benito Jose",
    "street": "8510 Abrams Rd Ste. 508",
    "city": "Dallas",
    "state": "TX",
    "zipCode": "75243-7699",
    "phone": "(214) 503-0060",
    "fax": "",
    "webSite": ""
  },
  {
    "name": "Benito, Brian Adam",
    "street": "707 E Calton Rd ",
    "city": "Laredo",
    "state": "TX",
    "zipCode": "78041-3638",
    "phone": "(956) 723-5533",
    "fax": "",
    "webSite": ""
  },
  {
    "name": "Main Dental Center",
    "street": "1027 Main Street Suite A",
    "city": "Pasadena",
    "state": "TX",
    "zipCode": "77506",
    "phone": "(713) 472-8419",
    "fax": "(713) 472-0344",
    "webSite": ""
  },
  {
    "name": "Benjamin F Contreras Dds",
    "street": "4400 North Fwy Ste F350 ",
    "city": "Houston",
    "state": "TX",
    "zipCode": "77022-3641",
    "phone": "(713) 695-5555",
    "fax": "(713) 695-1555",
    "webSite": ""
  },
  {
    "name": "Benjamin, Gary",
    "street": "8410 Datapoint Dr 3Rd Floor Aegd",
    "city": "San Antonio",
    "state": "TX",
    "zipCode": "78229-3220",
    "phone": "(201) 949-8900",
    "fax": "",
    "webSite": ""
  },
  {
    "name": "Bennett, Billy S.",
    "street": "200 W Main St. ",
    "city": "Brenham",
    "state": "TX",
    "zipCode": "77833-3643",
    "phone": "(979) 836-2442",
    "fax": "",
    "webSite": ""
  },
  {
    "name": "Bennett, Breck Layne",
    "street": "555 Manco Road Suite A",
    "city": "Lewisville",
    "state": "TX",
    "zipCode": "75067",
    "phone": "(972) 436-1215",
    "fax": "(972) 436-3557",
    "webSite": ""
  },
  {
    "name": "Bennett, Deeann Migyanka",
    "street": "220 S Denton Tap Rd Suite 102",
    "city": "Coppell",
    "state": "TX",
    "zipCode": "75019-5038",
    "phone": "(972) 462-9000",
    "fax": "(972) 393-6876",
    "webSite": ""
  },
  {
    "name": "Bennett, Gary Eugene",
    "street": "5115 N Galloway Ave Ste. #203",
    "city": "Mesquite",
    "state": "TX",
    "zipCode": "75150-7526",
    "phone": "(972) 270-3289",
    "fax": "(972) 270-7485",
    "webSite": ""
  },
  {
    "name": "Bennett, Haley Brianne",
    "street": "1601 S John Redditt Dr ",
    "city": "Lufkin",
    "state": "TX",
    "zipCode": "75904-5483",
    "phone": "(936) 632-0077",
    "fax": "",
    "webSite": ""
  },
  {
    "name": "Bennett, John T",
    "street": "3501 Shepherd Ln ",
    "city": "Balch Springs",
    "state": "TX",
    "zipCode": "75180-2325",
    "phone": "(972) 286-5711",
    "fax": "(972) 286-6106",
    "webSite": ""
  },
  {
    "name": "Bennett, Joshua Leroy",
    "street": "1400 N Westmoreland Rd ",
    "city": "Dallas",
    "state": "TX",
    "zipCode": "75211-1656",
    "phone": "(214) 266-0500",
    "fax": "",
    "webSite": ""
  },
  {
    "name": "Bennett, Mac Leon",
    "street": "714 B South Madison ",
    "city": "Madisonville",
    "state": "TX",
    "zipCode": "77864",
    "phone": "(936) 348-5158",
    "fax": "(936) 348-5622",
    "webSite": ""
  },
  {
    "name": "Bennett, Mark Leon",
    "street": "714 B South Madison ",
    "city": "Madisonville",
    "state": "TX",
    "zipCode": "77864",
    "phone": "(936) 348-5158",
    "fax": "(936) 348-5622",
    "webSite": ""
  },
  {
    "name": "Benningfield, Robert F",
    "street": "111 Sproles Dr ",
    "city": "Benbrook",
    "state": "TX",
    "zipCode": "76126-3213",
    "phone": "(817) 249-4150",
    "fax": "(817) 249-4150",
    "webSite": ""
  },
  {
    "name": "Benny F Fleming Dds Pc",
    "street": "1501 Brook Ave Suite A",
    "city": "Wichita Falls",
    "state": "TX",
    "zipCode": "76301-5657",
    "phone": "(940) 723-0441",
    "fax": "(940) 322-4374",
    "webSite": ""
  },
  {
    "name": "Benoit, Andrew Scott",
    "street": "1213 Hermann Dr Ste 275 ",
    "city": "Houston",
    "state": "TX",
    "zipCode": "77004-7074",
    "phone": "(713) 529-3069",
    "fax": "(713) 529-3071",
    "webSite": ""
  },
  {
    "name": "Benson, Peter Andrew",
    "street": "7777 Forest Ln Ste A309",
    "city": "Dallas",
    "state": "TX",
    "zipCode": "75230-2505",
    "phone": "(972) 566-6300",
    "fax": "",
    "webSite": ""
  },
  {
    "name": "Bentley, Dan Allen",
    "street": "2301 E Villa Maria Rd ",
    "city": "Bryan",
    "state": "TX",
    "zipCode": "77802-2550",
    "phone": "(979) 776-1838",
    "fax": "",
    "webSite": ""
  },
  {
    "name": "Benton, Parker Nash",
    "street": "2901 Cassidy Rd ",
    "city": "Fort Bliss",
    "state": "TX",
    "zipCode": "79916-3502",
    "phone": "(915) 742-5935",
    "fax": "",
    "webSite": ""
  },
  {
    "name": "Beougher, Ritchie D.",
    "street": "3001 N Dallas Pkwy ",
    "city": "Plano",
    "state": "TX",
    "zipCode": "75093-5900",
    "phone": "(972) 964-5686",
    "fax": "(972) 964-9645",
    "webSite": ""
  },
  {
    "name": "Beovides Bonachea, Keyttia",
    "street": "6127 Fry Rd ",
    "city": "Katy",
    "state": "TX",
    "zipCode": "77449-5563",
    "phone": "(832) 779-8444",
    "fax": "(832) 617-5758",
    "webSite": ""
  },
  {
    "name": "Berard, Shatona Louise",
    "street": "1459 Wirt Rd ",
    "city": "Houston",
    "state": "TX",
    "zipCode": "77055-4916",
    "phone": "(713) 932-1045",
    "fax": "(713) 932-0989",
    "webSite": ""
  },
  {
    "name": "Berchelmann, John Anthony",
    "street": "608 Fair Ave ",
    "city": "San Antonio",
    "state": "TX",
    "zipCode": "78223-1304",
    "phone": "(210) 534-8051",
    "fax": "(210) 532-2761",
    "webSite": ""
  },
  {
    "name": "Berg, Malcolm R.",
    "street": "409 E Crockett St ",
    "city": "Luling",
    "state": "TX",
    "zipCode": "78648-2601",
    "phone": "(830) 875-3521",
    "fax": "(830) 875-2212",
    "webSite": ""
  },
  {
    "name": "Berger Dental, P. A.",
    "street": "1010 N Elm St Suite A",
    "city": "Denton",
    "state": "TX",
    "zipCode": "76201-6905",
    "phone": "(940) 566-1828",
    "fax": "(940) 566-3915",
    "webSite": ""
  },
  {
    "name": "Berger, Shane Terryl",
    "street": "1010 N Elm St Ste A ",
    "city": "Denton",
    "state": "TX",
    "zipCode": "76201-6905",
    "phone": "(940) 566-1828",
    "fax": "(940) 566-3915",
    "webSite": ""
  },
  {
    "name": "Bergey, Sandra B.",
    "street": "501 W Grand Ave ",
    "city": "Yoakum",
    "state": "TX",
    "zipCode": "77995-2619",
    "phone": "(361) 293-5002",
    "fax": "(361) 293-5045",
    "webSite": ""
  },
  {
    "name": "Berlanga, Jose Rafael",
    "street": "2403 N Veterans Blvd ",
    "city": "Eagle Pass",
    "state": "TX",
    "zipCode": "78852-6483",
    "phone": "(830) 773-3700",
    "fax": "(830) 758-1960",
    "webSite": ""
  },
  {
    "name": "Berman, Gregory Jay",
    "street": "1971 North Zaragoza Road Building A ",
    "city": "El Paso",
    "state": "TX",
    "zipCode": "79938",
    "phone": "(248) 229-7387",
    "fax": "",
    "webSite": ""
  },
  {
    "name": "Berman, Michael Barry",
    "street": "1711 E Centex Expy Suite 300",
    "city": "Killeen",
    "state": "TX",
    "zipCode": "76541-9166",
    "phone": "(254) 628-0221",
    "fax": "(254) 628-0029",
    "webSite": ""
  },
  {
    "name": "Bermudez, Luis Manuel",
    "street": "1615 Truemper St Bldg 6418 ",
    "city": "Jbsa Lackland",
    "state": "TX",
    "zipCode": "78236-5511",
    "phone": "(787) 787-9469",
    "fax": "(210) 292-0676",
    "webSite": ""
  },
  {
    "name": "Broadway Perfect Dental",
    "street": "4040 Broadway St ",
    "city": "Houston",
    "state": "TX",
    "zipCode": "77087-4713",
    "phone": "(713) 645-1680",
    "fax": "",
    "webSite": ""
  },
  {
    "name": "Bernal, Adrian K.",
    "street": "1000 E 5Th St Ste 110 ",
    "city": "Austin",
    "state": "TX",
    "zipCode": "78702-3802",
    "phone": "(512) 387-1980",
    "fax": "",
    "webSite": ""
  },
  {
    "name": "Bernal, Carlos Alonso",
    "street": "327 Nw Loop 410 Ste 101 ",
    "city": "San Antonio",
    "state": "TX",
    "zipCode": "78216-5304",
    "phone": "(844) 776-4802",
    "fax": "",
    "webSite": ""
  },
  {
    "name": "Bernal, David P",
    "street": "7675 Memorial Blvd Suite 200",
    "city": "Port Arthur",
    "state": "TX",
    "zipCode": "77640-2015",
    "phone": "(409) 853-3100",
    "fax": "",
    "webSite": ""
  },
  {
    "name": "Bernardo, Joseph",
    "street": "3600 E Mckinney St Ste 190 ",
    "city": "Denton",
    "state": "TX",
    "zipCode": "76209-6543",
    "phone": "(940) 220-7016",
    "fax": "(940) 784-2229",
    "webSite": ""
  },
  {
    "name": "Berriche, Sarah",
    "street": "3201 Lawrence Rd Ste 375 ",
    "city": "Wichita Falls",
    "state": "TX",
    "zipCode": "76308-1638",
    "phone": "(940) 691-4867",
    "fax": "",
    "webSite": ""
  },
  {
    "name": "Berry Dental El Paso Pllc",
    "street": "5929 Cromo Dr ",
    "city": "El Paso",
    "state": "TX",
    "zipCode": "79912-5572",
    "phone": "(972) 896-9386",
    "fax": "",
    "webSite": ""
  },
  {
    "name": "Berry Dental Fw Pllc",
    "street": "4201 E Berry St Ste 15 ",
    "city": "Fort Worth",
    "state": "TX",
    "zipCode": "76105-5052",
    "phone": "(972) 896-9386",
    "fax": "",
    "webSite": ""
  },
  {
    "name": "Berry Family Dentistry",
    "street": "1605 N Garland Ave Suite A",
    "city": "Garland",
    "state": "TX",
    "zipCode": "75040-9417",
    "phone": "(972) 272-9563",
    "fax": "",
    "webSite": ""
  },
  {
    "name": "Berry Family Dentistry Wylie",
    "street": "901 W. Fm 544 Ste. 100",
    "city": "Wylie",
    "state": "TX",
    "zipCode": "75098",
    "phone": "(972) 442-0078",
    "fax": "",
    "webSite": ""
  },
  {
    "name": "Berry, Elizabeth Jean",
    "street": "2600 James Road Ste 100",
    "city": "Granbury",
    "state": "TX",
    "zipCode": "76049-2927",
    "phone": "(817) 326-4098",
    "fax": "(817) 326-4098",
    "webSite": ""
  },
  {
    "name": "Berry, James W",
    "street": "1605 N Garland Ave Ste A",
    "city": "Garland",
    "state": "TX",
    "zipCode": "75040-9418",
    "phone": "(972) 272-9563",
    "fax": "(972) 276-7279",
    "webSite": ""
  },
  {
    "name": "Berry, Jason Albert",
    "street": "2600 James Rd Ste. 100",
    "city": "Granbury",
    "state": "TX",
    "zipCode": "76049-2927",
    "phone": "(817) 326-4098",
    "fax": "(817) 326-4470",
    "webSite": ""
  },
  {
    "name": "Berry, Scott C.",
    "street": "1000 E 41St St Suite 230",
    "city": "Austin",
    "state": "TX",
    "zipCode": "78751-4810",
    "phone": "(512) 458-3600",
    "fax": "(512) 458-3033",
    "webSite": ""
  },
  {
    "name": "Berry, Steven E",
    "street": "1605 N Garland Ave Ste A",
    "city": "Garland",
    "state": "TX",
    "zipCode": "75040-9418",
    "phone": "(972) 272-9563",
    "fax": "(972) 276-7279",
    "webSite": ""
  },
  {
    "name": "Bertino, David Michael",
    "street": "306 E Main St ",
    "city": "Whitesboro",
    "state": "TX",
    "zipCode": "76273-1709",
    "phone": "(903) 564-3451",
    "fax": "(903) 564-5020",
    "webSite": ""
  },
  {
    "name": "Bertulfo, Adrian",
    "street": "1739 N Central Expy Ste 100 ",
    "city": "Mckinney",
    "state": "TX",
    "zipCode": "75070-3141",
    "phone": "(972) 540-9191",
    "fax": "",
    "webSite": ""
  },
  {
    "name": "Berzin, Elizabeth K",
    "street": "9700 Richmond Ave Ste.149",
    "city": "Houston",
    "state": "TX",
    "zipCode": "77042-4627",
    "phone": "(713) 771-9308",
    "fax": "(713) 981-4744",
    "webSite": ""
  },
  {
    "name": "Bess Shaw Dental Partnership",
    "street": "3875 Laurel Ave ",
    "city": "Beaumont",
    "state": "TX",
    "zipCode": "77707",
    "phone": "(409) 833-0760",
    "fax": "(409) 833-0760",
    "webSite": ""
  },
  {
    "name": "Bess, Eric",
    "street": "2300 Mcdermott Rd #250",
    "city": "Plano",
    "state": "TX",
    "zipCode": "75025-7016",
    "phone": "(972) 390-2929",
    "fax": "",
    "webSite": ""
  },
  {
    "name": "Bess, Kyle Richard",
    "street": "3875 Laurel St ",
    "city": "Beaumont",
    "state": "TX",
    "zipCode": "77707-2219",
    "phone": "(409) 833-0760",
    "fax": "(409) 833-2327",
    "webSite": ""
  },
  {
    "name": "Best Dental, Pc",
    "street": "1715 S Mays St Ste E",
    "city": "Round Rock",
    "state": "TX",
    "zipCode": "78664-6740",
    "phone": "(512) 248-8888",
    "fax": "(512) 733-0000",
    "webSite": ""
  },
  {
    "name": "Best Smile Dental, Pc",
    "street": "9540 Garland Rd Suite #378",
    "city": "Dallas",
    "state": "TX",
    "zipCode": "75218-5004",
    "phone": "(214) 327-1888",
    "fax": "(214) 327-1188",
    "webSite": ""
  },
  {
    "name": "Best, John Taylor",
    "street": "5305 Trinity Blvd. Suite F",
    "city": "Snyder",
    "state": "TX",
    "zipCode": "79549",
    "phone": "(325) 573-9388",
    "fax": "(325) 573-2290",
    "webSite": ""
  },
  {
    "name": "Best, Raymond Cruz",
    "street": "419 E 2Nd St ",
    "city": "Rio Grande City",
    "state": "TX",
    "zipCode": "78582-3807",
    "phone": "(956) 487-2999",
    "fax": "(956) 487-0550",
    "webSite": ""
  },
  {
    "name": "Betances, Elizabeth",
    "street": "5100 Belt Line Rd Ste 312 ",
    "city": "Dallas",
    "state": "TX",
    "zipCode": "75254-7125",
    "phone": "(972) 980-8500",
    "fax": "",
    "webSite": ""
  },
  {
    "name": "Betancourt, Marcos Esteban",
    "street": "2600 Cedar Ave ",
    "city": "Laredo",
    "state": "TX",
    "zipCode": "78040-4040",
    "phone": "(956) 523-7500",
    "fax": "",
    "webSite": ""
  },
  {
    "name": "Betancourt-Agramonte, Yudanis",
    "street": "2515 Strawberry Rd ",
    "city": "Pasadena",
    "state": "TX",
    "zipCode": "77502-5101",
    "phone": "(713) 943-9993",
    "fax": "",
    "webSite": ""
  },
  {
    "name": "Bethell, Robin D",
    "street": "2700 W Anderson Ln Unit 418 ",
    "city": "Austin",
    "state": "TX",
    "zipCode": "78757-1159",
    "phone": "(559) 284-3079",
    "fax": "",
    "webSite": ""
  },
  {
    "name": "Bethke, Garrett Andrew",
    "street": "21715 Kingsland Blvd Suite 105",
    "city": "Katy",
    "state": "TX",
    "zipCode": "77450-2543",
    "phone": "(281) 492-6064",
    "fax": "(281) 579-1808",
    "webSite": ""
  },
  {
    "name": "Beto, Micheal H.",
    "street": "590 Mitchell Blvd ",
    "city": "Laughlin Afb",
    "state": "TX",
    "zipCode": "78843-5244",
    "phone": "(830) 298-6332",
    "fax": "(830) 298-6355",
    "webSite": ""
  },
  {
    "name": "Bevers, Gerald Clay",
    "street": "4903 82Nd St Suite 60 ",
    "city": "Lubbock",
    "state": "TX",
    "zipCode": "79424",
    "phone": "(806) 798-2996",
    "fax": "(806) 798-2998",
    "webSite": ""
  },
  {
    "name": "Smile Center Dental",
    "street": "529 Sw Military Dr ",
    "city": "San Antonio",
    "state": "TX",
    "zipCode": "78221-1636",
    "phone": "(210) 435-6090",
    "fax": "(210) 435-7722",
    "webSite": ""
  },
  {
    "name": "The Smile Center",
    "street": "803 Castroville Rd Suite 412",
    "city": "San Antonio",
    "state": "TX",
    "zipCode": "78237-3153",
    "phone": "(210) 435-6090",
    "fax": "",
    "webSite": ""
  },
  {
    "name": "Beyer, Stephen L",
    "street": "817 N Travis St ",
    "city": "Liberty",
    "state": "TX",
    "zipCode": "77575-3531",
    "phone": "(936) 336-3322",
    "fax": "(936) 336-7472",
    "webSite": ""
  },
  {
    "name": "Beyers, David Anton",
    "street": "1100 Nasa Parkway #106",
    "city": "Nassau Bay Houston",
    "state": "TX",
    "zipCode": "77058",
    "phone": "(281) 333-3617",
    "fax": "(281) 333-5335",
    "webSite": ""
  },
  {
    "name": "Bhagat, Keyur",
    "street": "5999 De Zavala Rd Ste. 122",
    "city": "San Antonio",
    "state": "TX",
    "zipCode": "78249-2233",
    "phone": "(210) 691-1333",
    "fax": "(210) 561-2599",
    "webSite": ""
  },
  {
    "name": "Bhakta, Aashish P",
    "street": "1205 E Debbie Ln Suite Number 111",
    "city": "Mansfield",
    "state": "TX",
    "zipCode": "76063-3356",
    "phone": "(817) 453-2983",
    "fax": "(817) 473-7341",
    "webSite": ""
  },
  {
    "name": "Bhavesh Bhakta                                                                        ",
    "street": "10601 Pecan Park Blvd Ste 101 Austin, TX 78750-1306"
  },
  {
    "name": "Bhakta, Nirmal",
    "street": "3010 Lbj Fwy Ste 200 ",
    "city": "Dallas",
    "state": "TX",
    "zipCode": "75234-2723",
    "phone": "(972) 444-8888",
    "fax": "(972) 243-6059",
    "webSite": ""
  },
  {
    "name": "Bhakta, Seema",
    "street": "804 S Central Expy Suite 201",
    "city": "Anna",
    "state": "TX",
    "zipCode": "75409-4512",
    "phone": "(972) 924-4400",
    "fax": "(888) 459-7791",
    "webSite": ""
  },
  {
    "name": "Bhakti, Ravindra",
    "street": "226 Fluor Daniel Dr ",
    "city": "Sugar Land",
    "state": "TX",
    "zipCode": "77479-4073",
    "phone": "(281) 242-2040",
    "fax": "(281) 242-2044",
    "webSite": ""
  },
  {
    "name": "Bhan, Payal",
    "street": "2009 Lazy Lake Dr ",
    "city": "Harlingen",
    "state": "TX",
    "zipCode": "78550-7858",
    "phone": "(912) 281-1849",
    "fax": "",
    "webSite": ""
  },
  {
    "name": "Bhandari, Sonali",
    "street": "1210 W Braker Ln ",
    "city": "Austin",
    "state": "TX",
    "zipCode": "78758-3801",
    "phone": "(512) 978-9880",
    "fax": "(512) 279-2556",
    "webSite": ""
  },
  {
    "name": "Bhardwaj, Lakshay",
    "street": "2425 S Cockrell Hill Rd ",
    "city": "Dallas",
    "state": "TX",
    "zipCode": "75211-8103",
    "phone": "(214) 623-8221",
    "fax": "",
    "webSite": ""
  },
  {
    "name": "Bhardwaj, Lalit K",
    "street": "330 S Zang Blvd Suite 100",
    "city": "Dallas",
    "state": "TX",
    "zipCode": "75208-6622",
    "phone": "(214) 941-9400",
    "fax": "(214) 941-9404",
    "webSite": ""
  },
  {
    "name": "Bhatia, Taran",
    "street": "3809 S General Bruce Dr Suite 104",
    "city": "Temple",
    "state": "TX",
    "zipCode": "76502",
    "phone": "(254) 778-3384",
    "fax": "(254) 699-3465",
    "webSite": ""
  },
  {
    "name": "Bhatt, Ami",
    "street": "8100 Dallas Pkwy Suite 211",
    "city": "Plano",
    "state": "TX",
    "zipCode": "75024-4011",
    "phone": "(551) 998-5540",
    "fax": "",
    "webSite": ""
  },
  {
    "name": "Bhatt, Neal B",
    "street": "551 N. Stemmons St. Suite",
    "city": "Sanger",
    "state": "TX",
    "zipCode": "76266-7626",
    "phone": "(940) 458-9000",
    "fax": "(940) 458-9001",
    "webSite": ""
  },
  {
    "name": "Bhatta, Gautam",
    "street": "3637 W Alabama St Suite 150",
    "city": "Houston",
    "state": "TX",
    "zipCode": "77027-5924",
    "phone": "(713) 888-0664",
    "fax": "(713) 888-0667",
    "webSite": ""
  },
  {
    "name": "Bhatti, Huma Noureen",
    "street": "5819 Highway 6 Ste 210 ",
    "city": "Missouri City",
    "state": "TX",
    "zipCode": "77459-4069",
    "phone": "(281) 499-3275",
    "fax": "(281) 754-4811",
    "webSite": ""
  },
  {
    "name": "Bhatti, Parveen",
    "street": "5425 S Padre Island Dr ",
    "city": "Corpus Christi",
    "state": "TX",
    "zipCode": "78411-5301",
    "phone": "(361) 371-4479",
    "fax": "",
    "webSite": ""
  },
  {
    "name": "Bhattiprolu, Animesh",
    "street": "937 Fm 1821 K",
    "city": "Mineral Wells",
    "state": "TX",
    "zipCode": "76067-9133",
    "phone": "(812) 239-0937",
    "fax": "",
    "webSite": ""
  },
  {
    "name": "Apex Dental",
    "street": "2305 W William Cannon Dr ",
    "city": "Austin",
    "state": "TX",
    "zipCode": "78745-5319",
    "phone": "(512) 444-3494",
    "fax": "(512) 444-3864",
    "webSite": ""
  },
  {
    "name": "Bhula, Narendra",
    "street": "12441 Northwest Fwy ",
    "city": "Houston",
    "state": "TX",
    "zipCode": "77092-3113",
    "phone": "(713) 681-6100",
    "fax": "",
    "webSite": ""
  },
  {
    "name": "Bhupatiraju, Prameela R",
    "street": "1420 W. Mockingbird Lane Suite 500",
    "city": "Dallas",
    "state": "TX",
    "zipCode": "75247",
    "phone": "(214) 630-7080",
    "fax": "(214) 630-7085",
    "webSite": ""
  },
  {
    "name": "Bhushan, Gloria E",
    "street": "1015 E. Irving Boulevard ",
    "city": "Irving",
    "state": "TX",
    "zipCode": "75060",
    "phone": "(972) 556-1515",
    "fax": "",
    "webSite": ""
  },
  {
    "name": "Biaggi, Andres E",
    "street": "6850 San Pedro Ave ",
    "city": "San Antonio",
    "state": "TX",
    "zipCode": "78216-7201",
    "phone": "(210) 822-8500",
    "fax": "",
    "webSite": ""
  },
  {
    "name": "Bice, Ernest Thomas",
    "street": "4496 Callaghan Rd ",
    "city": "San Antonio",
    "state": "TX",
    "zipCode": "78228-3400",
    "phone": "(210) 435-4601",
    "fax": "(210) 435-7131",
    "webSite": ""
  },
  {
    "name": "Bich-Huong T. Nguyen., D.M.D.,Inc.",
    "street": "2011 N Henderson Ave ",
    "city": "Dallas",
    "state": "TX",
    "zipCode": "75206-7321",
    "phone": "(214) 823-2182",
    "fax": "(214) 823-2184",
    "webSite": ""
  },
  {
    "name": "Bicknell, Janelle Burnette",
    "street": "3221S. Carrier Pkwy. ",
    "city": "Grand Prairie",
    "state": "TX",
    "zipCode": "75052-6052",
    "phone": "(972) 262-5181",
    "fax": "(972) 262-5264",
    "webSite": ""
  },
  {
    "name": "Bickston, Mark D",
    "street": "325 W Westchester Pkwy Suite 300",
    "city": "Grand Prairie",
    "state": "TX",
    "zipCode": "75052-3231",
    "phone": "(972) 262-8888",
    "fax": "(972) 262-2949",
    "webSite": ""
  },
  {
    "name": "Bida, Dan Frank",
    "street": "912 W Randol Mill Rd Suite C",
    "city": "Arlington",
    "state": "TX",
    "zipCode": "76012-2564",
    "phone": "(817) 274-8223",
    "fax": "(817) 276-9243",
    "webSite": ""
  },
  {
    "name": "Bidarkar, Atul",
    "street": "5605 Old Bullard Rd ",
    "city": "Tyler",
    "state": "TX",
    "zipCode": "75703-4306",
    "phone": "(903) 747-3919",
    "fax": "",
    "webSite": ""
  },
  {
    "name": "Biedermann, Gina Anthony",
    "street": "1000 Keller Pkwy ",
    "city": "Keller",
    "state": "TX",
    "zipCode": "76248-3611",
    "phone": "(817) 421-1470",
    "fax": "",
    "webSite": ""
  },
  {
    "name": "Bigford-Young, Martha Susan",
    "street": "1824 Lemay Cir ",
    "city": "San Antonio",
    "state": "TX",
    "zipCode": "78236-1007",
    "phone": "(210) 670-0099",
    "fax": "",
    "webSite": ""
  },
  {
    "name": "Biggs-Lewis, Kimberly Danielle",
    "street": "1023 N Mound St Ste D ",
    "city": "Nacogdoches",
    "state": "TX",
    "zipCode": "75961-4453",
    "phone": "(936) 554-6397",
    "fax": "(936) 564-3907",
    "webSite": ""
  },
  {
    "name": "Spring Dental Family And Cosmetic Dentistry",
    "street": "7318 Mcneil Dr Suite 104",
    "city": "Austin",
    "state": "TX",
    "zipCode": "78729-7873",
    "phone": "(512) 900-6999",
    "fax": "",
    "webSite": ""
  },
  {
    "name": "Billman, Crystell Anz",
    "street": "3620 Scroggins Dr ",
    "city": "Waco",
    "state": "TX",
    "zipCode": "76705-2579",
    "phone": "(254) 799-5746",
    "fax": "(254) 799-4115",
    "webSite": ""
  },
  {
    "name": "Binder, David Henry",
    "street": "545 S Commercial St ",
    "city": "Aransas Pass",
    "state": "TX",
    "zipCode": "78336-1809",
    "phone": "(361) 758-3626",
    "fax": "(361) 758-5075",
    "webSite": ""
  },
  {
    "name": "Bingham, Thomas Sawyer",
    "street": "82D Dental Squadron 149 Hart Street, Suite #4",
    "city": "Sheppard Afb",
    "state": "TX",
    "zipCode": "76311",
    "phone": "(940) 676-4474",
    "fax": "",
    "webSite": ""
  },
  {
    "name": "Binz, Keithley Elizabeth",
    "street": "1406 Fitch St ",
    "city": "San Antonio",
    "state": "TX",
    "zipCode": "78211-1406",
    "phone": "(210) 922-6922",
    "fax": "(210) 921-1313",
    "webSite": ""
  },
  {
    "name": "Birdwell, William R.",
    "street": "2705 Osler Blvd ",
    "city": "Bryan",
    "state": "TX",
    "zipCode": "77802-2518",
    "phone": "(979) 776-4843",
    "fax": "(979) 776-5174",
    "webSite": ""
  },
  {
    "name": "Birkholz, Howard Nmn",
    "street": "1901 S 1St St ",
    "city": "Temple",
    "state": "TX",
    "zipCode": "76504-7451",
    "phone": "(254) 743-0765",
    "fax": "(254) 743-0025",
    "webSite": ""
  },
  {
    "name": "Bishara Dental",
    "street": "525 W Pleasant Run Rd 200",
    "city": "Lancaster",
    "state": "TX",
    "zipCode": "75146-1576",
    "phone": "(972) 227-1800",
    "fax": "(972) 227-2771",
    "webSite": ""
  },
  {
    "name": "Bishara, Mena",
    "street": "6060 Richmond Ave Suite 210",
    "city": "Houston",
    "state": "TX",
    "zipCode": "77057-6227",
    "phone": "(832) 767-3331",
    "fax": "(832) 538-0343",
    "webSite": ""
  },
  {
    "name": "Bishara, Suzy",
    "street": "1840 N Lee Trevino Dr Suite 405-407",
    "city": "El Paso",
    "state": "TX",
    "zipCode": "79936-4136",
    "phone": "(800) 920-9947",
    "fax": "(678) 904-5666",
    "webSite": ""
  },
  {
    "name": "Bishop, David Roe",
    "street": "1104 N Greenville Ave ",
    "city": "Allen",
    "state": "TX",
    "zipCode": "75002-8621",
    "phone": "(972) 727-8249",
    "fax": "(972) 727-7681",
    "webSite": ""
  },
  {
    "name": "Bishop, Wayne B",
    "street": "2219 S Loop 288 #215",
    "city": "Denton",
    "state": "TX",
    "zipCode": "76205-4991",
    "phone": "(940) 591-9700",
    "fax": "(940) 387-7982",
    "webSite": ""
  },
  {
    "name": "Bishop, Wesley A.",
    "street": "1000 Titus St ",
    "city": "Gilmer",
    "state": "TX",
    "zipCode": "75644-3514",
    "phone": "(903) 843-5607",
    "fax": "(903) 843-4537",
    "webSite": ""
  },
  {
    "name": "Bissonnet Dental Pa",
    "street": "5427 Bissonnet St Ste 300 ",
    "city": "Houston",
    "state": "TX",
    "zipCode": "77081-6605",
    "phone": "(832) 444-9792",
    "fax": "",
    "webSite": ""
  },
  {
    "name": "Bissonnet Family Dentistry, Pllc",
    "street": "6047 Bissonnet St ",
    "city": "Houston",
    "state": "TX",
    "zipCode": "77081-6903",
    "phone": "(281) 407-3771",
    "fax": "",
    "webSite": ""
  },
  {
    "name": "Bizra, Eamon",
    "street": "9225 W Parmer Ln Ste 104 ",
    "city": "Austin",
    "state": "TX",
    "zipCode": "78717-4694",
    "phone": "(512) 955-5500",
    "fax": "(512) 955-5600",
    "webSite": ""
  },
  {
    "name": "Bl Dental & Orthodontics Pllc",
    "street": "2200 Los Rios Blvd Ste 100 ",
    "city": "Plano",
    "state": "TX",
    "zipCode": "75074-3478",
    "phone": "(469) 666-3730",
    "fax": "(469) 666-3732",
    "webSite": ""
  },
  {
    "name": "Advance Dental",
    "street": "2145 Fm 1960 Rd W ",
    "city": "Houston",
    "state": "TX",
    "zipCode": "77090-3103",
    "phone": "(281) 880-8771",
    "fax": "",
    "webSite": ""
  },
  {
    "name": "Blacher, Christina Dean",
    "street": "820 S Alma Dr Ste 140 ",
    "city": "Allen",
    "state": "TX",
    "zipCode": "75013",
    "phone": "(214) 383-5511",
    "fax": "",
    "webSite": ""
  },
  {
    "name": "Black & Ruiz Dental Centre, Inc.",
    "street": "1600 S Coulter St Bldg B Suite 208",
    "city": "Amarillo",
    "state": "TX",
    "zipCode": "79106-1710",
    "phone": "(806) 351-2762",
    "fax": "(806) 351-2763",
    "webSite": ""
  },
  {
    "name": "Black, Brian Scott",
    "street": "219 Rock Prairie Rd Ste. 100",
    "city": "College Station",
    "state": "TX",
    "zipCode": "77845-8796",
    "phone": "(979) 695-8000",
    "fax": "(979) 314-9702",
    "webSite": ""
  },
  {
    "name": "Black, Danny Earl",
    "street": "1600 S Coulter St Bldg G, Suite 500",
    "city": "Amarillo",
    "state": "TX",
    "zipCode": "79106-1710",
    "phone": "(806) 351-2762",
    "fax": "(806) 351-2763",
    "webSite": ""
  },
  {
    "name": "Black, Harold A.",
    "street": "808 6Th St ",
    "city": "Hempstead",
    "state": "TX",
    "zipCode": "77445-5402",
    "phone": "(979) 826-3306",
    "fax": "(979) 826-3308",
    "webSite": ""
  },
  {
    "name": "Black, Jason Alexander",
    "street": "3624 N Hills Dr Ste A103 ",
    "city": "Austin",
    "state": "TX",
    "zipCode": "78731-3061",
    "phone": "(512) 346-3631",
    "fax": "(512) 346-1381",
    "webSite": ""
  },
  {
    "name": "Black, Kathleen R",
    "street": "1415 California St ",
    "city": "Houston",
    "state": "TX",
    "zipCode": "77006-2602",
    "phone": "(832) 548-5000",
    "fax": "",
    "webSite": ""
  },
  {
    "name": "Black, Stacy Lee",
    "street": "132 Hatchett St. ",
    "city": "Rusk",
    "state": "TX",
    "zipCode": "75785",
    "phone": "(903) 683-5751",
    "fax": "(903) 683-3455",
    "webSite": ""
  },
  {
    "name": "Black, Ty Brandon",
    "street": "5201 S Broadway Ave St 240",
    "city": "Tyler",
    "state": "TX",
    "zipCode": "75703-3748",
    "phone": "(903) 534-8110",
    "fax": "(903) 534-5510",
    "webSite": ""
  },
  {
    "name": "Blackburn, Steven",
    "street": "5000 Maple Ave ",
    "city": "Dallas",
    "state": "TX",
    "zipCode": "75235-8213",
    "phone": "(214) 219-3719",
    "fax": "",
    "webSite": ""
  },
  {
    "name": "Blackmore, Rodney Mark",
    "street": "9901 Valley Ranch Pkwy E Ste 1001 ",
    "city": "Irving",
    "state": "TX",
    "zipCode": "75063-7175",
    "phone": "(972) 869-4683",
    "fax": "(972) 869-4226",
    "webSite": ""
  },
  {
    "name": "Blaess, Irene K",
    "street": "5999 De Zavala Rd #122",
    "city": "San Antonio",
    "state": "TX",
    "zipCode": "78249",
    "phone": "(210) 691-1333",
    "fax": "(210) 561-2599",
    "webSite": ""
  },
  {
    "name": "Blair, Kelly G",
    "street": "6316 Camp Bowie Blvd ",
    "city": "Fort Worth",
    "state": "TX",
    "zipCode": "76116-5418",
    "phone": "(817) 737-5155",
    "fax": "(817) 737-4095",
    "webSite": ""
  },
  {
    "name": "Blake, George Dale",
    "street": "229 Half Moon Way ",
    "city": "Runaway Bay",
    "state": "TX",
    "zipCode": "76426-9773",
    "phone": "(940) 575-4185",
    "fax": "",
    "webSite": ""
  },
  {
    "name": "Blalock Dental Clinic ,P.C.",
    "street": "1304 Blalock Rd Ste E ",
    "city": "Houston",
    "state": "TX",
    "zipCode": "77055-6475",
    "phone": "(713) 722-0888",
    "fax": "(713) 722-0892",
    "webSite": ""
  },
  {
    "name": "Alma Dental Center",
    "street": "670 W Campbell Rd Ste 110 ",
    "city": "Richardson",
    "state": "TX",
    "zipCode": "75080-3361",
    "phone": "(214) 414-1922",
    "fax": "",
    "webSite": ""
  },
  {
    "name": "Blanchard, Glen David",
    "street": "4364 N Josey Ln ",
    "city": "Carrollton",
    "state": "TX",
    "zipCode": "75010-4602",
    "phone": "(972) 394-1492",
    "fax": "(972) 394-8650",
    "webSite": ""
  },
  {
    "name": "Blanchard, Robert Paul",
    "street": "1222 Clear Lake City Blvd ",
    "city": "Houston",
    "state": "TX",
    "zipCode": "77062-2102",
    "phone": "(281) 488-8973",
    "fax": "(281) 488-8992",
    "webSite": ""
  },
  {
    "name": "Blanco Dentistry And Orthodontics Pllc",
    "street": "2222 N Us Highway 281 ",
    "city": "Blanco",
    "state": "TX",
    "zipCode": "78606-5356",
    "phone": "(830) 833-2200",
    "fax": "",
    "webSite": ""
  },
  {
    "name": "Blanco North Dental",
    "street": "14341 Blanco Rd. ",
    "city": "San Antonio",
    "state": "TX",
    "zipCode": "78216",
    "phone": "(210) 493-2200",
    "fax": "(210) 493-2448",
    "webSite": ""
  },
  {
    "name": "Blanco, Paris E",
    "street": "2726 E Business 190 Ste 112 ",
    "city": "Copperas Cove",
    "state": "TX",
    "zipCode": "76522-2526",
    "phone": "(254) 542-3500",
    "fax": "",
    "webSite": ""
  },
  {
    "name": "Bland, Stephen W",
    "street": "16815 Spring Creek Forest Dr ",
    "city": "Spring",
    "state": "TX",
    "zipCode": "77379-4800",
    "phone": "(281) 370-2352",
    "fax": "(281) 370-2352",
    "webSite": ""
  },
  {
    "name": "Bland, Terry Owen",
    "street": "2730 Pasadena Blvd ",
    "city": "Pasadena",
    "state": "TX",
    "zipCode": "77502",
    "phone": "(713) 472-1251",
    "fax": "(713) 472-1252",
    "webSite": ""
  },
  {
    "name": "Blandford, William",
    "street": "110 N Washington St ",
    "city": "La Grange",
    "state": "TX",
    "zipCode": "78945-2627",
    "phone": "(979) 968-5813",
    "fax": "(979) 968-5815",
    "webSite": ""
  },
  {
    "name": "Pure Dental",
    "street": "5321 E Mockingbird Ln 210",
    "city": "Dallas",
    "state": "TX",
    "zipCode": "75206-5185",
    "phone": "(214) 824-7873",
    "fax": "",
    "webSite": ""
  },
  {
    "name": "Blankenship, Beau",
    "street": "25300 Borough Park Dr ",
    "city": "Spring",
    "state": "TX",
    "zipCode": "77380-3552",
    "phone": "(281) 296-0052",
    "fax": "(281) 296-0118",
    "webSite": ""
  },
  {
    "name": "Blankenship, James Robert",
    "street": "4920 Seawall Blvd ",
    "city": "Galveston",
    "state": "TX",
    "zipCode": "77551-5991",
    "phone": "(409) 762-4488",
    "fax": "(409) 621-2196",
    "webSite": ""
  },
  {
    "name": "Blankenship, Ronald D.",
    "street": "4446 Southwest Pkwy ",
    "city": "Wichita Falls",
    "state": "TX",
    "zipCode": "76308-3331",
    "phone": "(940) 692-5093",
    "fax": "",
    "webSite": ""
  },
  {
    "name": "Blaylock, Thomas Adrian",
    "street": "761St St Tank Batallion Bldg 330",
    "city": "Fort Hood",
    "state": "TX",
    "zipCode": "76544",
    "phone": "(254) 285-2014",
    "fax": "",
    "webSite": ""
  },
  {
    "name": "Advance Dental 3",
    "street": "121 Little York Rd ",
    "city": "Houston",
    "state": "TX",
    "zipCode": "77076-1020",
    "phone": "(281) 880-8771",
    "fax": "(281) 880-7767",
    "webSite": ""
  },
  {
    "name": "Advance Dental",
    "street": "5203-H Fm1960 West ",
    "city": "Houston",
    "state": "TX",
    "zipCode": "77069",
    "phone": "(281) 880-8771",
    "fax": "(281) 880-7767",
    "webSite": ""
  },
  {
    "name": "Bleu Dentistry Llc",
    "street": "3607 Oak Lawn Ave 201",
    "city": "Dallas",
    "state": "TX",
    "zipCode": "75219-4743",
    "phone": "(214) 699-4976",
    "fax": "(214) 712-4940",
    "webSite": ""
  },
  {
    "name": "Blevins, Bryan O",
    "street": "1810 Champions Dr ",
    "city": "Lufkin",
    "state": "TX",
    "zipCode": "75901-7454",
    "phone": "(936) 634-1334",
    "fax": "(936) 634-1343",
    "webSite": ""
  },
  {
    "name": "Bliss Courtyard Dentistry Pllc",
    "street": "3209 Courtyard Dr Ste D ",
    "city": "Midland",
    "state": "TX",
    "zipCode": "79705-3276",
    "phone": "(432) 687-0041",
    "fax": "",
    "webSite": ""
  },
  {
    "name": "Bliss Rankin Dentistry Pllc",
    "street": "2212 S. Rankin Hwy Suite E",
    "city": "Midland",
    "state": "TX",
    "zipCode": "79701",
    "phone": "(972) 869-3789",
    "fax": "",
    "webSite": ""
  },
  {
    "name": "Blizzard, William Henry",
    "street": "2112 Trawood Dr Suite A-2",
    "city": "El Paso",
    "state": "TX",
    "zipCode": "79935-3372",
    "phone": "(915) 598-1014",
    "fax": "",
    "webSite": ""
  },
  {
    "name": "Block, Stacey Nan",
    "street": "1414 Eldridge Pkwy ",
    "city": "Houston",
    "state": "TX",
    "zipCode": "77077-1625",
    "phone": "(281) 558-5700",
    "fax": "",
    "webSite": ""
  },
  {
    "name": "Blookshire Pllc",
    "street": "1801 Precinct Line Rd Ste A ",
    "city": "Hurst",
    "state": "TX",
    "zipCode": "76054-3171",
    "phone": "(817) 577-9200",
    "fax": "(817) 281-9231",
    "webSite": ""
  },
  {
    "name": "Blooming Dental Pllc",
    "street": "111 N Vista Ridge Blvd Ste 100",
    "city": "Cedar Park",
    "state": "TX",
    "zipCode": "78613-0000",
    "phone": "(512) 250-2356",
    "fax": "",
    "webSite": ""
  },
  {
    "name": "Blosser, Fred Mason",
    "street": "6104 Avenue Q South Dr ",
    "city": "Lubbock",
    "state": "TX",
    "zipCode": "79412-3700",
    "phone": "(806) 472-3470",
    "fax": "",
    "webSite": ""
  },
  {
    "name": "Blossom Orthodontics And Pediatric Dentistry Pa",
    "street": "13119 Louetta Rd ",
    "city": "Cypress",
    "state": "TX",
    "zipCode": "77429-5155",
    "phone": "(281) 359-5551",
    "fax": "",
    "webSite": ""
  },
  {
    "name": "Blossom Smile Dental, Pllc",
    "street": "305 W Euless Blvd Ste 100 ",
    "city": "Euless",
    "state": "TX",
    "zipCode": "76040-3842",
    "phone": "(817) 793-0013",
    "fax": "(888) 600-6547",
    "webSite": ""
  },
  {
    "name": "Blu Dental Group Pc",
    "street": "3975 Old Jacksonville Rd ",
    "city": "Tyler",
    "state": "TX",
    "zipCode": "75701-8519",
    "phone": "(972) 416-2700",
    "fax": "",
    "webSite": ""
  },
  {
    "name": "Bluebonnet Dental Care",
    "street": "3980 Boat Club Rd Ste 114 ",
    "city": "Lake Worth",
    "state": "TX",
    "zipCode": "76135-3206",
    "phone": "(817) 237-1600",
    "fax": "(817) 237-2604",
    "webSite": ""
  },
  {
    "name": "Blum, Charles M",
    "street": "2315 South West Freeway ",
    "city": "Houston",
    "state": "TX",
    "zipCode": "77489",
    "phone": "(713) 523-2328",
    "fax": "(713) 524-8845",
    "webSite": ""
  },
  {
    "name": "Blum, Karen Ilise",
    "street": "5494 La Sierra Drive ",
    "city": "Dallas",
    "state": "TX",
    "zipCode": "75231-4108",
    "phone": "(214) 369-4012",
    "fax": "(214) 369-1714",
    "webSite": ""
  },
  {
    "name": "Blunt, Carmen",
    "street": "4431 W Walnut St Ste A ",
    "city": "Garland",
    "state": "TX",
    "zipCode": "75042-4108",
    "phone": "(972) 485-1200",
    "fax": "",
    "webSite": ""
  },
  {
    "name": "Blush Dental & Orthodontics Pc",
    "street": "6601 S Braeswood Blvd ",
    "city": "Houston",
    "state": "TX",
    "zipCode": "77096-3611",
    "phone": "(832) 930-7803",
    "fax": "",
    "webSite": ""
  },
  {
    "name": "Blvd Dentistry Richmond Pllc",
    "street": "18320 W. Airport Rd Suite 200",
    "city": "Richmond",
    "state": "TX",
    "zipCode": "77407",
    "phone": "(972) 590-8809",
    "fax": "",
    "webSite": ""
  },
  {
    "name": "Bml Dental, Pllc",
    "street": "4340 Mccullough Ave ",
    "city": "San Antonio",
    "state": "TX",
    "zipCode": "78212-1909",
    "phone": "(210) 822-8866",
    "fax": "",
    "webSite": ""
  },
  {
    "name": "Board, Hal",
    "street": "2427 Baker Dr Suite A",
    "city": "Mesquite",
    "state": "TX",
    "zipCode": "75150-5178",
    "phone": "(972) 279-6506",
    "fax": "(972) 279-9162",
    "webSite": ""
  },
  {
    "name": "Boatemaa, Akosua",
    "street": "2525 Wycliff Ave Ste 107 ",
    "city": "Dallas",
    "state": "TX",
    "zipCode": "75219-2574",
    "phone": "(214) 219-3719",
    "fax": "",
    "webSite": ""
  },
  {
    "name": "Boatner, Charles Knox",
    "street": "1760 Rufe Snow Dr ",
    "city": "Keller",
    "state": "TX",
    "zipCode": "76248-5628",
    "phone": "(817) 498-3889",
    "fax": "(817) 281-2810",
    "webSite": ""
  },
  {
    "name": "7 Day Dental",
    "street": "2246 Jacksboro Hwy Suite 112",
    "city": "Fort Worth",
    "state": "TX",
    "zipCode": "76114-2330",
    "phone": "(817) 529-1799",
    "fax": "(817) 529-1795",
    "webSite": ""
  },
  {
    "name": "Professional Association",
    "street": "3603 Fairmont Pkwy Fairmont Family Dentistry",
    "city": "Pasadena",
    "state": "TX",
    "zipCode": "77504",
    "phone": "(281) 487-6453",
    "fax": "(281) 998-3380",
    "webSite": ""
  },
  {
    "name": "Bobb, Heather",
    "street": "331 Sportsplex Ste B",
    "city": "Dripping Springs",
    "state": "TX",
    "zipCode": "78620-4893",
    "phone": "(512) 858-7200",
    "fax": "(512) 585-7220",
    "webSite": ""
  },
  {
    "name": "Bocian, Brett",
    "street": "9234 Tx-1604 121 & 123",
    "city": "San Antonio",
    "state": "TX",
    "zipCode": "78249",
    "phone": "(210) 681-1121",
    "fax": "",
    "webSite": ""
  },
  {
    "name": "Bock, Erica Renee",
    "street": "25412 Interstate 45 N ",
    "city": "Spring",
    "state": "TX",
    "zipCode": "77386-1351",
    "phone": "(281) 363-0500",
    "fax": "",
    "webSite": ""
  },
  {
    "name": "Bodenheim, Mark Bridge",
    "street": "2410 Stanley Rd Suite 200J",
    "city": "Fort Sam Houston",
    "state": "TX",
    "zipCode": "78234-7529",
    "phone": "(210) 295-2743",
    "fax": "(210) 295-2602",
    "webSite": ""
  },
  {
    "name": "Bodie, David Jackson",
    "street": "1111 N Floyd Rd Suite B",
    "city": "Richardson",
    "state": "TX",
    "zipCode": "75080-4242",
    "phone": "(972) 235-4767",
    "fax": "(972) 479-0566",
    "webSite": ""
  },
  {
    "name": "Boecker, Larry Robert",
    "street": "3733 Highway 6 ",
    "city": "Sugar Land",
    "state": "TX",
    "zipCode": "77478-5249",
    "phone": "(281) 980-1811",
    "fax": "(281) 980-3321",
    "webSite": ""
  },
  {
    "name": "Bayside Dental Rowlett",
    "street": "4624 Lakeview Pkwy ",
    "city": "Rowlett",
    "state": "TX",
    "zipCode": "75088",
    "phone": "(972) 840-2020",
    "fax": "(972) 694-0260",
    "webSite": ""
  },
  {
    "name": "Boeke, Bradley",
    "street": "4624 Lakeview Pkwy ",
    "city": "Rowlett",
    "state": "TX",
    "zipCode": "75088-4027",
    "phone": "(972) 840-2020",
    "fax": "(972) 694-0260",
    "webSite": ""
  },
  {
    "name": "Boelman, Gunnar Anton",
    "street": "3400 Texas Sage Trl Ste 136 ",
    "city": "Fort Worth",
    "state": "TX",
    "zipCode": "76177-8604",
    "phone": "(817) 750-1300",
    "fax": "",
    "webSite": ""
  },
  {
    "name": "Boenitz, Catherine Cox",
    "street": "8647 Wurzbach Rd Bldg A ",
    "city": "San Antonio",
    "state": "TX",
    "zipCode": "78240-1245",
    "phone": "(210) 690-9430",
    "fax": "",
    "webSite": ""
  },
  {
    "name": "Boerne Family Dental Pllc",
    "street": "1112 S Main St Ste A ",
    "city": "Boerne",
    "state": "TX",
    "zipCode": "78006-2812",
    "phone": "(830) 755-6475",
    "fax": "(830) 755-6485",
    "webSite": ""
  },
  {
    "name": "Boerne'S Little Smiles Dentistry For Children, Pllc",
    "street": "415 S School St ",
    "city": "Boerne",
    "state": "TX",
    "zipCode": "78006-2519",
    "phone": "(830) 249-9888",
    "fax": "(830) 249-7919",
    "webSite": ""
  },
  {
    "name": "Boester, Russell Gene",
    "street": "1615 Truemper St ",
    "city": "Jbsa Lackland",
    "state": "TX",
    "zipCode": "78236-5511",
    "phone": "(210) 292-0770",
    "fax": "",
    "webSite": ""
  },
  {
    "name": "Bogan, Douglas Wayne",
    "street": "791 Town And Country Blvd Suite 222",
    "city": "Houston",
    "state": "TX",
    "zipCode": "77024-3925",
    "phone": "(713) 467-3458",
    "fax": "(713) 467-7902",
    "webSite": ""
  },
  {
    "name": "Bogard, Curtis Duane",
    "street": "1127 S Austin Ave ",
    "city": "Denison",
    "state": "TX",
    "zipCode": "75020-6350",
    "phone": "(903) 463-3443",
    "fax": "(903) 465-1134",
    "webSite": ""
  },
  {
    "name": "Bogard, George A",
    "street": "7200 Lakeview Pkwy ",
    "city": "Rowlett",
    "state": "TX",
    "zipCode": "75088-4205",
    "phone": "(972) 475-3429",
    "fax": "(972) 412-3954",
    "webSite": ""
  },
  {
    "name": "Bogard, Johnathon",
    "street": "4601 Buffalo Gap Rd Ste D1 ",
    "city": "Abilene",
    "state": "TX",
    "zipCode": "79606-3364",
    "phone": "(325) 695-3300",
    "fax": "",
    "webSite": ""
  },
  {
    "name": "Bohannan, Thomas Wayne",
    "street": "756 Mary Dr ",
    "city": "Hurst",
    "state": "TX",
    "zipCode": "76053-5619",
    "phone": "(817) 282-3477",
    "fax": "(817) 280-0614",
    "webSite": ""
  },
  {
    "name": "Bolen, Ronald L",
    "street": "10418 Lake Creek Pkwy ",
    "city": "Austin",
    "state": "TX",
    "zipCode": "78750-1226",
    "phone": "(512) 258-8001",
    "fax": "",
    "webSite": ""
  },
  {
    "name": "Boles, Carlee C",
    "street": "19190 Stone Oak Pkwy Ste 116 ",
    "city": "San Antonio",
    "state": "TX",
    "zipCode": "78258-3237",
    "phone": "(210) 402-6002",
    "fax": "(210) 402-3413",
    "webSite": ""
  },
  {
    "name": "Bolin, Danita Antionette",
    "street": "6801 Mccart Ave Ste B2 ",
    "city": "Fort Worth",
    "state": "TX",
    "zipCode": "76133-6368",
    "phone": "(817) 423-9300",
    "fax": "(817) 423-9097",
    "webSite": ""
  },
  {
    "name": "Boll, Neil W",
    "street": "2410 Stanley Road Dentac Suite 200J",
    "city": "Fort Sam Houston",
    "state": "TX",
    "zipCode": "78234-6230",
    "phone": "(210) 295-2743",
    "fax": "(210) 295-2602",
    "webSite": ""
  },
  {
    "name": "Bollman, Rhonda G.",
    "street": "4582 Kingwood Dr Suite F",
    "city": "Kingwood",
    "state": "TX",
    "zipCode": "77345-2639",
    "phone": "(281) 361-7711",
    "fax": "",
    "webSite": ""
  },
  {
    "name": "Bolouri, Mitra Fatima",
    "street": "2320 Oakland Blvd Ste 100",
    "city": "Ft Worth",
    "state": "TX",
    "zipCode": "76103-3254",
    "phone": "(214) 533-2689",
    "fax": "",
    "webSite": ""
  },
  {
    "name": "Bond, Adam Trent",
    "street": "209 N Ridgeway Dr Ste A ",
    "city": "Cleburne",
    "state": "TX",
    "zipCode": "76033-4028",
    "phone": "(817) 641-4488",
    "fax": "",
    "webSite": ""
  },
  {
    "name": "Bond, William Kirkland",
    "street": "3010 Scott Blvd Suite 101",
    "city": "Temple",
    "state": "TX",
    "zipCode": "76504-6800",
    "phone": "(254) 778-1893",
    "fax": "",
    "webSite": ""
  },
  {
    "name": "Bonds, Tommy Keith",
    "street": "108 W 2Nd St ",
    "city": "Muleshoe",
    "state": "TX",
    "zipCode": "79347-3629",
    "phone": "(806) 272-5004",
    "fax": "(806) 272-5908",
    "webSite": ""
  },
  {
    "name": "Bone, Jennifer Jinkins",
    "street": "715 Hill Country Dr Ste. 6",
    "city": "Kerrville",
    "state": "TX",
    "zipCode": "78028-5965",
    "phone": "(830) 257-7444",
    "fax": "",
    "webSite": ""
  },
  {
    "name": "Bone, Jere Hepler",
    "street": "506 Glen Hurst Court ",
    "city": "Trophy Club",
    "state": "TX",
    "zipCode": "76262",
    "phone": "(817) 430-4939",
    "fax": "",
    "webSite": ""
  },
  {
    "name": "Bonham Smiles",
    "street": "2004 N Hwy 121 Ste 100 ",
    "city": "Bonham",
    "state": "TX",
    "zipCode": "75418-2339",
    "phone": "(817) 809-4865",
    "fax": "(682) 626-1824",
    "webSite": ""
  },
  {
    "name": "Sunshine Dental Pllc",
    "street": "207 E 6Th St ",
    "city": "Bonham",
    "state": "TX",
    "zipCode": "75418-3729",
    "phone": "(469) 734-7941",
    "fax": "",
    "webSite": ""
  },
  {
    "name": "Bonilla, Diego",
    "street": "5202 Texana Dr Apt 536 ",
    "city": "San Antonio",
    "state": "TX",
    "zipCode": "78249-3793",
    "phone": "(817) 937-1411",
    "fax": "",
    "webSite": ""
  },
  {
    "name": "Bonilla, Esther Laura",
    "street": "343 W Houston St Suite112",
    "city": "San Antonio",
    "state": "TX",
    "zipCode": "78205-2107",
    "phone": "(210) 228-0084",
    "fax": "(210) 224-1142",
    "webSite": ""
  },
  {
    "name": "Bonilla, Raul Jose",
    "street": "3750 Commercial Ave ",
    "city": "San Antonio",
    "state": "TX",
    "zipCode": "78221-3117",
    "phone": "(210) 334-3700",
    "fax": "(210) 271-7208",
    "webSite": ""
  },
  {
    "name": "Bonilla, Winnelle",
    "street": "1221 W Ben White Blvd Suite 112-B",
    "city": "Austin",
    "state": "TX",
    "zipCode": "78704-6888",
    "phone": "(512) 326-2066",
    "fax": "(512) 326-2955",
    "webSite": ""
  },
  {
    "name": "Bonin, Mark Todd",
    "street": "17222 Red Oak Dr Suite 107",
    "city": "Houston",
    "state": "TX",
    "zipCode": "77090-2648",
    "phone": "(281) 440-3530",
    "fax": "(281) 440-5580",
    "webSite": ""
  },
  {
    "name": "Bonita Dental",
    "street": "6906 Airline Dr Ste 106",
    "city": "Houston",
    "state": "TX",
    "zipCode": "77076-2455",
    "phone": "(713) 597-1033",
    "fax": "(713) 597-1132",
    "webSite": ""
  },
  {
    "name": "Bonner, Reagan Allen",
    "street": "404 E 1St St ",
    "city": "Dumas",
    "state": "TX",
    "zipCode": "79029",
    "phone": "(806) 935-6811",
    "fax": "(806) 935-9080",
    "webSite": ""
  },
  {
    "name": "Bonno, Frank Michael",
    "street": "12810 Highway 6 ",
    "city": "Santa Fe",
    "state": "TX",
    "zipCode": "77510-8613",
    "phone": "(409) 925-2555",
    "fax": "(409) 925-5366",
    "webSite": ""
  },
  {
    "name": "Bonnot, Joe Lynn",
    "street": "114 S 3Rd St ",
    "city": "Ganado",
    "state": "TX",
    "zipCode": "77962-0302",
    "phone": "(361) 771-3328",
    "fax": "(361) 771-3337",
    "webSite": ""
  },
  {
    "name": "Boone, Eugene V",
    "street": "1090 N Main St ",
    "city": "Vidor",
    "state": "TX",
    "zipCode": "77662-4357",
    "phone": "(409) 769-4433",
    "fax": "(409) 769-4418",
    "webSite": ""
  },
  {
    "name": "Boone, Holly",
    "street": "1414 Green Oak Terrace Ct ",
    "city": "Kingwood",
    "state": "TX",
    "zipCode": "77339-2960",
    "phone": "(281) 359-3533",
    "fax": "",
    "webSite": ""
  },
  {
    "name": "Booth, Jackson Robert",
    "street": "4410 E Riverside Dr Suite 150",
    "city": "Austin",
    "state": "TX",
    "zipCode": "78741-4799",
    "phone": "(512) 739-9440",
    "fax": "(512) 389-9797",
    "webSite": ""
  },
  {
    "name": "Booth, Joseph Justin",
    "street": "10009 N. Lamar Blvd. Suite C",
    "city": "Austin",
    "state": "TX",
    "zipCode": "78753-4117",
    "phone": "(512) 491-7800",
    "fax": "(512) 491-7803",
    "webSite": ""
  },
  {
    "name": "Booth, Randy",
    "street": "1310 General Cavazos Blvd Ste C ",
    "city": "Kingsville",
    "state": "TX",
    "zipCode": "78363-7148",
    "phone": "(361) 595-5800",
    "fax": "",
    "webSite": ""
  },
  {
    "name": "Booth, Steven Leslie",
    "street": "11851 Jollyville Rd Ste 201 ",
    "city": "Austin",
    "state": "TX",
    "zipCode": "78759-2350",
    "phone": "(512) 345-8800",
    "fax": "(512) 331-8500",
    "webSite": ""
  },
  {
    "name": "Boppana, Sakunthala",
    "street": "3630 N Shiloh Rd Ste 209 ",
    "city": "Garland",
    "state": "TX",
    "zipCode": "75044-6611",
    "phone": "(469) 863-7009",
    "fax": "(469) 863-7004",
    "webSite": ""
  },
  {
    "name": "Borade, Pallavi",
    "street": "1365 Barrow St ",
    "city": "Abilene",
    "state": "TX",
    "zipCode": "79605-5171",
    "phone": "(325) 480-4248",
    "fax": "",
    "webSite": ""
  },
  {
    "name": "Borak, Megan Rose",
    "street": "15424 Fm 1825 Ste 120 ",
    "city": "Pflugerville",
    "state": "TX",
    "zipCode": "78660-3148",
    "phone": "(512) 989-3300",
    "fax": "(512) 989-3331",
    "webSite": ""
  },
  {
    "name": "Borchers, Elmore H.",
    "street": "4403 Daugherty Ave ",
    "city": "Laredo",
    "state": "TX",
    "zipCode": "78041-3848",
    "phone": "(956) 723-5533",
    "fax": "(956) 723-7513",
    "webSite": ""
  },
  {
    "name": "Borchers, Michael R.",
    "street": "708 Hill Country Dr Suite 200",
    "city": "Kerrville",
    "state": "TX",
    "zipCode": "78028-6070",
    "phone": "(830) 257-2331",
    "fax": "(830) 257-7455",
    "webSite": ""
  },
  {
    "name": "Bordovsky, Paul Kaspar",
    "street": "3301 Northland Dr Suite 210",
    "city": "Austin",
    "state": "TX",
    "zipCode": "78731-4939",
    "phone": "(512) 458-6984",
    "fax": "",
    "webSite": ""
  },
  {
    "name": "Borel, Andrew M",
    "street": "5105 Eldorado Pkwy Ste 150 ",
    "city": "Frisco",
    "state": "TX",
    "zipCode": "75033-8676",
    "phone": "(214) 387-0745",
    "fax": "",
    "webSite": ""
  },
  {
    "name": "Boren, Charles E",
    "street": "5200 Cedar St ",
    "city": "Bellaire",
    "state": "TX",
    "zipCode": "77401-3915",
    "phone": "(713) 655-7673",
    "fax": "(713) 665-5114",
    "webSite": ""
  },
  {
    "name": "Boren, Mark Wayne",
    "street": "7100 Rowlett Rd ",
    "city": "Rowlett",
    "state": "TX",
    "zipCode": "75089",
    "phone": "(972) 463-1001",
    "fax": "(972) 463-1009",
    "webSite": ""
  },
  {
    "name": "Borger Smiles",
    "street": "1331 W Wilson St ",
    "city": "Borger",
    "state": "TX",
    "zipCode": "79007-4421",
    "phone": "(806) 274-9675",
    "fax": "",
    "webSite": ""
  },
  {
    "name": "Borger Smiles-Borger Pllc",
    "street": "1331 W Wilson St ",
    "city": "Borger",
    "state": "TX",
    "zipCode": "79007-4421",
    "phone": "(806) 274-9675",
    "fax": "(806) 274-9679",
    "webSite": ""
  },
  {
    "name": "Borgman, Douglas James",
    "street": "9515 N Lamar Blvd Suite 158",
    "city": "Austin",
    "state": "TX",
    "zipCode": "78753-4188",
    "phone": "(512) 835-5780",
    "fax": "(512) 835-9758",
    "webSite": ""
  },
  {
    "name": "Borgman, Jeffrey S",
    "street": "3203 N Macarthur Blvd ",
    "city": "Irving",
    "state": "TX",
    "zipCode": "75062-4457",
    "phone": "(972) 258-1617",
    "fax": "(972) 258-8540",
    "webSite": ""
  },
  {
    "name": "Bork, Rebecca Paradis",
    "street": "1786 W. Mcdermott Drive Suite 100",
    "city": "Allen",
    "state": "TX",
    "zipCode": "75013",
    "phone": "(972) 527-3412",
    "fax": "",
    "webSite": ""
  },
  {
    "name": "Borquaye, Samuel Anang",
    "street": "8325 Broadway St Suite 236",
    "city": "Pearland",
    "state": "TX",
    "zipCode": "77581-5772",
    "phone": "(281) 412-9000",
    "fax": "(281) 412-9995",
    "webSite": ""
  },
  {
    "name": "Borth, Russell D.",
    "street": "5756 S Staples St Suite B",
    "city": "Corpus Christi",
    "state": "TX",
    "zipCode": "78413-3782",
    "phone": "(361) 994-5414",
    "fax": "(361) 994-0022",
    "webSite": ""
  },
  {
    "name": "Bortnem, Russell",
    "street": "3923 Rustic Woods Dr Suite A",
    "city": "Kingwood",
    "state": "TX",
    "zipCode": "77339-2611",
    "phone": "(281) 360-8400",
    "fax": "",
    "webSite": ""
  },
  {
    "name": "Bosher, Ronald E",
    "street": "4709 W Parker Rd Suite 515",
    "city": "Plano",
    "state": "TX",
    "zipCode": "75093-3368",
    "phone": "(972) 985-0005",
    "fax": "(972) 985-0012",
    "webSite": ""
  },
  {
    "name": "Boss Dental Care",
    "street": "801 Everhart Rd ",
    "city": "Corpus Christi",
    "state": "TX",
    "zipCode": "78411-1907",
    "phone": "(361) 992-7551",
    "fax": "(361) 992-1220",
    "webSite": ""
  },
  {
    "name": "Bostwick, Phillip Alan",
    "street": "1525 Cornerstone Ct ",
    "city": "Beaumont",
    "state": "TX",
    "zipCode": "77706-3899",
    "phone": "(409) 866-4400",
    "fax": "",
    "webSite": ""
  },
  {
    "name": "Boswell, Brad Mason",
    "street": "1800 Bering Dr Ste 650 ",
    "city": "Houston",
    "state": "TX",
    "zipCode": "77057-3170",
    "phone": "(713) 784-2952",
    "fax": "(713) 784-3331",
    "webSite": ""
  },
  {
    "name": "Botros, Amir",
    "street": "1500 Scurry St ",
    "city": "Big Spring",
    "state": "TX",
    "zipCode": "79720-4441",
    "phone": "(432) 267-1677",
    "fax": "",
    "webSite": ""
  },
  {
    "name": "Bott Family Dentistry",
    "street": "1223 South Washington Street ",
    "city": "Pilot Point",
    "state": "TX",
    "zipCode": "76258",
    "phone": "(940) 686-2535",
    "fax": "(940) 686-2158",
    "webSite": ""
  },
  {
    "name": "Boudreaux, Deborah N",
    "street": "3121 Buffalo Speedway #3107",
    "city": "Houston",
    "state": "TX",
    "zipCode": "76901",
    "phone": "(713) 927-2009",
    "fax": "",
    "webSite": ""
  },
  {
    "name": "Boudreaux, Gary Lamon",
    "street": "8815 Dyer St Ste 255 ",
    "city": "El Paso",
    "state": "TX",
    "zipCode": "79904-2033",
    "phone": "(915) 757-2688",
    "fax": "(915) 757-2689",
    "webSite": ""
  },
  {
    "name": "Boukheir, Abbas",
    "street": "117 Southpoint Loop Ste 400 ",
    "city": "Livingston",
    "state": "TX",
    "zipCode": "77351-8899",
    "phone": "(936) 327-9490",
    "fax": "",
    "webSite": ""
  },
  {
    "name": "Bounds, John Arthur",
    "street": "4500 S Lancaster Rd # 160 ",
    "city": "Dallas",
    "state": "TX",
    "zipCode": "75216-7167",
    "phone": "(214) 857-1096",
    "fax": "",
    "webSite": ""
  },
  {
    "name": "Bourgeois, Gary Michael",
    "street": "1071 Country Club Rd Suite Q",
    "city": "El Paso",
    "state": "TX",
    "zipCode": "79932-3173",
    "phone": "(915) 581-0171",
    "fax": "",
    "webSite": ""
  },
  {
    "name": "Bourland, Dru Bart",
    "street": "4601 Buffalo Gap Rd Ste D1",
    "city": "Abilene",
    "state": "TX",
    "zipCode": "79606-3364",
    "phone": "(325) 695-3300",
    "fax": "(325) 695-9899",
    "webSite": ""
  },
  {
    "name": "Bousigues, Samantha",
    "street": "6300 West Loop S Ste 650 ",
    "city": "Bellaire",
    "state": "TX",
    "zipCode": "77401-2997",
    "phone": "(713) 663-7960",
    "fax": "(713) 663-6948",
    "webSite": ""
  },
  {
    "name": "Bouwsma, Otis Jacob",
    "street": "4430 E 14Th St Unit C ",
    "city": "Brownsville",
    "state": "TX",
    "zipCode": "78521-3364",
    "phone": "(956) 548-0222",
    "fax": "",
    "webSite": ""
  },
  {
    "name": "Boven, Paul Frederick",
    "street": "138 S Parking Pl ",
    "city": "Lake Jackson",
    "state": "TX",
    "zipCode": "77566-5208",
    "phone": "(979) 297-0751",
    "fax": "(979) 297-0752",
    "webSite": ""
  },
  {
    "name": "Bowcutt, Daniel A",
    "street": "2030 Heights Dr ",
    "city": "Harker Heights",
    "state": "TX",
    "zipCode": "76548-2176",
    "phone": "(254) 870-3221",
    "fax": "",
    "webSite": ""
  },
  {
    "name": "Bowcutt, Kevin",
    "street": "4000 Bellmead Dr ",
    "city": "Waco",
    "state": "TX",
    "zipCode": "76705-3138",
    "phone": "(435) 730-3647",
    "fax": "",
    "webSite": ""
  },
  {
    "name": "Bowden, Barry Lynn",
    "street": "7200 W Highway 71 ",
    "city": "Austin",
    "state": "TX",
    "zipCode": "78735-8315",
    "phone": "(512) 288-2823",
    "fax": "(512) 288-5435",
    "webSite": ""
  },
  {
    "name": "Bowden, Wesley David",
    "street": "10455 N Central Expy Suite 109",
    "city": "Dallas",
    "state": "TX",
    "zipCode": "75231-2213",
    "phone": "(214) 914-2696",
    "fax": "",
    "webSite": ""
  },
  {
    "name": "Bowen, Gregory Robert",
    "street": "909 Ne Loop 410 Suite 703",
    "city": "San Antonio",
    "state": "TX",
    "zipCode": "78209-1302",
    "phone": "(210) 824-1482",
    "fax": "(210) 824-1464",
    "webSite": ""
  },
  {
    "name": "Bowen, Shane J",
    "street": "2150 Richmond Ave. Suite #100 ",
    "city": "Houston",
    "state": "TX",
    "zipCode": "77098",
    "phone": "(713) 522-7540",
    "fax": "",
    "webSite": ""
  },
  {
    "name": "Bowles, Joseph Dylan",
    "street": "110 Del Rio Ct ",
    "city": "Cleburne",
    "state": "TX",
    "zipCode": "76033-5125",
    "phone": "(409) 489-6622",
    "fax": "",
    "webSite": ""
  },
  {
    "name": "Bowman, David Lloyd",
    "street": "3838 Hillcroft St 307",
    "city": "Houston",
    "state": "TX",
    "zipCode": "77057-7722",
    "phone": "(713) 953-1414",
    "fax": "",
    "webSite": ""
  },
  {
    "name": "Bowman, Henry Branard",
    "street": "5 E Greenway Plz Suite C-980",
    "city": "Houston",
    "state": "TX",
    "zipCode": "77046-0526",
    "phone": "(713) 961-9894",
    "fax": "(713) 961-9895",
    "webSite": ""
  },
  {
    "name": "Bowman, Tommy",
    "street": "2000 Se Loop 410 Ste 125 ",
    "city": "San Antonio",
    "state": "TX",
    "zipCode": "78220-4925",
    "phone": "(210) 648-0996",
    "fax": "",
    "webSite": ""
  },
  {
    "name": "Box, Richard Arthur",
    "street": "711 W 38Th St Ste D2",
    "city": "Austin",
    "state": "TX",
    "zipCode": "78705-1131",
    "phone": "(512) 459-7689",
    "fax": "(512) 459-7839",
    "webSite": ""
  },
  {
    "name": "Boxwalla, Shabbir Yahya",
    "street": "21212 Kuykendahl Rd Suite E",
    "city": "Spring",
    "state": "TX",
    "zipCode": "77379-2605",
    "phone": "(281) 350-5600",
    "fax": "(281) 288-5384",
    "webSite": ""
  },
  {
    "name": "Boyapati, Yasoda Vardhani",
    "street": "1300 S Gregg St ",
    "city": "Big Spring",
    "state": "TX",
    "zipCode": "79720-4325",
    "phone": "(432) 517-4557",
    "fax": "(432) 517-4556",
    "webSite": ""
  },
  {
    "name": "Boyd, Carole Ann",
    "street": "4514 Cole Ave Ste 905 ",
    "city": "Dallas",
    "state": "TX",
    "zipCode": "75205-4184",
    "phone": "(214) 521-6261",
    "fax": "(214) 521-5474",
    "webSite": ""
  },
  {
    "name": "Boyd, Charles",
    "street": "3001 Knox St Suite 300",
    "city": "Dallas",
    "state": "TX",
    "zipCode": "75205-5584",
    "phone": "(214) 265-7771",
    "fax": "(214) 219-1098",
    "webSite": ""
  },
  {
    "name": "Boyd, Jerry J",
    "street": "4843 Colleyville Blvd #271",
    "city": "Colleyville",
    "state": "TX",
    "zipCode": "76034",
    "phone": "(817) 656-9171",
    "fax": "(817) 656-5039",
    "webSite": ""
  },
  {
    "name": "Boyd, John George",
    "street": "504 Bailey Ave ",
    "city": "Fort Worth",
    "state": "TX",
    "zipCode": "76107-2126",
    "phone": "(817) 882-8282",
    "fax": "(817) 338-1436",
    "webSite": ""
  },
  {
    "name": "Boyd, Susan Lee",
    "street": "12121 Richmond Suite 426",
    "city": "Houston",
    "state": "TX",
    "zipCode": "77082",
    "phone": "(281) 497-5252",
    "fax": "(281) 497-1303",
    "webSite": ""
  },
  {
    "name": "Joseph Boyle                                                                        ",
    "street": "7400 Louis Pasteur Dr #205 San Antonio, TX 78229-4514"
  },
  {
    "name": "Bozanich, John Michael",
    "street": "2525 W Anderson Ln Bldg 3 Suite 300",
    "city": "Austin",
    "state": "TX",
    "zipCode": "78757-1180",
    "phone": "(972) 869-3789",
    "fax": "",
    "webSite": ""
  },
  {
    "name": "Bozzo, Paul Wade",
    "street": "1 N Main St ",
    "city": "Kingwood",
    "state": "TX",
    "zipCode": "77339-3710",
    "phone": "(281) 359-8302",
    "fax": "(281) 360-7708",
    "webSite": ""
  },
  {
    "name": "Bpm Associates",
    "street": "324 N Brooks St ",
    "city": "Brazoria",
    "state": "TX",
    "zipCode": "77422-8718",
    "phone": "(979) 798-9103",
    "fax": "(979) 798-9109",
    "webSite": ""
  },
  {
    "name": "Bpm Associates Llc",
    "street": "324 N Brooks St ",
    "city": "Brazoria",
    "state": "TX",
    "zipCode": "77422-8718",
    "phone": "(979) 798-9103",
    "fax": "(979) 798-9109",
    "webSite": ""
  },
  {
    "name": "Braastad, William R",
    "street": "1220 Quitman St ",
    "city": "Houston",
    "state": "TX",
    "zipCode": "77009-7833",
    "phone": "(713) 226-7050",
    "fax": "(713) 226-7046",
    "webSite": ""
  },
  {
    "name": "Bradbury, Timothy Allen",
    "street": "210 Kingfisher Dr ",
    "city": "Sugar Land",
    "state": "TX",
    "zipCode": "77478-4710",
    "phone": "(713) 826-2150",
    "fax": "(281) 242-0994",
    "webSite": ""
  },
  {
    "name": "Braddock, Stewart Elgen",
    "street": "2091 South Margaret ",
    "city": "Kirbyville",
    "state": "TX",
    "zipCode": "75956",
    "phone": "(409) 423-5519",
    "fax": "(409) 423-5519",
    "webSite": ""
  },
  {
    "name": "Braden, John C.",
    "street": "1104 W Grand Ave ",
    "city": "Yoakum",
    "state": "TX",
    "zipCode": "77995-1706",
    "phone": "(361) 293-6042",
    "fax": "(361) 293-2904",
    "webSite": ""
  },
  {
    "name": "Braden, Laura Celeste",
    "street": "316 W San Antonio St ",
    "city": "San Marcos",
    "state": "TX",
    "zipCode": "78666-5593",
    "phone": "(512) 392-4213",
    "fax": "",
    "webSite": ""
  },
  {
    "name": "Bradford, Kenneth",
    "street": "824 S Fleishel Ave ",
    "city": "Tyler",
    "state": "TX",
    "zipCode": "75701-2016",
    "phone": "(903) 597-0460",
    "fax": "",
    "webSite": ""
  },
  {
    "name": "Bradley, Charles",
    "street": "489 W Harwood Rd ",
    "city": "Hurst",
    "state": "TX",
    "zipCode": "76054-2943",
    "phone": "(817) 282-9161",
    "fax": "(817) 282-0276",
    "webSite": ""
  },
  {
    "name": "Bradley, Charles Wesley",
    "street": "8315 Walnut Hill Ln Suite 200",
    "city": "Dallas",
    "state": "TX",
    "zipCode": "75231-4218",
    "phone": "(214) 378-7930",
    "fax": "",
    "webSite": ""
  },
  {
    "name": "Bradley, James Russell",
    "street": "3334 Longmire Dr ",
    "city": "College Station",
    "state": "TX",
    "zipCode": "77845-5812",
    "phone": "(979) 693-1511",
    "fax": "(979) 695-1403",
    "webSite": ""
  },
  {
    "name": "Bradley, James Samuel",
    "street": "1006 N Bowen Rd Suite 101",
    "city": "Arlington",
    "state": "TX",
    "zipCode": "76012-2826",
    "phone": "(817) 460-5033",
    "fax": "(817) 795-5213",
    "webSite": ""
  },
  {
    "name": "Bradley, Margaret Sharon",
    "street": "14626 Fm 2100 Rd Suite A",
    "city": "Crosby",
    "state": "TX",
    "zipCode": "77532-9133",
    "phone": "(281) 328-3525",
    "fax": "(281) 328-7586",
    "webSite": ""
  },
  {
    "name": "Brady Dental Group",
    "street": "2915 S Georgia St ",
    "city": "Amarillo",
    "state": "TX",
    "zipCode": "79109-3436",
    "phone": "(806) 353-6422",
    "fax": "(806) 352-0906",
    "webSite": ""
  },
  {
    "name": "Brady, Grace Marie",
    "street": "112 N 4Th Street ",
    "city": "Princeton",
    "state": "TX",
    "zipCode": "75407-0640",
    "phone": "(972) 736-3552",
    "fax": "(972) 736-6273",
    "webSite": ""
  },
  {
    "name": "Brady, Jacqueline S",
    "street": "5408 Alpha Rd ",
    "city": "Dallas",
    "state": "TX",
    "zipCode": "75240-4506",
    "phone": "(972) 386-6200",
    "fax": "(972) 386-9524",
    "webSite": ""
  },
  {
    "name": "Brady, Kenneth Howth",
    "street": "6516 M.D. Anderson Blvd. Suite 493",
    "city": "Houston",
    "state": "TX",
    "zipCode": "77225-0068",
    "phone": "(713) 500-4004",
    "fax": "(713) 500-4108",
    "webSite": ""
  },
  {
    "name": "Brady, Todd George",
    "street": "3091 College Park Dr Ste 310",
    "city": "The Woodlands",
    "state": "TX",
    "zipCode": "77384-8026",
    "phone": "(936) 321-2995",
    "fax": "(936) 271-3225",
    "webSite": ""
  },
  {
    "name": "Brady, Tyler",
    "street": "808 Ne Mall Blvd ",
    "city": "Hurst",
    "state": "TX",
    "zipCode": "76053-4653",
    "phone": "(817) 595-9675",
    "fax": "",
    "webSite": ""
  },
  {
    "name": "Brady, William Chris",
    "street": "2915 S Georgia St ",
    "city": "Amarillo",
    "state": "TX",
    "zipCode": "79109-3436",
    "phone": "(806) 353-6422",
    "fax": "(806) 352-0906",
    "webSite": ""
  },
  {
    "name": "Brahmbhatt, Sneha",
    "street": "4417 South Lancaster Rd. Ste 2275 ",
    "city": "Dallas",
    "state": "TX",
    "zipCode": "75216",
    "phone": "(469) 620-7445",
    "fax": "(469) 607-9229",
    "webSite": ""
  },
  {
    "name": "Branca, Nicole Christine",
    "street": "1050 5Th Ave Ste G ",
    "city": "Fort Worth",
    "state": "TX",
    "zipCode": "76104-2903",
    "phone": "(817) 332-9700",
    "fax": "(817) 332-9768",
    "webSite": ""
  },
  {
    "name": "Aldine Family Dental",
    "street": "10407 North Fwy Ste B ",
    "city": "Houston",
    "state": "TX",
    "zipCode": "77037-1136",
    "phone": "(281) 260-7773",
    "fax": "(281) 260-7009",
    "webSite": ""
  },
  {
    "name": "Branch, Warren Boswell",
    "street": "3301 Oakwell Ct Suite 101",
    "city": "San Antonio",
    "state": "TX",
    "zipCode": "78218-3074",
    "phone": "(210) 653-8398",
    "fax": "(210) 653-9533",
    "webSite": ""
  },
  {
    "name": "Brandi M. Lindsey, Dds, Pllc",
    "street": "116 N 5Th St ",
    "city": "Uvalde",
    "state": "TX",
    "zipCode": "78801-5415",
    "phone": "(830) 278-2549",
    "fax": "(830) 278-2848",
    "webSite": ""
  },
  {
    "name": "Brandon & Kayla Dobmeier, Pllc",
    "street": "2725 Rayford Rd Suite F",
    "city": "Spring",
    "state": "TX",
    "zipCode": "77386",
    "phone": "(936) 570-0124",
    "fax": "",
    "webSite": ""
  },
  {
    "name": "6Day Dental & Orthodontics-Coppell",
    "street": "120 S Denton Tap Rd Suite 270-A",
    "city": "Coppell",
    "state": "TX",
    "zipCode": "75019-3297",
    "phone": "(972) 393-7348",
    "fax": "",
    "webSite": ""
  },
  {
    "name": "Brandon Trevino, Dds, Pa",
    "street": "1550 Norwood Dr Suite 400",
    "city": "Hurst",
    "state": "TX",
    "zipCode": "76054-3646",
    "phone": "(817) 282-3411",
    "fax": "(817) 268-3529",
    "webSite": ""
  },
  {
    "name": "Brann, Tim W.",
    "street": "2407 E Griffin Pkwy ",
    "city": "Mission",
    "state": "TX",
    "zipCode": "78572-3301",
    "phone": "(956) 581-2773",
    "fax": "",
    "webSite": ""
  },
  {
    "name": "Brannock, Richard",
    "street": "2403 Lacy Ln ",
    "city": "Carrollton",
    "state": "TX",
    "zipCode": "75006-6514",
    "phone": "(972) 869-3789",
    "fax": "(972) 869-3791",
    "webSite": ""
  },
  {
    "name": "Bransford, Richard Wesley",
    "street": "3110 Trawood Dr Ste D ",
    "city": "El Paso",
    "state": "TX",
    "zipCode": "79936-3842",
    "phone": "(915) 855-1000",
    "fax": "(915) 855-6600",
    "webSite": ""
  },
  {
    "name": "Brantly, Chad",
    "street": "2149 Office Park Dr ",
    "city": "San Angelo",
    "state": "TX",
    "zipCode": "76904-6803",
    "phone": "(325) 949-9668",
    "fax": "(325) 949-0422",
    "webSite": ""
  },
  {
    "name": "Branyon, Scott T",
    "street": "1901 West Wm Cannon Suite 137",
    "city": "Austin",
    "state": "TX",
    "zipCode": "78745",
    "phone": "(512) 441-8420",
    "fax": "",
    "webSite": ""
  },
  {
    "name": "Brar, Sukhman",
    "street": "401 Fm 518 Rd Ste A ",
    "city": "Kemah",
    "state": "TX",
    "zipCode": "77565-3281",
    "phone": "(281) 957-7488",
    "fax": "",
    "webSite": ""
  },
  {
    "name": "Braswell, Terry Vincent",
    "street": "4074 Summerhill Sq ",
    "city": "Texarkana",
    "state": "TX",
    "zipCode": "75503-2730",
    "phone": "(903) 794-2583",
    "fax": "(903) 794-2587",
    "webSite": ""
  },
  {
    "name": "Bratcher, Ben Allen",
    "street": "240 E Highway 243 ",
    "city": "Canton",
    "state": "TX",
    "zipCode": "75103-2315",
    "phone": "(903) 567-4881",
    "fax": "",
    "webSite": ""
  },
  {
    "name": "Bratcher, Laura",
    "street": "5575 Warren Pkwy Ste 324 ",
    "city": "Frisco",
    "state": "TX",
    "zipCode": "75034-4095",
    "phone": "(469) 633-0550",
    "fax": "",
    "webSite": ""
  },
  {
    "name": "Bratton, Del R",
    "street": "7575 San Felipe St #135",
    "city": "Houston",
    "state": "TX",
    "zipCode": "77063-1711",
    "phone": "(713) 783-2800",
    "fax": "",
    "webSite": ""
  },
  {
    "name": "Bratton, Jimmie Wayne",
    "street": "910 Oak Ln ",
    "city": "Childress",
    "state": "TX",
    "zipCode": "79201-2210",
    "phone": "(940) 937-2248",
    "fax": "(940) 937-8260",
    "webSite": ""
  },
  {
    "name": "Braun Family Dental",
    "street": "9820 Braun Road Suite 102",
    "city": "San Antonio",
    "state": "TX",
    "zipCode": "78254",
    "phone": "(210) 523-2400",
    "fax": "",
    "webSite": ""
  },
  {
    "name": "Braunlin, Eric Terrance",
    "street": "403 S Colonial Dr ",
    "city": "Cleburne",
    "state": "TX",
    "zipCode": "76033-4618",
    "phone": "(817) 645-2486",
    "fax": "(817) 641-2426",
    "webSite": ""
  },
  {
    "name": "Braunthal, Gonzalo Francisco",
    "street": "432 S Bibb Ave ",
    "city": "Eagle Pass",
    "state": "TX",
    "zipCode": "78852-5388",
    "phone": "(830) 421-3040",
    "fax": "(830) 758-0134",
    "webSite": ""
  },
  {
    "name": "Bravo Dental",
    "street": "303 E Overton Rd ",
    "city": "Dallas",
    "state": "TX",
    "zipCode": "75216-5946",
    "phone": "(214) 704-6778",
    "fax": "",
    "webSite": ""
  },
  {
    "name": "Bravo Dental",
    "street": "1800 N Britain Rd ",
    "city": "Irving",
    "state": "TX",
    "zipCode": "75061-2630",
    "phone": "(214) 704-6778",
    "fax": "",
    "webSite": ""
  },
  {
    "name": "Bravo Dental",
    "street": "802 Hopkins St ",
    "city": "Garland",
    "state": "TX",
    "zipCode": "75040-7379",
    "phone": "(214) 704-6778",
    "fax": "",
    "webSite": ""
  },
  {
    "name": "Bravo Dental",
    "street": "9202 Elam Rd ",
    "city": "Dallas",
    "state": "TX",
    "zipCode": "75217-4151",
    "phone": "(214) 704-6778",
    "fax": "",
    "webSite": ""
  },
  {
    "name": "Bravo Dental",
    "street": "1400 N Westmoreland Rd ",
    "city": "Dallas",
    "state": "TX",
    "zipCode": "75211-1656",
    "phone": "(214) 704-6778",
    "fax": "",
    "webSite": ""
  },
  {
    "name": "Bravo Dental",
    "street": "801 Conover Dr ",
    "city": "Grand Prairie",
    "state": "TX",
    "zipCode": "75051-1519",
    "phone": "(214) 704-6778",
    "fax": "",
    "webSite": ""
  },
  {
    "name": "Bravo Dental Clinics Pa",
    "street": "779 Normandy St Ste 113 ",
    "city": "Houston",
    "state": "TX",
    "zipCode": "77015-3441",
    "phone": "(713) 453-3733",
    "fax": "(713) 453-3446",
    "webSite": ""
  },
  {
    "name": "Brawley Dental Clinic, Pllc",
    "street": "110 N Washington St ",
    "city": "La Grange",
    "state": "TX",
    "zipCode": "78945-2627",
    "phone": "(979) 968-5813",
    "fax": "(979) 968-5815",
    "webSite": ""
  },
  {
    "name": "Brawley, Brent Alan",
    "street": "1213 W State St Ste A ",
    "city": "Garland",
    "state": "TX",
    "zipCode": "75040-6153",
    "phone": "(972) 272-3585",
    "fax": "(972) 272-3589",
    "webSite": ""
  },
  {
    "name": "Brawley, Daniel Cade",
    "street": "8220 Memphis Ave ",
    "city": "Lubbock",
    "state": "TX",
    "zipCode": "79423-2612",
    "phone": "(806) 745-1745",
    "fax": "",
    "webSite": ""
  },
  {
    "name": "Brawley, Kari L",
    "street": "110 N Washington St ",
    "city": "La Grange",
    "state": "TX",
    "zipCode": "78945-2627",
    "phone": "(979) 968-5813",
    "fax": "(979) 968-5815",
    "webSite": ""
  },
  {
    "name": "Brawner, Craig Ian",
    "street": "11851 Jollyville Rd Ste 101",
    "city": "Austin",
    "state": "TX",
    "zipCode": "78759",
    "phone": "(512) 258-4144",
    "fax": "",
    "webSite": ""
  },
  {
    "name": "Brazos Family Dentistry, L.L.P.",
    "street": "3620 Scroggins Dr ",
    "city": "Waco",
    "state": "TX",
    "zipCode": "76705-2579",
    "phone": "(254) 799-5746",
    "fax": "(254) 799-4115",
    "webSite": ""
  }
]
