[
  {
    "name": "Brazos Tech Management",
    "street": "324 North Brooks ",
    "city": "Brazoria",
    "state": "TX",
    "zipCode": "77422",
    "phone": "(979) 798-9103",
    "fax": "(979) 798-9109",
    "webSite": ""
  },
  {
    "name": "Smile Restorations",
    "street": "1615 Barak Ln Ste 5",
    "city": "Bryan",
    "state": "TX",
    "zipCode": "77802-3315",
    "phone": "(979) 846-1121",
    "fax": "(979) 846-5771",
    "webSite": ""
  },
  {
    "name": "Bredau, Laviniu",
    "street": "10039 Dyer St ",
    "city": "El Paso",
    "state": "TX",
    "zipCode": "79924-4136",
    "phone": "(915) 759-7000",
    "fax": "",
    "webSite": ""
  },
  {
    "name": "Brenda R. Gentry Dds, Pa",
    "street": "15803 Windermere Dr Ste 400",
    "city": "Pflugerville",
    "state": "TX",
    "zipCode": "78660-2402",
    "phone": "(512) 252-7645",
    "fax": "",
    "webSite": ""
  },
  {
    "name": "Brenna C Parsell, Dds, Pa",
    "street": "1101 W Plano Pkwy Ste 102 ",
    "city": "Plano",
    "state": "TX",
    "zipCode": "75075-8624",
    "phone": "(972) 312-0514",
    "fax": "",
    "webSite": ""
  },
  {
    "name": "Brennan, James Michael",
    "street": "301 W Northside Dr ",
    "city": "Fort Worth",
    "state": "TX",
    "zipCode": "76164-9123",
    "phone": "(817) 624-1125",
    "fax": "(817) 624-1126",
    "webSite": ""
  },
  {
    "name": "Brent A. Spear Dds",
    "street": "2417 Park Hill Dr Suite A",
    "city": "Fort Worth",
    "state": "TX",
    "zipCode": "76110",
    "phone": "(817) 920-1488",
    "fax": "(817) 920-1499",
    "webSite": ""
  },
  {
    "name": "Brent Cornelius Dds Pa",
    "street": "123 Keller Pkwy Ste 100 ",
    "city": "Keller",
    "state": "TX",
    "zipCode": "76248-2255",
    "phone": "(817) 431-4200",
    "fax": "",
    "webSite": ""
  },
  {
    "name": "Brewer, James Todd",
    "street": "1317 East St ",
    "city": "Graham",
    "state": "TX",
    "zipCode": "76450-4230",
    "phone": "(940) 231-8306",
    "fax": "",
    "webSite": ""
  },
  {
    "name": "Brewster, Russell Scott",
    "street": "1211 Park Street ",
    "city": "Nacogdoches",
    "state": "TX",
    "zipCode": "75961-1211",
    "phone": "(936) 569-3958",
    "fax": "",
    "webSite": ""
  },
  {
    "name": "Brewster, Ryan Keith",
    "street": "9 Care Cir ",
    "city": "Amarillo",
    "state": "TX",
    "zipCode": "79124-2105",
    "phone": "(806) 358-2472",
    "fax": "",
    "webSite": ""
  },
  {
    "name": "Brewton, Amy Gayle",
    "street": "3501 S Soncy Rd Suite 101",
    "city": "Amarillo",
    "state": "TX",
    "zipCode": "79119-6407",
    "phone": "(806) 354-2700",
    "fax": "(806) 354-2707",
    "webSite": ""
  },
  {
    "name": "Brian Babin Dds",
    "street": "1203 W Dogwood St ",
    "city": "Woodville",
    "state": "TX",
    "zipCode": "75979-4756",
    "phone": "(409) 283-3721",
    "fax": "",
    "webSite": ""
  },
  {
    "name": "Brian Bui Inc",
    "street": "3350 S Watson Rd ",
    "city": "Arlington",
    "state": "TX",
    "zipCode": "76014-2803",
    "phone": "(817) 467-4444",
    "fax": "",
    "webSite": ""
  },
  {
    "name": "Brenham Dental Center",
    "street": "1406 S Day St ",
    "city": "Brenham",
    "state": "TX",
    "zipCode": "77833-4567",
    "phone": "(979) 830-8811",
    "fax": "(979) 830-5275",
    "webSite": ""
  },
  {
    "name": "Brian C. Bui, Dds, Pllc",
    "street": "1801 Harwood Ct ",
    "city": "Hurst",
    "state": "TX",
    "zipCode": "76054-3190",
    "phone": "(817) 788-0573",
    "fax": "",
    "webSite": ""
  },
  {
    "name": "Dental And Orthodontic Center Of Lake Conroe",
    "street": "15260 Highway 105 W Ste 222",
    "city": "Montgomery",
    "state": "TX",
    "zipCode": "77356-5259",
    "phone": "(832) 381-6724",
    "fax": "",
    "webSite": ""
  },
  {
    "name": "Austin Family Dentist",
    "street": "3508 Far West Blvd Ste 310 ",
    "city": "Austin",
    "state": "TX",
    "zipCode": "78731-3080",
    "phone": "(512) 346-5738",
    "fax": "(512) 346-3241",
    "webSite": ""
  },
  {
    "name": "Brian J. Lord, Pc",
    "street": "31 Melville Glen Pl ",
    "city": "The Woodlands",
    "state": "TX",
    "zipCode": "77384-4801",
    "phone": "(903) 730-6033",
    "fax": "",
    "webSite": ""
  },
  {
    "name": "Brian K Bell Dds Pa",
    "street": "102 Flag Lake Dr Ste C ",
    "city": "Lake Jackson",
    "state": "TX",
    "zipCode": "77566-6215",
    "phone": "(979) 297-1201",
    "fax": "(979) 297-6226",
    "webSite": ""
  },
  {
    "name": "Brian S Black Dds Pllc",
    "street": "219 Rock Prairie Rd Ste. 100 ",
    "city": "College Station",
    "state": "TX",
    "zipCode": "77845",
    "phone": "(979) 695-8000",
    "fax": "(979) 314-9702",
    "webSite": ""
  },
  {
    "name": "Weatherford Pediatric Dental Associates",
    "street": "1508 Fort Worth Hwy Suite 300",
    "city": "Weatherford",
    "state": "TX",
    "zipCode": "76086-4627",
    "phone": "(817) 594-6364",
    "fax": "(817) 594-6364",
    "webSite": ""
  },
  {
    "name": "Brian Wong Dds Pa",
    "street": "9300 Wade Blvd Ste 210 ",
    "city": "Frisco",
    "state": "TX",
    "zipCode": "75035-2175",
    "phone": "(972) 668-5608",
    "fax": "(972) 435-7757",
    "webSite": ""
  },
  {
    "name": "Brian, Alfred Thomas",
    "street": "720 E Main St Ste A",
    "city": "Allen",
    "state": "TX",
    "zipCode": "75002-3105",
    "phone": "(972) 727-5001",
    "fax": "(972) 727-6335",
    "webSite": ""
  },
  {
    "name": "Briar Forest Dental Group",
    "street": "1988 Wilcrest Dr Suite G",
    "city": "Houston",
    "state": "TX",
    "zipCode": "77042-2638",
    "phone": "(713) 784-4430",
    "fax": "(713) 784-0101",
    "webSite": ""
  },
  {
    "name": "Briargrove Dentistry Associates, P.A.",
    "street": "6100 Westheimer Rd Ste 150 ",
    "city": "Houston",
    "state": "TX",
    "zipCode": "77057-4519",
    "phone": "(713) 782-8100",
    "fax": "(713) 782-4224",
    "webSite": ""
  },
  {
    "name": "Briargrove Smiles Dentistry",
    "street": "1850 Fountain View Dr ",
    "city": "Houston",
    "state": "TX",
    "zipCode": "77057-3004",
    "phone": "(713) 783-1095",
    "fax": "(713) 783-1250",
    "webSite": ""
  },
  {
    "name": "Brice, James Zachary",
    "street": "8425 Bandera Rd Ste 124 ",
    "city": "San Antonio",
    "state": "TX",
    "zipCode": "78250-2519",
    "phone": "(210) 680-3611",
    "fax": "",
    "webSite": ""
  },
  {
    "name": "Bridge City Family Dentistry, Pllc",
    "street": "2525 Texas Ave ",
    "city": "Bridge City",
    "state": "TX",
    "zipCode": "77611-2847",
    "phone": "(409) 735-7109",
    "fax": "",
    "webSite": ""
  },
  {
    "name": "Bridge Dental Associates, Pllc",
    "street": "13616 N Highway 183 Unit B ",
    "city": "Austin",
    "state": "TX",
    "zipCode": "78750-2312",
    "phone": "(512) 600-3535",
    "fax": "",
    "webSite": ""
  },
  {
    "name": "Bridgeman, Brett W",
    "street": "1605 Ave G St 100",
    "city": "Plano",
    "state": "TX",
    "zipCode": "75074",
    "phone": "(972) 424-7581",
    "fax": "(972) 881-1416",
    "webSite": ""
  },
  {
    "name": "Bridgeman, Lee G",
    "street": "1605 G Ave Suite 100",
    "city": "Plano",
    "state": "TX",
    "zipCode": "75074-5750",
    "phone": "(972) 424-7581",
    "fax": "(972) 881-1416",
    "webSite": ""
  },
  {
    "name": "Bridger, John",
    "street": "3400 S Gessner Rd Ste 101 ",
    "city": "Houston",
    "state": "TX",
    "zipCode": "77063-7229",
    "phone": "(713) 266-2244",
    "fax": "",
    "webSite": ""
  },
  {
    "name": "Bridges, Debra",
    "street": "11166 Tottenham Rd ",
    "city": "Chappell Hill",
    "state": "TX",
    "zipCode": "77426-3802",
    "phone": "(281) 808-9094",
    "fax": "",
    "webSite": ""
  },
  {
    "name": "Brier, Joseph",
    "street": "611 W Brown St Ste 100 ",
    "city": "Wylie",
    "state": "TX",
    "zipCode": "75098-5816",
    "phone": "(972) 442-2515",
    "fax": "",
    "webSite": ""
  },
  {
    "name": "Brigati, Jessica H",
    "street": "4900 Overton Ridge Blvd Suite 210",
    "city": "Fort Worth",
    "state": "TX",
    "zipCode": "76132-1940",
    "phone": "(817) 370-0065",
    "fax": "(817) 370-2699",
    "webSite": ""
  },
  {
    "name": "Briggs, Byron William",
    "street": "710 Lucas Dr ",
    "city": "Athens",
    "state": "TX",
    "zipCode": "75751-3434",
    "phone": "(903) 675-4124",
    "fax": "(903) 675-2852",
    "webSite": ""
  },
  {
    "name": "Bright Dfw Dental Pc",
    "street": "17194 Preston Rd Ste 224 ",
    "city": "Dallas",
    "state": "TX",
    "zipCode": "75248-1225",
    "phone": "(972) 233-9399",
    "fax": "",
    "webSite": ""
  },
  {
    "name": "Bright Side Dental Austin",
    "street": "9222 W Parmer Ln ",
    "city": "Austin",
    "state": "TX",
    "zipCode": "78717-4676",
    "phone": "(512) 363-5222",
    "fax": "(512) 369-3476",
    "webSite": ""
  },
  {
    "name": "Bright Smiles Dental",
    "street": "1907 S Hwy 183 Suite 206",
    "city": "Leander",
    "state": "TX",
    "zipCode": "78641",
    "phone": "(512) 259-5000",
    "fax": "(512) 259-5001",
    "webSite": ""
  },
  {
    "name": "Bright Smiles Family Dentistry",
    "street": "2508 N Us Highway 281 Suite 105",
    "city": "Marble Falls",
    "state": "TX",
    "zipCode": "78654-3984",
    "phone": "(830) 515-4441",
    "fax": "(830) 515-4443",
    "webSite": ""
  },
  {
    "name": "Bright Smiles Dental Pc",
    "street": "1912 W Pecan St Ste A103",
    "city": "Pflugerville",
    "state": "TX",
    "zipCode": "78660-3561",
    "phone": "(512) 989-3200",
    "fax": "(512) 989-3201",
    "webSite": ""
  },
  {
    "name": "Bright Smiles Of Garland Pllc",
    "street": "2001 S Glenbrook Dr ",
    "city": "Garland",
    "state": "TX",
    "zipCode": "75041-1712",
    "phone": "(313) 595-0949",
    "fax": "",
    "webSite": ""
  },
  {
    "name": "Bright Smiles Of Garland Pllc",
    "street": "12547 Honeyflower Dr ",
    "city": "Frisco",
    "state": "TX",
    "zipCode": "75035-0712",
    "phone": "(313) 595-0949",
    "fax": "",
    "webSite": ""
  },
  {
    "name": "Bright White Dental",
    "street": "2001 S Glenbrook Dr ",
    "city": "Garland",
    "state": "TX",
    "zipCode": "75041-1712",
    "phone": "(509) 499-2322",
    "fax": "",
    "webSite": ""
  },
  {
    "name": "Bright, Michele",
    "street": "21703 Kingsland Blvd Ste 100 ",
    "city": "Katy",
    "state": "TX",
    "zipCode": "77450-2521",
    "phone": "(832) 321-4633",
    "fax": "",
    "webSite": ""
  },
  {
    "name": "Dba: Westwood Dental",
    "street": "1454 Campbell Rd., Ste 100",
    "city": "Houston",
    "state": "TX",
    "zipCode": "77055-4604",
    "phone": "(713) 722-8400",
    "fax": "(713) 461-1152",
    "webSite": ""
  },
  {
    "name": "Kyle Dental",
    "street": "5401 Fm 1626 #190",
    "city": "Kyle",
    "state": "TX",
    "zipCode": "78640-6038",
    "phone": "(512) 268-3384",
    "fax": "(512) 268-4800",
    "webSite": ""
  },
  {
    "name": "Brightwell, Eileen",
    "street": "1820 Holland St ",
    "city": "Houston",
    "state": "TX",
    "zipCode": "77029-2828",
    "phone": "(713) 455-7923",
    "fax": "",
    "webSite": ""
  },
  {
    "name": "Brigman, Jose Antonio",
    "street": "12415 Bandera Rd. Suite 110",
    "city": "Helotes",
    "state": "TX",
    "zipCode": "78023",
    "phone": "(214) 335-4918",
    "fax": "",
    "webSite": ""
  },
  {
    "name": "Brinkley, David",
    "street": "2630 Exposition Blvd Ste G-01",
    "city": "Austin",
    "state": "TX",
    "zipCode": "78703-1700",
    "phone": "(512) 477-5100",
    "fax": "",
    "webSite": ""
  },
  {
    "name": "Brinkman, John Gerard",
    "street": "3830 Mccullough Ave Suite 300",
    "city": "San Antonio",
    "state": "TX",
    "zipCode": "78212-5262",
    "phone": "(210) 822-8145",
    "fax": "",
    "webSite": ""
  },
  {
    "name": "Brinkman, Rosina M",
    "street": "3830 Mccullough Ave #300",
    "city": "San Antonio",
    "state": "TX",
    "zipCode": "78212-5262",
    "phone": "(210) 822-8145",
    "fax": "(210) 822-8149",
    "webSite": ""
  },
  {
    "name": "Brinkman, Walter August",
    "street": "1024 S Main St ",
    "city": "Mc Gregor",
    "state": "TX",
    "zipCode": "76657-1636",
    "phone": "(254) 840-2991",
    "fax": "(254) 840-9633",
    "webSite": ""
  },
  {
    "name": "Briseno, Michael J",
    "street": "12215 Toepperwein Ste 100",
    "city": "San Antonio",
    "state": "TX",
    "zipCode": "78233",
    "phone": "(210) 656-6362",
    "fax": "(210) 656-1538",
    "webSite": ""
  },
  {
    "name": "Dental Art",
    "street": "5901 Westheimer Rd Ste D ",
    "city": "Houston",
    "state": "TX",
    "zipCode": "77057-7607",
    "phone": "(713) 228-3384",
    "fax": "(832) 991-8108",
    "webSite": ""
  },
  {
    "name": "Bristow, Heather Ashley",
    "street": "4301 N Macarthur Blvd Ste 100 ",
    "city": "Irving",
    "state": "TX",
    "zipCode": "75038-6497",
    "phone": "(972) 255-3712",
    "fax": "(972) 255-5693",
    "webSite": ""
  },
  {
    "name": "Brite Dental Center Inc.",
    "street": "15002 Ella Blvd Suite 42",
    "city": "Houston",
    "state": "TX",
    "zipCode": "77090-5621",
    "phone": "(281) 872-9696",
    "fax": "(281) 872-9699",
    "webSite": ""
  },
  {
    "name": "Brite Dental Of Burleson Pa",
    "street": "664 Sw Wilshire Blvd ",
    "city": "Burleson",
    "state": "TX",
    "zipCode": "76028-5851",
    "phone": "(817) 426-3331",
    "fax": "",
    "webSite": ""
  },
  {
    "name": "Briter Dental",
    "street": "1744 Fry Rd ",
    "city": "Houston",
    "state": "TX",
    "zipCode": "77084-5801",
    "phone": "(281) 492-8900",
    "fax": "(281) 492-9337",
    "webSite": ""
  },
  {
    "name": "Britt, Shanna Lynn",
    "street": "306 Richland Hills Dr. 103",
    "city": "San Antonio",
    "state": "TX",
    "zipCode": "78245",
    "phone": "(210) 674-5370",
    "fax": "(210) 673-7441",
    "webSite": ""
  },
  {
    "name": "Brittco Incorporated",
    "street": "306 Richland Hills Dr. 103",
    "city": "San Antonio",
    "state": "TX",
    "zipCode": "78245",
    "phone": "(210) 674-5370",
    "fax": "(210) 673-7741",
    "webSite": ""
  },
  {
    "name": "Britton, Brian L",
    "street": "4821 W Arkansas Ln ",
    "city": "Arlington",
    "state": "TX",
    "zipCode": "76016-1910",
    "phone": "(817) 451-8071",
    "fax": "(817) 451-8042",
    "webSite": ""
  },
  {
    "name": "Britton, Douglas Andrew",
    "street": "2311 Harry Wurzbach Rd ",
    "city": "San Antonio",
    "state": "TX",
    "zipCode": "78209-5540",
    "phone": "(210) 826-8288",
    "fax": "(210) 826-8292",
    "webSite": ""
  },
  {
    "name": "Britton, Floyd David",
    "street": "601 Cien Rd Suite 140",
    "city": "Kemah",
    "state": "TX",
    "zipCode": "77565-3070",
    "phone": "(281) 334-9992",
    "fax": "(281) 334-0899",
    "webSite": ""
  },
  {
    "name": "Broad Park Dental Pa",
    "street": "1750 E Broad St ",
    "city": "Mansfield",
    "state": "TX",
    "zipCode": "76063-3400",
    "phone": "(817) 473-6857",
    "fax": "(817) 473-3256",
    "webSite": ""
  },
  {
    "name": "Broad Park Family Dentistry",
    "street": "1750 E Broad St ",
    "city": "Mansfield",
    "state": "TX",
    "zipCode": "76063-3400",
    "phone": "(817) 473-6857",
    "fax": "",
    "webSite": ""
  },
  {
    "name": "Broadway Dental, P.A.",
    "street": "5621 S Broadway Ave ",
    "city": "Tyler",
    "state": "TX",
    "zipCode": "75703-4348",
    "phone": "(951) 642-0948",
    "fax": "",
    "webSite": ""
  },
  {
    "name": "Broadway Smiles Pc",
    "street": "1707 S Broadway St Suite 10",
    "city": "Sulphur Springs",
    "state": "TX",
    "zipCode": "75482-4960",
    "phone": "(703) 338-9736",
    "fax": "",
    "webSite": ""
  },
  {
    "name": "Galaxia Dental",
    "street": "8223 Broadway St ",
    "city": "Houston",
    "state": "TX",
    "zipCode": "77061-1201",
    "phone": "(214) 493-1216",
    "fax": "",
    "webSite": ""
  },
  {
    "name": "Broberg, Eric Scott",
    "street": "9521 W Us Highway 290 Suite 103",
    "city": "Austin",
    "state": "TX",
    "zipCode": "78736-7896",
    "phone": "(512) 888-9453",
    "fax": "(512) 888-9704",
    "webSite": ""
  },
  {
    "name": "Brock, Larry Richard",
    "street": "1454 Campbell Rd Suite 200",
    "city": "Houston",
    "state": "TX",
    "zipCode": "77055-4604",
    "phone": "(724) 513-2416",
    "fax": "(281) 265-1850",
    "webSite": ""
  },
  {
    "name": "Brockbank, David",
    "street": "221 3Rd St W ",
    "city": "Randolph Afb",
    "state": "TX",
    "zipCode": "78150",
    "phone": "(850) 443-5707",
    "fax": "",
    "webSite": ""
  },
  {
    "name": "Broderick, Ryan Noble",
    "street": "9135 Schaefer Rd Ste 3",
    "city": "Converse",
    "state": "TX",
    "zipCode": "78109-1979",
    "phone": "(210) 607-8232",
    "fax": "",
    "webSite": ""
  },
  {
    "name": "Brogdon, Stephen Gatlin",
    "street": "3646 Granbury Rd Suite 104",
    "city": "Fort Worth",
    "state": "TX",
    "zipCode": "76109-3717",
    "phone": "(817) 923-4606",
    "fax": "(817) 923-5593",
    "webSite": ""
  },
  {
    "name": "Broman, Jerry Paul",
    "street": "Dentac Hqs 4441 Service Drive",
    "city": "Ft Hood",
    "state": "TX",
    "zipCode": "76544-5054",
    "phone": "(254) 287-2705",
    "fax": "(254) 287-1786",
    "webSite": ""
  },
  {
    "name": "Bronkhorst, Heather Ann",
    "street": "651 N Denton Tap Rd #170",
    "city": "Coppell",
    "state": "TX",
    "zipCode": "75019-2007",
    "phone": "(972) 899-4900",
    "fax": "",
    "webSite": ""
  },
  {
    "name": "Brook, Edward Myles",
    "street": "6800 West Loop S Suite 550",
    "city": "Bellaire",
    "state": "TX",
    "zipCode": "77401-4528",
    "phone": "(713) 795-5841",
    "fax": "(713) 795-5596",
    "webSite": ""
  },
  {
    "name": "Brookins, Don Edward",
    "street": "1225 19Th St Suite 103",
    "city": "Plano",
    "state": "TX",
    "zipCode": "75074-5927",
    "phone": "(972) 578-1944",
    "fax": "(972) 422-4050",
    "webSite": ""
  },
  {
    "name": "Brooks Reed, Daphne L",
    "street": "2101 Crawford St Suite #204",
    "city": "Houston",
    "state": "TX",
    "zipCode": "77002",
    "phone": "(713) 757-1948",
    "fax": "(713) 757-9835",
    "webSite": ""
  },
  {
    "name": "Brookshire Dental P A",
    "street": "1801 Precinct Line Rd Suite A",
    "city": "Hurst",
    "state": "TX",
    "zipCode": "76054",
    "phone": "(817) 577-9200",
    "fax": "(817) 281-9231",
    "webSite": ""
  },
  {
    "name": "Broom, David",
    "street": "1109 N Judge Ely Blvd ",
    "city": "Abilene",
    "state": "TX",
    "zipCode": "79601",
    "phone": "(325) 672-2794",
    "fax": "(325) 677-6398",
    "webSite": ""
  },
  {
    "name": "Brough, Barbara Ruth",
    "street": "735 Oak Park Ave ",
    "city": "Corpus Christi",
    "state": "TX",
    "zipCode": "78408-2840",
    "phone": "(361) 883-3993",
    "fax": "(361) 882-1048",
    "webSite": ""
  },
  {
    "name": "Broumand-Mizani, Vesta",
    "street": "2310 Sw Military Dr Suite #406",
    "city": "San Antonio",
    "state": "TX",
    "zipCode": "78224-1407",
    "phone": "(210) 927-1400",
    "fax": "(210) 927-6330",
    "webSite": ""
  },
  {
    "name": "Brown Baer, Pamela Renee",
    "street": "1202 E Sonterra Blvd Suite 402",
    "city": "San Antonio",
    "state": "TX",
    "zipCode": "78258-4089",
    "phone": "(210) 341-4409",
    "fax": "(210) 403-9387",
    "webSite": ""
  },
  {
    "name": "Brown Dental, Pa",
    "street": "8475 Highway 6 North, Ste C-2 Ste C-2",
    "city": "Houston",
    "state": "TX",
    "zipCode": "77095",
    "phone": "(281) 550-4444",
    "fax": "(281) 550-4844",
    "webSite": ""
  },
  {
    "name": "Woodshore Family Dentistry",
    "street": "810 N Dixie Dr Ste A ",
    "city": "Clute",
    "state": "TX",
    "zipCode": "77531-1518",
    "phone": "(832) 868-1493",
    "fax": "",
    "webSite": ""
  },
  {
    "name": "Brown, Candace Cheri",
    "street": "4011 E Renner Rd Suite 107",
    "city": "Richardson",
    "state": "TX",
    "zipCode": "75082-2916",
    "phone": "(972) 238-5665",
    "fax": "",
    "webSite": ""
  },
  {
    "name": "Brown, Carmie Lou Ann",
    "street": "12801 Edgemere Blvd # B Ste 112",
    "city": "El Paso",
    "state": "TX",
    "zipCode": "79938-9500",
    "phone": "(915) 493-6310",
    "fax": "",
    "webSite": ""
  },
  {
    "name": "Brown, Carroll Dan",
    "street": "3637 Broadway Blvd Suite B",
    "city": "Garland",
    "state": "TX",
    "zipCode": "75043",
    "phone": "(972) 271-0524",
    "fax": "(972) 278-9557",
    "webSite": ""
  },
  {
    "name": "Brown, Charles Cummings",
    "street": "232 Wesley Dr ",
    "city": "Kerrville",
    "state": "TX",
    "zipCode": "78028-5809",
    "phone": "(830) 257-4744",
    "fax": "(830) 895-7511",
    "webSite": ""
  },
  {
    "name": "Brown, Cody",
    "street": "2403 Lacy Ln ",
    "city": "Carrollton",
    "state": "TX",
    "zipCode": "75006-6514",
    "phone": "(972) 869-3789",
    "fax": "",
    "webSite": ""
  },
  {
    "name": "Brown, David L",
    "street": "2221 Harwood Rd ",
    "city": "Bedford",
    "state": "TX",
    "zipCode": "76021",
    "phone": "(817) 283-2871",
    "fax": "(817) 283-1762",
    "webSite": ""
  },
  {
    "name": "Brown, Dennis E",
    "street": "16125 Cairnway Drive Suite 112",
    "city": "Houston",
    "state": "TX",
    "zipCode": "77084",
    "phone": "(281) 463-0339",
    "fax": "(281) 463-2377",
    "webSite": ""
  },
  {
    "name": "Brown, Ila",
    "street": "899 Fm 632 ",
    "city": "Kenedy",
    "state": "TX",
    "zipCode": "78119-4516",
    "phone": "(830) 583-4003",
    "fax": "",
    "webSite": ""
  },
  {
    "name": "Brown, Jacob Samuel",
    "street": "4805 Green Oaks Dr ",
    "city": "River Oaks",
    "state": "TX",
    "zipCode": "76114-3004",
    "phone": "(817) 625-1548",
    "fax": "",
    "webSite": ""
  },
  {
    "name": "Brown, Jeffrey C.",
    "street": "15130 State Hwy 150 West ",
    "city": "Coldspring",
    "state": "TX",
    "zipCode": "77331-0547",
    "phone": "(936) 653-4564",
    "fax": "(936) 653-3899",
    "webSite": ""
  },
  {
    "name": "Brown, Jeremiah",
    "street": "103 N Brentwood Ste 400 ",
    "city": "Lufkin",
    "state": "TX",
    "zipCode": "75904-7147",
    "phone": "(936) 639-4867",
    "fax": "",
    "webSite": ""
  },
  {
    "name": "Brown, Karol",
    "street": "3235 W Camp Wisdom Rd ",
    "city": "Dallas",
    "state": "TX",
    "zipCode": "75237-2605",
    "phone": "(214) 331-1131",
    "fax": "",
    "webSite": ""
  },
  {
    "name": "Brown, Kent Robert",
    "street": "4805 River Oaks Blvd ",
    "city": "River Oaks",
    "state": "TX",
    "zipCode": "76114-3002",
    "phone": "(817) 625-1548",
    "fax": "",
    "webSite": ""
  },
  {
    "name": "Brown, Marshall Howard",
    "street": "1818 8Th Ave ",
    "city": "Fort Worth",
    "state": "TX",
    "zipCode": "76110-1391",
    "phone": "(817) 920-0882",
    "fax": "(817) 920-0709",
    "webSite": ""
  },
  {
    "name": "Brown, Misty Jaye",
    "street": "359 Keller Pkwy ",
    "city": "Keller",
    "state": "TX",
    "zipCode": "76248-2206",
    "phone": "(817) 431-6995",
    "fax": "(817) 431-8813",
    "webSite": ""
  },
  {
    "name": "Brown, Neil W",
    "street": "1110 Lawrence St ",
    "city": "Rosenberg",
    "state": "TX",
    "zipCode": "77471-3826",
    "phone": "(281) 342-1517",
    "fax": "(832) 451-8006",
    "webSite": ""
  },
  {
    "name": "Brown, Orborn",
    "street": "4800 Memorial Dr Dental Service",
    "city": "Waco",
    "state": "TX",
    "zipCode": "76711-1329",
    "phone": "(254) 297-3524",
    "fax": "(254) 297-5378",
    "webSite": ""
  },
  {
    "name": "Brown, Philip K",
    "street": "4775 W Panther Creek Dr Suite B265",
    "city": "The Woodlands",
    "state": "TX",
    "zipCode": "77381-3592",
    "phone": "(281) 419-2405",
    "fax": "",
    "webSite": ""
  },
  {
    "name": "Brown, Stephanie Mccarty",
    "street": "11525 S Fry Rd Ste 107 ",
    "city": "Fulshear",
    "state": "TX",
    "zipCode": "77441-2157",
    "phone": "(832) 913-6353",
    "fax": "(979) 297-3468",
    "webSite": ""
  },
  {
    "name": "Brown, William Alan",
    "street": "226 N Cedar Ridge Dr ",
    "city": "Duncanville",
    "state": "TX",
    "zipCode": "75116-3141",
    "phone": "(972) 298-8515",
    "fax": "(972) 298-9211",
    "webSite": ""
  },
  {
    "name": "Brown, William Steven",
    "street": "500 8Th Ave Ste 110 ",
    "city": "Fort Worth",
    "state": "TX",
    "zipCode": "76104-2065",
    "phone": "(817) 560-0414",
    "fax": "",
    "webSite": ""
  },
  {
    "name": "Brownfield Dental",
    "street": "101 Seagraves Rd ",
    "city": "Brownfield",
    "state": "TX",
    "zipCode": "79316-5447",
    "phone": "(650) 438-5824",
    "fax": "",
    "webSite": ""
  },
  {
    "name": "Browning, Brent Ray",
    "street": "130 Vintage Park Blvd Ste K ",
    "city": "Houston",
    "state": "TX",
    "zipCode": "77070-3999",
    "phone": "(281) 370-4300",
    "fax": "(281) 370-4305",
    "webSite": ""
  },
  {
    "name": "Browning, Jason K",
    "street": "1408 Hailey St ",
    "city": "Sweetwater",
    "state": "TX",
    "zipCode": "79556-2508",
    "phone": "(325) 235-8020",
    "fax": "(325) 236-6268",
    "webSite": ""
  },
  {
    "name": "Brownlee, Karlee Sue",
    "street": "2310 Sw Military Dr Ste 406 ",
    "city": "San Antonio",
    "state": "TX",
    "zipCode": "78224-1409",
    "phone": "(210) 927-1400",
    "fax": "",
    "webSite": ""
  },
  {
    "name": "Brownlee, Titania Martin",
    "street": "13411 Hilliard St ",
    "city": "Houston",
    "state": "TX",
    "zipCode": "77034-5635",
    "phone": "(281) 464-4613",
    "fax": "(281) 464-4625",
    "webSite": ""
  },
  {
    "name": "Brownlee, Todd",
    "street": "5470 W Lovers Ln Ste 332 ",
    "city": "Dallas",
    "state": "TX",
    "zipCode": "75209-4392",
    "phone": "(214) 352-2777",
    "fax": "(214) 352-0058",
    "webSite": ""
  },
  {
    "name": "Brownsville Dentists, P.A",
    "street": "1301 E Los Ebanos Blvd Bldg D ",
    "city": "Brownsville",
    "state": "TX",
    "zipCode": "78520-8634",
    "phone": "(956) 541-7766",
    "fax": "",
    "webSite": ""
  },
  {
    "name": "Brownsville Family Dentistry Pllc",
    "street": "1650 Paredes Line Rd Suite 103",
    "city": "Brownsville",
    "state": "TX",
    "zipCode": "78521-1660",
    "phone": "(956) 982-1533",
    "fax": "",
    "webSite": ""
  },
  {
    "name": "Brownwood Dental Plls",
    "street": "1206 Looney St ",
    "city": "Brownwood",
    "state": "TX",
    "zipCode": "76801-1818",
    "phone": "(325) 649-9600",
    "fax": "",
    "webSite": ""
  },
  {
    "name": "Bruce Total Dental And Orthodontics Pllc",
    "street": "3809 S General Bruce Dr Ste 104 ",
    "city": "Temple",
    "state": "TX",
    "zipCode": "76502-1038",
    "phone": "(254) 870-9277",
    "fax": "",
    "webSite": ""
  },
  {
    "name": "H.W.Brueggen,D.D.S.,Inc",
    "street": "14626 Bellaire Blvd ",
    "city": "Houston",
    "state": "TX",
    "zipCode": "77083-2506",
    "phone": "(281) 879-1786",
    "fax": "(281) 879-8147",
    "webSite": ""
  },
  {
    "name": "Brueggen, Harold Wayne",
    "street": "14626 Bellaire Blvd ",
    "city": "Houston",
    "state": "TX",
    "zipCode": "77083-2506",
    "phone": "(281) 879-1786",
    "fax": "(281) 879-8147",
    "webSite": ""
  },
  {
    "name": "Bruenjes, Glen Louis",
    "street": "909 Dairy Ashford St 104",
    "city": "Houston",
    "state": "TX",
    "zipCode": "77079-5309",
    "phone": "(281) 493-4173",
    "fax": "(281) 493-4388",
    "webSite": ""
  },
  {
    "name": "Brugler, Brandon Scott",
    "street": "1801 Precinct Line Rd Suite A",
    "city": "Hurst",
    "state": "TX",
    "zipCode": "76054",
    "phone": "(817) 511-9200",
    "fax": "",
    "webSite": ""
  },
  {
    "name": "Brumbaugh, Robert David",
    "street": "3131 Harvard Ave 105",
    "city": "Dallas",
    "state": "TX",
    "zipCode": "75205-3443",
    "phone": "(214) 520-8821",
    "fax": "(214) 520-8922",
    "webSite": ""
  },
  {
    "name": "Brumit, Paula C",
    "street": "103 E Belt Line Rd ",
    "city": "Cedar Hill",
    "state": "TX",
    "zipCode": "75104-2274",
    "phone": "(972) 291-2591",
    "fax": "",
    "webSite": ""
  },
  {
    "name": "Brundrett, Melissa Jean",
    "street": "13910 Champion Forest Dr Suite 205",
    "city": "Houston",
    "state": "TX",
    "zipCode": "77069-1882",
    "phone": "(281) 893-1249",
    "fax": "(281) 893-1937",
    "webSite": ""
  },
  {
    "name": "Brune, Karen Lee",
    "street": "1300 Post Oak Blvd #1620",
    "city": "Houston",
    "state": "TX",
    "zipCode": "77056-3043",
    "phone": "(713) 622-6112",
    "fax": "(713) 622-2351",
    "webSite": ""
  },
  {
    "name": "Brune, Timothy James",
    "street": "800 Bering Dr #204",
    "city": "Houston",
    "state": "TX",
    "zipCode": "77057-2143",
    "phone": "(713) 784-7925",
    "fax": "(713) 784-7134",
    "webSite": ""
  },
  {
    "name": "Brunelli, Alan J.",
    "street": "701 N Central Expy #4",
    "city": "Richardson",
    "state": "TX",
    "zipCode": "75080-5342",
    "phone": "(972) 231-8241",
    "fax": "(972) 231-8261",
    "webSite": ""
  },
  {
    "name": "Bruno, Candace Lauren",
    "street": "11410 Jollyville Rd 3102",
    "city": "Austin",
    "state": "TX",
    "zipCode": "78759-4097",
    "phone": "(512) 372-8484",
    "fax": "",
    "webSite": ""
  },
  {
    "name": "Bruno, Robin T",
    "street": "2410 Stanley Rd Dentac Suite 200J",
    "city": "Fort Sam Houston",
    "state": "TX",
    "zipCode": "78234-7529",
    "phone": "(210) 295-2743",
    "fax": "(210) 295-2602",
    "webSite": ""
  },
  {
    "name": "Brunson, Jeffery Royce",
    "street": "8106 Brodie Lane Suite 108",
    "city": "Austin",
    "state": "TX",
    "zipCode": "78745",
    "phone": "(512) 280-2010",
    "fax": "(512) 280-0954",
    "webSite": ""
  },
  {
    "name": "Brunson, Larry Everett",
    "street": "10077 Grogans Mill Rd Suite 460",
    "city": "The Woodlands",
    "state": "TX",
    "zipCode": "77380-1000",
    "phone": "(281) 292-1605",
    "fax": "(281) 292-7372",
    "webSite": ""
  },
  {
    "name": "Brunson, Wallace Edward",
    "street": "1314 Chardonnay Dr ",
    "city": "Houston",
    "state": "TX",
    "zipCode": "77077-3102",
    "phone": "(505) 690-9881",
    "fax": "",
    "webSite": ""
  },
  {
    "name": "Brush 32, Inc",
    "street": "1201 N. Bell Blvd ",
    "city": "Cedar Park",
    "state": "TX",
    "zipCode": "78613",
    "phone": "(512) 267-6360",
    "fax": "(512) 267-2448",
    "webSite": ""
  },
  {
    "name": "Brush Country Dental Center, L.L.P.",
    "street": "800 N Bryant St ",
    "city": "Pleasanton",
    "state": "TX",
    "zipCode": "78064-2550",
    "phone": "(830) 569-2500",
    "fax": "(830) 281-6436",
    "webSite": ""
  },
  {
    "name": "Swish Dental",
    "street": "3715 S 1St St Ste B ",
    "city": "Austin",
    "state": "TX",
    "zipCode": "78704-8054",
    "phone": "(512) 296-2841",
    "fax": "",
    "webSite": ""
  },
  {
    "name": "Brush Dentistry, Pllc",
    "street": "1100 N Blue Mound Rd Suite 100",
    "city": "Saginaw",
    "state": "TX",
    "zipCode": "76131-4901",
    "phone": "(682) 231-2764",
    "fax": "",
    "webSite": ""
  },
  {
    "name": "Bruyere, Barry Clinton",
    "street": "806 Medical Dr Suite 200",
    "city": "Longview",
    "state": "TX",
    "zipCode": "75605-5110",
    "phone": "(903) 753-0337",
    "fax": "(903) 236-4537",
    "webSite": ""
  },
  {
    "name": "Bryan Dental Pc",
    "street": "27847 Hunters Rock Ln ",
    "city": "Katy",
    "state": "TX",
    "zipCode": "77494-4179",
    "phone": "(979) 826-4040",
    "fax": "",
    "webSite": ""
  },
  {
    "name": "Bryan Modern Dentistry",
    "street": "3001 Wildflower Dr Suite511",
    "city": "Bryan",
    "state": "TX",
    "zipCode": "77802-3061",
    "phone": "(979) 776-1040",
    "fax": "(979) 776-1048",
    "webSite": ""
  },
  {
    "name": "Bryan Road Dentistry",
    "street": "210 S Bryan Rd Suite 4",
    "city": "Mission",
    "state": "TX",
    "zipCode": "78572-6204",
    "phone": "(956) 585-7677",
    "fax": "(956) 585-7627",
    "webSite": ""
  },
  {
    "name": "Bryan St Dental Pllc",
    "street": "210 S Bryan Rd Ste 4 ",
    "city": "Mission",
    "state": "TX",
    "zipCode": "78572-6208",
    "phone": "(956) 585-7677",
    "fax": "(956) 585-7627",
    "webSite": ""
  },
  {
    "name": "Bryan, James Austin",
    "street": "110 Church St ",
    "city": "Marlin",
    "state": "TX",
    "zipCode": "76661-2809",
    "phone": "(254) 883-3070",
    "fax": "",
    "webSite": ""
  },
  {
    "name": "Bryant, Alan R",
    "street": "8226 Douglas Ave #857",
    "city": "Dallas",
    "state": "TX",
    "zipCode": "75225-5943",
    "phone": "(214) 363-4488",
    "fax": "",
    "webSite": ""
  },
  {
    "name": "Bryant, Heather Danielle",
    "street": "11218 Airline Dr. ",
    "city": "Houston",
    "state": "TX",
    "zipCode": "77037",
    "phone": "(281) 999-6500",
    "fax": "(281) 999-6504",
    "webSite": ""
  },
  {
    "name": "Bryant, Pamela Kelley",
    "street": "2007 N Collins Blvd Ste 207 ",
    "city": "Richardson",
    "state": "TX",
    "zipCode": "75080-2673",
    "phone": "(972) 437-0300",
    "fax": "",
    "webSite": ""
  },
  {
    "name": "Chandler Dental Center",
    "street": "11021 Old Corpus Christi Hwy ",
    "city": "San Antonio",
    "state": "TX",
    "zipCode": "78223-9363",
    "phone": "(210) 633-0057",
    "fax": "",
    "webSite": ""
  },
  {
    "name": "Bryce, Summer",
    "street": "201 N Preston Rd Ste A ",
    "city": "Prosper",
    "state": "TX",
    "zipCode": "75078-8605",
    "phone": "(972) 347-1145",
    "fax": "",
    "webSite": ""
  },
  {
    "name": "Brymer, Michael M",
    "street": "157 Cypresswood Dr ",
    "city": "Spring",
    "state": "TX",
    "zipCode": "77388-6038",
    "phone": "(281) 350-6677",
    "fax": "(281) 350-6688",
    "webSite": ""
  },
  {
    "name": "Bryon H Yarbrough Dds Pa",
    "street": "2311 Harry Wurzbach Rd ",
    "city": "San Antonio",
    "state": "TX",
    "zipCode": "78209-5540",
    "phone": "(210) 824-3531",
    "fax": "(210) 824-0068",
    "webSite": ""
  },
  {
    "name": "Bsoul, Enas",
    "street": "5515 Tezel Rd Ste 106 ",
    "city": "San Antonio",
    "state": "TX",
    "zipCode": "78250-4143",
    "phone": "(210) 682-2700",
    "fax": "(210) 682-2701",
    "webSite": ""
  },
  {
    "name": "Buchanan, Barry H.",
    "street": "7115 Greenville Ave Suite 200",
    "city": "Dallas",
    "state": "TX",
    "zipCode": "75231-5100",
    "phone": "(214) 343-1818",
    "fax": "(214) 343-1114",
    "webSite": ""
  },
  {
    "name": "Buchanan, Charles Ensworth",
    "street": "1000 N Midkiff Rd ",
    "city": "Midland",
    "state": "TX",
    "zipCode": "79701",
    "phone": "(432) 897-0852",
    "fax": "",
    "webSite": ""
  },
  {
    "name": "Buchanan, Tyler Andrew Rice",
    "street": "6410 Fannin St Ste 310 ",
    "city": "Houston",
    "state": "TX",
    "zipCode": "77030-3004",
    "phone": "(425) 941-0589",
    "fax": "",
    "webSite": ""
  },
  {
    "name": "Buchwald, Maxey Stanton",
    "street": "300 N Coit Rd Ste 245 ",
    "city": "Richardson",
    "state": "TX",
    "zipCode": "75080-6261",
    "phone": "(972) 644-3280",
    "fax": "(972) 671-7925",
    "webSite": ""
  },
  {
    "name": "Buchwald, Maxey Stanton",
    "street": "300 N. Coit Rd. Suite 245",
    "city": "Richardson",
    "state": "TX",
    "zipCode": "75080",
    "phone": "(972) 644-3280",
    "fax": "(972) 671-7925",
    "webSite": ""
  },
  {
    "name": "Buck, Monty Bruce",
    "street": "4245 N Central Expwy Suite 400",
    "city": "Dallas",
    "state": "TX",
    "zipCode": "75205",
    "phone": "(214) 522-7870",
    "fax": "(214) 522-7321",
    "webSite": ""
  },
  {
    "name": "Buck, Richard Ervin",
    "street": "556 W Bedford Euless Rd Suite A",
    "city": "Hurst",
    "state": "TX",
    "zipCode": "76053-3924",
    "phone": "(817) 268-2111",
    "fax": "(817) 280-9643",
    "webSite": ""
  },
  {
    "name": "Buck, William S.",
    "street": "8615 S Hulen St Ste 113 ",
    "city": "Fort Worth",
    "state": "TX",
    "zipCode": "76123-2762",
    "phone": "(682) 207-6555",
    "fax": "(806) 669-2641",
    "webSite": ""
  },
  {
    "name": "Buckley, George Rihl",
    "street": "4110 Bellaire Blvd Suite 218",
    "city": "Houston",
    "state": "TX",
    "zipCode": "77025-1007",
    "phone": "(713) 669-0084",
    "fax": "(713) 666-2344",
    "webSite": ""
  },
  {
    "name": "Steven B Buckley                                                                        ",
    "street": "4499 Medical Dr Suite 190 San Antonio, TX 78229-3735"
  },
  {
    "name": "Bear Creek Family Dentistry",
    "street": "2947 S Buckner Blvd Ste 100 ",
    "city": "Dallas",
    "state": "TX",
    "zipCode": "75227-6944",
    "phone": "(214) 381-3800",
    "fax": "(214) 381-4500",
    "webSite": ""
  },
  {
    "name": "Buckner Rsvg Pllc",
    "street": "2702 S Buckner Blvd ",
    "city": "Dallas",
    "state": "TX",
    "zipCode": "75227-6903",
    "phone": "(214) 493-1216",
    "fax": "",
    "webSite": ""
  },
  {
    "name": "Buckner Smiley Dental Pllc",
    "street": "4801 S Buckner Blvd Ste 800",
    "city": "Dallas",
    "state": "TX",
    "zipCode": "75227-2373",
    "phone": "(972) 616-0060",
    "fax": "",
    "webSite": ""
  },
  {
    "name": "Buda Family Dentistry Pllc",
    "street": "3420B Fm967 Steb-105",
    "city": "Buda",
    "state": "TX",
    "zipCode": "78610-7861",
    "phone": "(512) 810-0714",
    "fax": "",
    "webSite": ""
  },
  {
    "name": "Buda, Ryan Alexander",
    "street": "2212 S Rankin Hwy Suite E Midland, Texas 79701 ",
    "city": "Midland",
    "state": "TX",
    "zipCode": "79701",
    "phone": "(432) 847-2306",
    "fax": "",
    "webSite": ""
  },
  {
    "name": "Budget Smiles Pllc",
    "street": "1116 W. Main St. Ste B",
    "city": "Gun Barrel City",
    "state": "TX",
    "zipCode": "75156",
    "phone": "(708) 522-4457",
    "fax": "",
    "webSite": ""
  },
  {
    "name": "Budhani, Aamir",
    "street": "2745 N Collins St Ste 101 ",
    "city": "Arlington",
    "state": "TX",
    "zipCode": "76006-7108",
    "phone": "(817) 484-5588",
    "fax": "",
    "webSite": ""
  },
  {
    "name": "Budhani, Nadia Karim",
    "street": "3213 N Macarthur Blvd Suite 101",
    "city": "Irving",
    "state": "TX",
    "zipCode": "75062-8800",
    "phone": "(972) 659-0121",
    "fax": "",
    "webSite": ""
  },
  {
    "name": "Budhlani, Surekha",
    "street": "3901 Kemp Blvd ",
    "city": "Wichita Falls",
    "state": "TX",
    "zipCode": "76308-2118",
    "phone": "(940) 692-0083",
    "fax": "",
    "webSite": ""
  },
  {
    "name": "Buehler, Stephen A.",
    "street": "3515 Ella Blvd ",
    "city": "Houston",
    "state": "TX",
    "zipCode": "77018-6103",
    "phone": "(713) 682-4406",
    "fax": "",
    "webSite": ""
  },
  {
    "name": "Buffalo Creek Dental Pllc",
    "street": "111 Indian Drive, Suite 101 ",
    "city": "Waxahachie",
    "state": "TX",
    "zipCode": "75165",
    "phone": "(972) 937-4424",
    "fax": "(972) 937-4258",
    "webSite": ""
  },
  {
    "name": "Lepow Dental Associates",
    "street": "12528 Memorial Dr ",
    "city": "Houston",
    "state": "TX",
    "zipCode": "77024-6000",
    "phone": "(713) 333-8500",
    "fax": "(713) 333-8501",
    "webSite": ""
  },
  {
    "name": "Buhler, Jacob David",
    "street": "3551 Roger Brooke Dr ",
    "city": "Fort Sam Houston",
    "state": "TX",
    "zipCode": "78234-4504",
    "phone": "(210) 916-0332",
    "fax": "",
    "webSite": ""
  },
  {
    "name": "Issy Dental",
    "street": "8420 Highway 6 N ",
    "city": "Houston",
    "state": "TX",
    "zipCode": "77095-2004",
    "phone": "(832) 413-2944",
    "fax": "",
    "webSite": ""
  },
  {
    "name": "Bui, Alice M",
    "street": "10920 Fry Rd Suite 650",
    "city": "Cypress",
    "state": "TX",
    "zipCode": "77433-4061",
    "phone": "(281) 373-5437",
    "fax": "(281) 373-5438",
    "webSite": ""
  },
  {
    "name": "Bui, Brenda",
    "street": "6426 Meadowbrook Dr ",
    "city": "Fort Worth",
    "state": "TX",
    "zipCode": "76112-5123",
    "phone": "(817) 496-2343",
    "fax": "",
    "webSite": ""
  },
  {
    "name": "Bui, Cuong",
    "street": "6800 Alma Dr #101",
    "city": "Plano",
    "state": "TX",
    "zipCode": "75023-2006",
    "phone": "(469) 467-8007",
    "fax": "",
    "webSite": ""
  },
  {
    "name": "Bui, Doan",
    "street": "8190 Precinct Line Ste 200 ",
    "city": "Colleyville",
    "state": "TX",
    "zipCode": "76034",
    "phone": "(817) 520-0520",
    "fax": "(817) 520-0525",
    "webSite": ""
  },
  {
    "name": "Bui, Huan Hoang",
    "street": "9515 Broadway St Ste 117 ",
    "city": "Pearland",
    "state": "TX",
    "zipCode": "77584-6200",
    "phone": "(281) 997-2900",
    "fax": "",
    "webSite": ""
  },
  {
    "name": "Bui, Huey",
    "street": "12600 Scarsdale Blvd Suite D",
    "city": "Houston",
    "state": "TX",
    "zipCode": "77089-6271",
    "phone": "(281) 484-3992",
    "fax": "(281) 484-3995",
    "webSite": ""
  },
  {
    "name": "Bui, Kathy",
    "street": "26745 E University Drive Ste 110 ",
    "city": "Aubrey",
    "state": "TX",
    "zipCode": "76227",
    "phone": "(469) 715-6622",
    "fax": "(469) 715-6608",
    "webSite": ""
  },
  {
    "name": "Bui, Kevin",
    "street": "1615 Precinct Line Rd Ste 101 ",
    "city": "Hurst",
    "state": "TX",
    "zipCode": "76054-3345",
    "phone": "(817) 849-5884",
    "fax": "",
    "webSite": ""
  },
  {
    "name": "Bui, Khang Vutuan",
    "street": "13194 Bellaire Blvd ",
    "city": "Houston",
    "state": "TX",
    "zipCode": "77072-5102",
    "phone": "(281) 530-5050",
    "fax": "",
    "webSite": ""
  },
  {
    "name": "Bui, Lee Tran",
    "street": "7771 Cambridge St ",
    "city": "Houston",
    "state": "TX",
    "zipCode": "77054-2011",
    "phone": "(512) 653-8697",
    "fax": "",
    "webSite": ""
  },
  {
    "name": "Bui, Minh",
    "street": "24200 Southwest Fwy Ste 202 ",
    "city": "Rosenberg",
    "state": "TX",
    "zipCode": "77471-5985",
    "phone": "(281) 232-4446",
    "fax": "",
    "webSite": ""
  },
  {
    "name": "Bui, Nancy Huyen",
    "street": "4300 Matlock Rd Suite 120",
    "city": "Arlington",
    "state": "TX",
    "zipCode": "76018-5258",
    "phone": "(817) 467-9594",
    "fax": "(817) 419-0529",
    "webSite": ""
  },
  {
    "name": "Bui, Quang",
    "street": "12804 Gulf Fwy Ste 400 ",
    "city": "Houston",
    "state": "TX",
    "zipCode": "77034-4850",
    "phone": "(281) 481-2048",
    "fax": "",
    "webSite": ""
  },
  {
    "name": "Bui, Shawn Xuan",
    "street": "905 N Jupiter Rd Ste 180 ",
    "city": "Richardson",
    "state": "TX",
    "zipCode": "75081-7713",
    "phone": "(972) 234-8800",
    "fax": "",
    "webSite": ""
  },
  {
    "name": "Bui, Son Nguyen",
    "street": "8420 Highway 6 N ",
    "city": "Houston",
    "state": "TX",
    "zipCode": "77095-2004",
    "phone": "(281) 855-4888",
    "fax": "",
    "webSite": ""
  },
  {
    "name": "Bui, Tan Duy",
    "street": "12600 Scarsdale Blvd Suite D",
    "city": "Houston",
    "state": "TX",
    "zipCode": "77089-6271",
    "phone": "(281) 484-3992",
    "fax": "(281) 484-3995",
    "webSite": ""
  },
  {
    "name": "Bui, Tram Ngoc",
    "street": "10515 Bellaire Blvd Ste K ",
    "city": "Houston",
    "state": "TX",
    "zipCode": "77072-5235",
    "phone": "(281) 495-4444",
    "fax": "",
    "webSite": ""
  },
  {
    "name": "Bui, Tuong Thao T",
    "street": "4828 Columbia Ave Ste 100 ",
    "city": "Dallas",
    "state": "TX",
    "zipCode": "75226-1011",
    "phone": "(214) 823-0202",
    "fax": "(214) 824-6464",
    "webSite": ""
  },
  {
    "name": "Buie, Rebecca Ruth",
    "street": "1880 W Moore Ave Ste 7 ",
    "city": "Terrell",
    "state": "TX",
    "zipCode": "75160-2365",
    "phone": "(972) 563-5454",
    "fax": "",
    "webSite": ""
  },
  {
    "name": "Buikema, Donald Jay",
    "street": "7400 Merton Minter St Dental (160)",
    "city": "San Antonio",
    "state": "TX",
    "zipCode": "78229-4404",
    "phone": "(210) 949-8900",
    "fax": "",
    "webSite": ""
  },
  {
    "name": "Stella Dental Care",
    "street": "7160 Barker Cypress Rd Suite E",
    "city": "Houston",
    "state": "TX",
    "zipCode": "77095",
    "phone": "(832) 704-4612",
    "fax": "",
    "webSite": ""
  },
  {
    "name": "Walnut Hill Cosmetic & Family Dentistry",
    "street": "2679 Walnut Hill Ln ",
    "city": "Dallas",
    "state": "TX",
    "zipCode": "75229-5615",
    "phone": "(214) 383-3339",
    "fax": "",
    "webSite": ""
  },
  {
    "name": "Bull, Shannon R",
    "street": "7703 Floyd Curl Drive Ut Health Science Center At San A Msc 7903, Advanced General Dentistry Clinic",
    "city": "San Antonio",
    "state": "TX",
    "zipCode": "78229-3900",
    "phone": "(210) 567-3456",
    "fax": "(210) 567-3443",
    "webSite": ""
  },
  {
    "name": "Bullard, James Robert",
    "street": "9107 Marbach Rd Suite #103",
    "city": "San Antonio",
    "state": "TX",
    "zipCode": "78245-1802",
    "phone": "(210) 674-4799",
    "fax": "(210) 674-5233",
    "webSite": ""
  },
  {
    "name": "Bullard, Jesse T",
    "street": "3600 Gaston Ave Barnet Tower Ste 902",
    "city": "Dallas",
    "state": "TX",
    "zipCode": "75246",
    "phone": "(214) 821-8990",
    "fax": "(214) 826-0377",
    "webSite": ""
  },
  {
    "name": "Bulsara, Dilber",
    "street": "11100 Parkfield Dr ",
    "city": "Austin",
    "state": "TX",
    "zipCode": "78758-4263",
    "phone": "(512) 339-7848",
    "fax": "",
    "webSite": ""
  },
  {
    "name": "Bulverde Dental Specialist Pllc",
    "street": "22103 Bulverde Rd Ste 108 ",
    "city": "San Antonio",
    "state": "TX",
    "zipCode": "78259-1855",
    "phone": "(210) 907-8666",
    "fax": "",
    "webSite": ""
  },
  {
    "name": "Bulverde Point Dental, Pllc",
    "street": "30745 N Hwy 281 Suite 103",
    "city": "Bulverde",
    "state": "TX",
    "zipCode": "78163",
    "phone": "(210) 251-1589",
    "fax": "",
    "webSite": ""
  },
  {
    "name": "Bunday, Scott David",
    "street": "1524 Independence Pkwy A 2",
    "city": "Plano",
    "state": "TX",
    "zipCode": "75075-6440",
    "phone": "(972) 964-1032",
    "fax": "(972) 964-0962",
    "webSite": ""
  },
  {
    "name": "Bunker, Adam Edward",
    "street": "1923 Marsha Sharp Fwy ",
    "city": "Lubbock",
    "state": "TX",
    "zipCode": "79415-4036",
    "phone": "(806) 797-1094",
    "fax": "",
    "webSite": ""
  },
  {
    "name": "Burakowski, Barbara",
    "street": "6137 Kirby Dr ",
    "city": "Houston",
    "state": "TX",
    "zipCode": "77005-3148",
    "phone": "(713) 490-8888",
    "fax": "",
    "webSite": ""
  },
  {
    "name": "Burbick, Heather",
    "street": "3101 S Center St Ste 151 ",
    "city": "Arlington",
    "state": "TX",
    "zipCode": "76014-2088",
    "phone": "(817) 466-1200",
    "fax": "",
    "webSite": ""
  },
  {
    "name": "Burch, Dan",
    "street": "3302 Gaston Ave Dept Of Pediatric Dentistry",
    "city": "Dallas",
    "state": "TX",
    "zipCode": "75246-2013",
    "phone": "(214) 828-8375",
    "fax": "",
    "webSite": ""
  },
  {
    "name": "Burch, Jacob Allen",
    "street": "7825 Hwy 6 N, Suite 109 ",
    "city": "Houston",
    "state": "TX",
    "zipCode": "77095",
    "phone": "(281) 463-3538",
    "fax": "(281) 463-3730",
    "webSite": ""
  },
  {
    "name": "Burch, Stacie D",
    "street": "190 Heights Blvd ",
    "city": "Houston",
    "state": "TX",
    "zipCode": "77007-3729",
    "phone": "(713) 529-3597",
    "fax": "(713) 529-9169",
    "webSite": ""
  },
  {
    "name": "Burciaga, Arthur T",
    "street": "7181 Westwind Dr Ste A ",
    "city": "El Paso",
    "state": "TX",
    "zipCode": "79912-1781",
    "phone": "(915) 581-1511",
    "fax": "(915) 581-6049",
    "webSite": ""
  },
  {
    "name": "Burcin, Jennifer Lynn",
    "street": "3305 Northland Dr Ste 515 ",
    "city": "Austin",
    "state": "TX",
    "zipCode": "78731-4991",
    "phone": "(512) 452-9296",
    "fax": "",
    "webSite": ""
  },
  {
    "name": "Burden, David",
    "street": "603 Oak Park Dr ",
    "city": "Round Rock",
    "state": "TX",
    "zipCode": "78681-4087",
    "phone": "(210) 912-4515",
    "fax": "",
    "webSite": ""
  },
  {
    "name": "Burdett, Brady Alan",
    "street": "312 Fm 306 Suite 102",
    "city": "New Braunfels",
    "state": "TX",
    "zipCode": "78130",
    "phone": "(830) 212-4539",
    "fax": "",
    "webSite": ""
  },
  {
    "name": "Burdette, Kerin L",
    "street": "400 E Us Hwy 67 ",
    "city": "Duncanville",
    "state": "TX",
    "zipCode": "75137",
    "phone": "(214) 339-5150",
    "fax": "(214) 339-5151",
    "webSite": ""
  },
  {
    "name": "Burditt, John James",
    "street": "715 Hill Country Dr Ste 6",
    "city": "Kerrville",
    "state": "TX",
    "zipCode": "78028-5965",
    "phone": "(830) 257-7444",
    "fax": "",
    "webSite": ""
  },
  {
    "name": "Burgdorf, Dale A",
    "street": "6190 Lyndon B Johnson Fwy #100",
    "city": "Dallas",
    "state": "TX",
    "zipCode": "75240-6344",
    "phone": "(972) 386-7513",
    "fax": "(972) 490-8282",
    "webSite": ""
  },
  {
    "name": "Burger, Mercedes Lammoglia",
    "street": "4142 Bellaire Blvd ",
    "city": "Houston",
    "state": "TX",
    "zipCode": "77025-1008",
    "phone": "(713) 661-4234",
    "fax": "(713) 661-7625",
    "webSite": ""
  },
  {
    "name": "Burgess And Mason Dds",
    "street": "1105 W Wall St ",
    "city": "Grapevine",
    "state": "TX",
    "zipCode": "76051-5152",
    "phone": "(817) 481-4717",
    "fax": "(817) 488-8335",
    "webSite": ""
  },
  {
    "name": "Burgess, Jerry Watson",
    "street": "1105 W Wall St ",
    "city": "Grapevine",
    "state": "TX",
    "zipCode": "76051-5152",
    "phone": "(817) 481-4717",
    "fax": "",
    "webSite": ""
  },
  {
    "name": "Burgess, Larry Winston",
    "street": "10700 Kuykendahl Rd Ste E ",
    "city": "The Woodlands",
    "state": "TX",
    "zipCode": "77381",
    "phone": "(281) 367-5900",
    "fax": "(281) 292-4370",
    "webSite": ""
  },
  {
    "name": "Burgman, Sandra Furtner",
    "street": "3402 S Gevers ",
    "city": "San Antonio",
    "state": "TX",
    "zipCode": "78210-5414",
    "phone": "(210) 533-6611",
    "fax": "(210) 533-6757",
    "webSite": ""
  },
  {
    "name": "Burk Smiles Pllc",
    "street": "412B South Ave D ",
    "city": "Burkburnett",
    "state": "TX",
    "zipCode": "76354-3542",
    "phone": "(817) 992-7005",
    "fax": "",
    "webSite": ""
  },
  {
    "name": "Burk Smiles Pllc",
    "street": "412 B South Ave D ",
    "city": "Burkburnett",
    "state": "TX",
    "zipCode": "76354",
    "phone": "(559) 779-1083",
    "fax": "",
    "webSite": ""
  },
  {
    "name": "Burk Smiles-Burkburnett Pllc",
    "street": "412 S Avenue D Ste B ",
    "city": "Burkburnett",
    "state": "TX",
    "zipCode": "76354-3542",
    "phone": "(940) 569-2777",
    "fax": "(940) 569-9855",
    "webSite": ""
  },
  {
    "name": "Burk, James L",
    "street": "15307 Fm 1825 Ste 4 ",
    "city": "Pflugerville",
    "state": "TX",
    "zipCode": "78660-3174",
    "phone": "(512) 989-0888",
    "fax": "(512) 989-2728",
    "webSite": ""
  },
  {
    "name": "Burke, Andrea Marie",
    "street": "801 W Park Row Dr ",
    "city": "Arlington",
    "state": "TX",
    "zipCode": "76013-3904",
    "phone": "(817) 584-7328",
    "fax": "",
    "webSite": ""
  },
  {
    "name": "Burke, Dana T.",
    "street": "1109 Northwest Hwy ",
    "city": "Garland",
    "state": "TX",
    "zipCode": "75041-5833",
    "phone": "(602) 909-9952",
    "fax": "",
    "webSite": ""
  },
  {
    "name": "Burke, Denzer",
    "street": "1421 Pine St. ",
    "city": "Texarkana",
    "state": "TX",
    "zipCode": "75501-4413",
    "phone": "(903) 794-9741",
    "fax": "(903) 794-9741",
    "webSite": ""
  },
  {
    "name": "Burke, Kevin Thomas",
    "street": "1304 Kingwood Dr ",
    "city": "Kingwood",
    "state": "TX",
    "zipCode": "77339-3038",
    "phone": "(281) 358-2141",
    "fax": "",
    "webSite": ""
  },
  {
    "name": "Burke, Stephen Gerald",
    "street": "6806 W Military Dr Suite 101",
    "city": "San Antonio",
    "state": "TX",
    "zipCode": "78227-3613",
    "phone": "(210) 674-3122",
    "fax": "(210) 674-3101",
    "webSite": ""
  },
  {
    "name": "Burkert, Elyse Nicole",
    "street": "2268 N Lake Shore Dr Ste 104 ",
    "city": "Rockwall",
    "state": "TX",
    "zipCode": "75087-0280",
    "phone": "(469) 616-0507",
    "fax": "",
    "webSite": ""
  },
  {
    "name": "Burkett, Jason A",
    "street": "4336 N Mccoll Rd ",
    "city": "Mcallen",
    "state": "TX",
    "zipCode": "78504-2477",
    "phone": "(956) 686-5577",
    "fax": "(956) 686-1152",
    "webSite": ""
  },
  {
    "name": "Burkhart, William Paul",
    "street": "511 W 15Th St ",
    "city": "Austin",
    "state": "TX",
    "zipCode": "78701-1511",
    "phone": "(512) 499-0212",
    "fax": "(512) 499-0619",
    "webSite": ""
  },
  {
    "name": "Burkholder, James Edward",
    "street": "1122 E Tyler Ave ",
    "city": "Harlingen",
    "state": "TX",
    "zipCode": "78550-7138",
    "phone": "(956) 428-5566",
    "fax": "",
    "webSite": ""
  },
  {
    "name": "Burleson Dental, Pllc",
    "street": "225 Exchange St Suite D",
    "city": "Burleson",
    "state": "TX",
    "zipCode": "76028-4588",
    "phone": "(817) 426-9337",
    "fax": "",
    "webSite": ""
  },
  {
    "name": "Burleson",
    "street": "185 Nw Jones Drive Suite 600 ",
    "city": "Burleson",
    "state": "TX",
    "zipCode": "76028",
    "phone": "(817) 295-8884",
    "fax": "(817) 447-1132",
    "webSite": ""
  },
  {
    "name": "Burman, Sheridan Nicole Delomel",
    "street": "12201 Renfert Way Suite Number 345",
    "city": "Austin",
    "state": "TX",
    "zipCode": "78758-5354",
    "phone": "(512) 836-3074",
    "fax": "(512) 836-3252",
    "webSite": ""
  },
  {
    "name": "Burnett, Jeffrey T.",
    "street": "15300 Fm 1825 Ste 104B ",
    "city": "Pflugerville",
    "state": "TX",
    "zipCode": "78660-3167",
    "phone": "(512) 251-4121",
    "fax": "(512) 251-3258",
    "webSite": ""
  },
  {
    "name": "Burnett, Robert D",
    "street": "210 E 5Th St ",
    "city": "Tyler",
    "state": "TX",
    "zipCode": "75701-4223",
    "phone": "(903) 597-7721",
    "fax": "(903) 597-6005",
    "webSite": ""
  },
  {
    "name": "Burnham, Richard S",
    "street": "5022 Highway 90A Ste C",
    "city": "Sugar Land",
    "state": "TX",
    "zipCode": "77478-2074",
    "phone": "(281) 340-1333",
    "fax": "(281) 340-1338",
    "webSite": ""
  },
  {
    "name": "Burns, Angela D",
    "street": "3601 S Congress Ave G100",
    "city": "Austin",
    "state": "TX",
    "zipCode": "78704-7250",
    "phone": "(512) 440-5900",
    "fax": "",
    "webSite": ""
  },
  {
    "name": "Burns, Ashley Erin",
    "street": "4214 Andrews Hwy Ste 300 ",
    "city": "Midland",
    "state": "TX",
    "zipCode": "79703-4867",
    "phone": "(432) 697-3333",
    "fax": "",
    "webSite": ""
  },
  {
    "name": "Burnstad, Blake Collier",
    "street": "7013 Kenwell St ",
    "city": "Dallas",
    "state": "TX",
    "zipCode": "75209-4840",
    "phone": "(214) 868-4234",
    "fax": "",
    "webSite": ""
  },
  {
    "name": "Burross Jackson Ratzlaff Dds",
    "street": "5 Eureka Cir Suite A",
    "city": "Wichita Falls",
    "state": "TX",
    "zipCode": "76308-2900",
    "phone": "(940) 691-6066",
    "fax": "(940) 691-6068",
    "webSite": ""
  },
  {
    "name": "Burross, Steven K",
    "street": "#5 Eureka Circle Suite A",
    "city": "Wichita Falls",
    "state": "TX",
    "zipCode": "76308",
    "phone": "(940) 691-6066",
    "fax": "(940) 691-6068",
    "webSite": ""
  },
  {
    "name": "Burroughs, Jack Eugene",
    "street": "349 Park Forest Shopping Ctr ",
    "city": "Dallas",
    "state": "TX",
    "zipCode": "75229-2710",
    "phone": "(214) 350-1425",
    "fax": "(214) 350-0112",
    "webSite": ""
  },
  {
    "name": "Burrow, David K",
    "street": "212 Grande Blvd Suite B-210",
    "city": "Tyler",
    "state": "TX",
    "zipCode": "75703-4226",
    "phone": "(903) 561-1610",
    "fax": "(903) 561-1814",
    "webSite": ""
  },
  {
    "name": "Burrows, Jonathan Marc",
    "street": "508 Texas Highway 37 S ",
    "city": "Mt Vernon",
    "state": "TX",
    "zipCode": "75457-6550",
    "phone": "(801) 616-1135",
    "fax": "",
    "webSite": ""
  },
  {
    "name": "Burton, Christopher",
    "street": "333 N Rivershire Dr Suite 280",
    "city": "Conroe",
    "state": "TX",
    "zipCode": "77304-0001",
    "phone": "(936) 756-9884",
    "fax": "",
    "webSite": ""
  },
  {
    "name": "Burton, Edward A",
    "street": "308 S Main St ",
    "city": "Lockhart",
    "state": "TX",
    "zipCode": "78644-2752",
    "phone": "(512) 398-6122",
    "fax": "(512) 398-2303",
    "webSite": ""
  },
  {
    "name": "Busby, Robert Stanford",
    "street": "5282 Medical Dr Ste 430",
    "city": "San Antonio",
    "state": "TX",
    "zipCode": "78229-4849",
    "phone": "(210) 614-3898",
    "fax": "",
    "webSite": ""
  },
  {
    "name": "Busch, Jeffrey",
    "street": "9660 Hillcroft St Ste 340",
    "city": "Houston",
    "state": "TX",
    "zipCode": "77096-3856",
    "phone": "(713) 728-9333",
    "fax": "(713) 726-0620",
    "webSite": ""
  },
  {
    "name": "Bushong, Perry Joseph",
    "street": "4 Dominion Dr Bldg 5-250 ",
    "city": "San Antonio",
    "state": "TX",
    "zipCode": "78257-1405",
    "phone": "(210) 687-1150",
    "fax": "(210) 687-1120",
    "webSite": ""
  },
  {
    "name": "Bustos, Penelope",
    "street": "3737 Cole Ave Apt 264 ",
    "city": "Dallas",
    "state": "TX",
    "zipCode": "75204-4529",
    "phone": "(214) 336-8365",
    "fax": "",
    "webSite": ""
  },
  {
    "name": "Butcher, Mackenzie Anne",
    "street": "1821 S Valley Mills Dr Ste 195 ",
    "city": "Waco",
    "state": "TX",
    "zipCode": "76711-2123",
    "phone": "(254) 870-1440",
    "fax": "",
    "webSite": ""
  },
  {
    "name": "Butcher, Michael L.",
    "street": "4419 Frontier Trl Suite 104",
    "city": "Austin",
    "state": "TX",
    "zipCode": "78745-1686",
    "phone": "(512) 444-1133",
    "fax": "(512) 445-0552",
    "webSite": ""
  },
  {
    "name": "Butcher, Richard Mark",
    "street": "11612 Fm 2244 Suite 2-155",
    "city": "Austin",
    "state": "TX",
    "zipCode": "78738-5409",
    "phone": "(512) 263-7896",
    "fax": "(512) 263-7896",
    "webSite": ""
  },
  {
    "name": "Butko, Nathaniel Kiyoshi",
    "street": "128 Chaffee Road ",
    "city": "Fort Bliss",
    "state": "TX",
    "zipCode": "79906-3811",
    "phone": "(915) 568-5001",
    "fax": "",
    "webSite": ""
  },
  {
    "name": "Butler, Barry Leon",
    "street": "3613 Main St ",
    "city": "Rowlett",
    "state": "TX",
    "zipCode": "75088-5003",
    "phone": "(972) 475-3995",
    "fax": "(972) 463-4298",
    "webSite": ""
  },
  {
    "name": "Butler, David A.",
    "street": "601 E. Whitestone Bvld Suite 206",
    "city": "Cedar Park",
    "state": "TX",
    "zipCode": "78613",
    "phone": "(512) 260-8556",
    "fax": "(512) 260-8578",
    "webSite": ""
  },
  {
    "name": "Butler, Todd David",
    "street": "6200 Saratoga Blvd Bldg 1",
    "city": "Corpus Christi",
    "state": "TX",
    "zipCode": "78414-3477",
    "phone": "(361) 992-9500",
    "fax": "",
    "webSite": ""
  },
  {
    "name": "Buttross, Mylene",
    "street": "7901 Research Forest Drive Suite 800",
    "city": "The Woodlands",
    "state": "TX",
    "zipCode": "77382-1509",
    "phone": "(832) 585-0330",
    "fax": "(832) 585-0337",
    "webSite": ""
  },
  {
    "name": "Bux, Stephen Alan",
    "street": "12840 Hillcrest Rd. Suite 205",
    "city": "Dallas",
    "state": "TX",
    "zipCode": "75230-6578",
    "phone": "(972) 788-2112",
    "fax": "",
    "webSite": ""
  },
  {
    "name": "Byler, Chad Everette",
    "street": "201 Hunters Crossing Blvd Suite 16",
    "city": "Bastrop",
    "state": "TX",
    "zipCode": "78602-3972",
    "phone": "(512) 308-9860",
    "fax": "(512) 308-9862",
    "webSite": ""
  },
  {
    "name": "Byrd, Dan E",
    "street": "707 Turtle Creek Drive ",
    "city": "Tyler",
    "state": "TX",
    "zipCode": "75701",
    "phone": "(903) 597-8346",
    "fax": "(903) 597-4583",
    "webSite": ""
  },
  {
    "name": "C And S Dental, Pllc",
    "street": "15731 Fm 2920 Rd ",
    "city": "Tomball",
    "state": "TX",
    "zipCode": "77377-6149",
    "phone": "(281) 516-9919",
    "fax": "(281) 516-1750",
    "webSite": ""
  },
  {
    "name": "C Michael Altman Dds Pc",
    "street": "1306 South Blue Bell Road ",
    "city": "Brenham",
    "state": "TX",
    "zipCode": "77833",
    "phone": "(979) 836-6767",
    "fax": "(979) 836-5604",
    "webSite": ""
  },
  {
    "name": "Rufe Snow Dental Group",
    "street": "5757 Rufe Snow Dr Ste A",
    "city": "North Richland Hills",
    "state": "TX",
    "zipCode": "76180",
    "phone": "(817) 281-1764",
    "fax": "(817) 281-0675",
    "webSite": ""
  },
  {
    "name": "C. Caleb Spurlock, Dds, Pllc",
    "street": "1203 W Dogwood St ",
    "city": "Woodville",
    "state": "TX",
    "zipCode": "75979-4756",
    "phone": "(409) 283-3721",
    "fax": "(409) 283-5448",
    "webSite": ""
  },
  {
    "name": "C. Fred Glazener, D.D.S., Inc",
    "street": "2681 State Highway 361 ",
    "city": "Ingleside",
    "state": "TX",
    "zipCode": "78362-4200",
    "phone": "(361) 776-3535",
    "fax": "(866) 766-2629",
    "webSite": ""
  },
  {
    "name": "C.C. Trejo D.D.S., P.A.",
    "street": "2600 S Gessner Rd Suite 304",
    "city": "Houston",
    "state": "TX",
    "zipCode": "77063-3200",
    "phone": "(713) 785-4867",
    "fax": "(713) 785-1191",
    "webSite": ""
  },
  {
    "name": "C.D. Cantu D.D.S. Inc",
    "street": "7444 Harrisburg Blvd ",
    "city": "Houston",
    "state": "TX",
    "zipCode": "77011-4741",
    "phone": "(713) 926-5144",
    "fax": "(713) 926-5235",
    "webSite": ""
  },
  {
    "name": "Caballero Dds, Cedar Park, Pc",
    "street": "1201 North Bell Blvd Suite 102",
    "city": "Cedar Park",
    "state": "TX",
    "zipCode": "78613",
    "phone": "(512) 945-3204",
    "fax": "",
    "webSite": ""
  },
  {
    "name": "Brush 32 Dental",
    "street": "110 North I-35 Suite 380",
    "city": "Round Rock",
    "state": "TX",
    "zipCode": "78681",
    "phone": "(512) 462-3232",
    "fax": "",
    "webSite": ""
  },
  {
    "name": "Cabaniss, William Smith",
    "street": "920 N Main St ",
    "city": "Taylor",
    "state": "TX",
    "zipCode": "76574-3230",
    "phone": "(512) 352-5577",
    "fax": "(512) 352-7416",
    "webSite": ""
  },
  {
    "name": "Cabaza, Judy S",
    "street": "7272 Wurzbach Rd Suite #1201",
    "city": "San Antonio",
    "state": "TX",
    "zipCode": "78240",
    "phone": "(210) 615-2319",
    "fax": "(210) 615-2338",
    "webSite": ""
  },
  {
    "name": "Cabrera & Shere Pllc",
    "street": "6318 Fm 1488 Rd Ste 120 ",
    "city": "Magnolia",
    "state": "TX",
    "zipCode": "77354-2763",
    "phone": "(713) 899-1789",
    "fax": "",
    "webSite": ""
  },
  {
    "name": "Cabrera, Diana Olivia",
    "street": "1601 E Alton Gloor Blvd #108",
    "city": "Brownsville",
    "state": "TX",
    "zipCode": "78526-3902",
    "phone": "(956) 542-1956",
    "fax": "",
    "webSite": ""
  },
  {
    "name": "Cabrera, Jesus Enrique",
    "street": "2360 County Road 94 Ste 110 ",
    "city": "Pearland",
    "state": "TX",
    "zipCode": "77584-5135",
    "phone": "(713) 436-7697",
    "fax": "",
    "webSite": ""
  },
  {
    "name": "Cabrera, Rodrigo Javier",
    "street": "10065 Almeda Genoa Rd Ste J ",
    "city": "Houston",
    "state": "TX",
    "zipCode": "77075-2417",
    "phone": "(832) 308-1921",
    "fax": "",
    "webSite": ""
  },
  {
    "name": "Cliff Dental Clinic",
    "street": "501 Cliff Dr ",
    "city": "Graham",
    "state": "TX",
    "zipCode": "76450-3327",
    "phone": "(940) 549-6092",
    "fax": "(940) 549-3970",
    "webSite": ""
  },
  {
    "name": "Cadena, Louis H",
    "street": "606 N Bedell Ave ",
    "city": "Del Rio",
    "state": "TX",
    "zipCode": "78840",
    "phone": "(830) 775-3322",
    "fax": "(830) 774-2021",
    "webSite": ""
  },
  {
    "name": "Caffey-Earle, Christy",
    "street": "3301 Long Prairie Rd Ste.110",
    "city": "Flower Mound",
    "state": "TX",
    "zipCode": "75022-2702",
    "phone": "(972) 874-1200",
    "fax": "(972) 874-9332",
    "webSite": ""
  },
  {
    "name": "Caglia, Robert Anthony",
    "street": "9155 Boulevard 26 Suite 290",
    "city": "North Richland Hills",
    "state": "TX",
    "zipCode": "76180-5671",
    "phone": "(214) 824-6468",
    "fax": "",
    "webSite": ""
  },
  {
    "name": "Cain, Julien",
    "street": "3701 Kirby Dr Suite 550",
    "city": "Houston",
    "state": "TX",
    "zipCode": "77098-3900",
    "phone": "(281) 494-4449",
    "fax": "",
    "webSite": ""
  },
  {
    "name": "Cain, Sara Rikli",
    "street": "8461 Boat Club Rd ",
    "city": "Fort Worth",
    "state": "TX",
    "zipCode": "75179",
    "phone": "(817) 236-8771",
    "fax": "(817) 236-9791",
    "webSite": ""
  },
  {
    "name": "Calabria, Patricia Ann",
    "street": "4013 Gateway Dr ",
    "city": "Colleyville",
    "state": "TX",
    "zipCode": "76034-5917",
    "phone": "(817) 858-6333",
    "fax": "(817) 868-0068",
    "webSite": ""
  },
  {
    "name": "Calahan, William David",
    "street": "3652 N Dixie Blvd ",
    "city": "Odessa",
    "state": "TX",
    "zipCode": "79762-6845",
    "phone": "(432) 552-0011",
    "fax": "(432) 367-3371",
    "webSite": ""
  },
  {
    "name": "Calallen Dental & Orthodontics",
    "street": "14101 Northwest Blvd Ste 111 ",
    "city": "Corpus Christi",
    "state": "TX",
    "zipCode": "78410",
    "phone": "(361) 450-6700",
    "fax": "(361) 450-6664",
    "webSite": ""
  },
  {
    "name": "Caldarola, Peter Michael",
    "street": "540 Madisonoak Suite441 ",
    "city": "San Antonio",
    "state": "TX",
    "zipCode": "78258",
    "phone": "(210) 545-2707",
    "fax": "",
    "webSite": ""
  },
  {
    "name": "Caldeira-Irish, Kicha",
    "street": "302 N. Butler ",
    "city": "Karnes City",
    "state": "TX",
    "zipCode": "78118-2801",
    "phone": "(830) 780-3600",
    "fax": "(830) 780-3730",
    "webSite": ""
  },
  {
    "name": "Calder, Hamilton",
    "street": "5505 Louetta Rd Suite A",
    "city": "Spring",
    "state": "TX",
    "zipCode": "77379-7870",
    "phone": "(281) 376-4533",
    "fax": "",
    "webSite": ""
  },
  {
    "name": "Calderon, Gwendolyn Taylor",
    "street": "4158 Swans Lndg ",
    "city": "San Antonio",
    "state": "TX",
    "zipCode": "78217-4239",
    "phone": "(210) 655-4867",
    "fax": "",
    "webSite": ""
  },
  {
    "name": "Calderon, Luis E",
    "street": "9004 Forest Crossing Dr Suite F ",
    "city": "The Woodlands",
    "state": "TX",
    "zipCode": "77381",
    "phone": "(281) 363-0642",
    "fax": "(281) 364-7947",
    "webSite": ""
  },
  {
    "name": "Caldwell, Christopher Ryan",
    "street": "25450 Kuykendahl Rd ",
    "city": "Tomball",
    "state": "TX",
    "zipCode": "77375-3437",
    "phone": "(832) 791-1010",
    "fax": "",
    "webSite": ""
  },
  {
    "name": "Caldwell, Ronald John",
    "street": "1144 Airport Blvd Ste 240 ",
    "city": "Austin",
    "state": "TX",
    "zipCode": "78702-3165",
    "phone": "(512) 929-7888",
    "fax": "(512) 929-8091",
    "webSite": ""
  },
  {
    "name": "Calender, Kurt Marshall",
    "street": "2001 W Southlake Blvd Suite #115",
    "city": "Southlake",
    "state": "TX",
    "zipCode": "76092-6748",
    "phone": "(817) 442-8282",
    "fax": "(817) 442-8211",
    "webSite": ""
  },
  {
    "name": "Calhoon, Jan Keith",
    "street": "14115 Josey Ln Suite 300",
    "city": "Dallas",
    "state": "TX",
    "zipCode": "75234-3561",
    "phone": "(972) 241-8442",
    "fax": "(972) 241-8442",
    "webSite": ""
  },
  {
    "name": "Callahan, Jonathan Howard",
    "street": "5892 Eastex Fwy Ste B ",
    "city": "Beaumont",
    "state": "TX",
    "zipCode": "77708-4824",
    "phone": "(409) 892-2991",
    "fax": "",
    "webSite": ""
  },
  {
    "name": "Callis, Amber",
    "street": "103 Fluor Daniel Drive ",
    "city": "Sugar Land",
    "state": "TX",
    "zipCode": "77478",
    "phone": "(713) 272-0036",
    "fax": "(713) 272-7616",
    "webSite": ""
  },
  {
    "name": "Callison, Randall L",
    "street": "1401 S Washington St ",
    "city": "Kaufman",
    "state": "TX",
    "zipCode": "75142-3137",
    "phone": "(972) 932-2311",
    "fax": "(972) 932-4767",
    "webSite": ""
  },
  {
    "name": "Calm Dentistry Arlington Pllc",
    "street": "2011 W Bardin Rd ",
    "city": "Arlington",
    "state": "TX",
    "zipCode": "76017-1654",
    "phone": "(817) 557-0025",
    "fax": "",
    "webSite": ""
  },
  {
    "name": "Caltex Dental",
    "street": "6073 Highway 6 N A",
    "city": "Houston",
    "state": "TX",
    "zipCode": "77084-7531",
    "phone": "(281) 345-2345",
    "fax": "(281) 345-2344",
    "webSite": ""
  },
  {
    "name": "Caltex Dental",
    "street": "2466 Highway 6 S ",
    "city": "Houston",
    "state": "TX",
    "zipCode": "77077-5251",
    "phone": "(281) 556-8400",
    "fax": "(281) 556-8430",
    "webSite": ""
  },
  {
    "name": "Calvin Eastwood Dds Pllc",
    "street": "3088 Basswood Blvd # 150 ",
    "city": "Fort Worth",
    "state": "TX",
    "zipCode": "76137-1676",
    "phone": "(620) 491-1388",
    "fax": "",
    "webSite": ""
  },
  {
    "name": "Cam Janse D.D.S. P.C",
    "street": "9820 Braun Rd Suite #102",
    "city": "San Antonio",
    "state": "TX",
    "zipCode": "78254",
    "phone": "(210) 523-2400",
    "fax": "",
    "webSite": ""
  },
  {
    "name": "Camacho, Ximena Alexandra",
    "street": "1901 E Main St ",
    "city": "League City",
    "state": "TX",
    "zipCode": "77573-4242",
    "phone": "(281) 332-6323",
    "fax": "",
    "webSite": ""
  },
  {
    "name": "Camarata, Nicholas",
    "street": "1113 Alma St ",
    "city": "Tomball",
    "state": "TX",
    "zipCode": "77375-4518",
    "phone": "(281) 351-0005",
    "fax": "",
    "webSite": ""
  },
  {
    "name": "Cambridge, Joshua M",
    "street": "101 E High St ",
    "city": "Terrell",
    "state": "TX",
    "zipCode": "75160-2644",
    "phone": "(903) 455-1477",
    "fax": "",
    "webSite": ""
  },
  {
    "name": "Camino, Carlos",
    "street": "4470 W Jefferson Blvd Ste 500 ",
    "city": "Dallas",
    "state": "TX",
    "zipCode": "75211-4616",
    "phone": "(214) 420-7008",
    "fax": "(214) 420-7002",
    "webSite": ""
  },
  {
    "name": "Cammer, Timothy J",
    "street": "2310 E Saunders St Ste 102",
    "city": "Laredo",
    "state": "TX",
    "zipCode": "78041-5435",
    "phone": "(956) 717-9300",
    "fax": "(956) 717-9307",
    "webSite": ""
  },
  {
    "name": "Camp & Bentley General Dentistry Pa",
    "street": "2301 E Villa Maria Rd ",
    "city": "Bryan",
    "state": "TX",
    "zipCode": "77802-2550",
    "phone": "(979) 776-1838",
    "fax": "(979) 774-2808",
    "webSite": ""
  },
  {
    "name": "Camp Bowie Smiles Pllc",
    "street": "9112 Camp Bowie West Blvd ",
    "city": "Fort Worth",
    "state": "TX",
    "zipCode": "76116-6099",
    "phone": "(617) 771-2784",
    "fax": "",
    "webSite": ""
  },
  {
    "name": "Asana Dental",
    "street": "2220 Coit Rd 570",
    "city": "Plano",
    "state": "TX",
    "zipCode": "75075-3797",
    "phone": "(972) 964-6500",
    "fax": "",
    "webSite": ""
  },
  {
    "name": "Camp, Mary Grace",
    "street": "8143 Agora Pkwy Suite 105",
    "city": "Selma",
    "state": "TX",
    "zipCode": "78154-1341",
    "phone": "(210) 585-2055",
    "fax": "",
    "webSite": ""
  },
  {
    "name": "Camp, Michelle Bentley",
    "street": "2301 E Villa Maria Rd ",
    "city": "Bryan",
    "state": "TX",
    "zipCode": "77802-2550",
    "phone": "(979) 776-1838",
    "fax": "",
    "webSite": ""
  },
  {
    "name": "Campagna, Thomas Baxter",
    "street": "3722 N Loop 250 W ",
    "city": "Midland",
    "state": "TX",
    "zipCode": "79707",
    "phone": "(432) 694-1659",
    "fax": "(432) 520-0720",
    "webSite": ""
  },
  {
    "name": "Campbell, Bryce Alan",
    "street": "4416 Foxtail Ln ",
    "city": "Plano",
    "state": "TX",
    "zipCode": "75024-4821",
    "phone": "(972) 208-8440",
    "fax": "(972) 208-8442",
    "webSite": ""
  },
  {
    "name": "Campbell, Casey D",
    "street": "833 Landa St ",
    "city": "New Braunfels",
    "state": "TX",
    "zipCode": "78130-6115",
    "phone": "(830) 625-9711",
    "fax": "",
    "webSite": ""
  },
  {
    "name": "Campbell, Charles Emery",
    "street": "2426 Center St ",
    "city": "Deer Park",
    "state": "TX",
    "zipCode": "77536-4902",
    "phone": "(281) 479-0852",
    "fax": "(281) 479-0852",
    "webSite": ""
  },
  {
    "name": "Campbell, Collin Bishop",
    "street": "734 N Grand Ave ",
    "city": "Gainesville",
    "state": "TX",
    "zipCode": "76240-3518",
    "phone": "(940) 668-9000",
    "fax": "(940) 668-9001",
    "webSite": ""
  },
  {
    "name": "Campbell, David Bennett",
    "street": "3200 Broadway Blvd Suite 340",
    "city": "Garland",
    "state": "TX",
    "zipCode": "75043-1573",
    "phone": "(972) 864-8119",
    "fax": "(972) 926-0630",
    "webSite": ""
  },
  {
    "name": "Campbell, David M.",
    "street": "2014 Justin Rd Ste 110 ",
    "city": "Highland Village",
    "state": "TX",
    "zipCode": "75077-7182",
    "phone": "(972) 317-3000",
    "fax": "",
    "webSite": ""
  },
  {
    "name": "Campbell, Henry A",
    "street": "3730 N Josey Ln Ste 102 ",
    "city": "Carrollton",
    "state": "TX",
    "zipCode": "75007-2486",
    "phone": "(972) 939-2888",
    "fax": "(972) 939-2891",
    "webSite": ""
  },
  {
    "name": "Campbell, Jarrod D",
    "street": "11901 W Parmer Ln Ste 100 ",
    "city": "Cedar Park",
    "state": "TX",
    "zipCode": "78613-7652",
    "phone": "(512) 259-9400",
    "fax": "",
    "webSite": ""
  },
  {
    "name": "Campbell, Jolie Relyea",
    "street": "791 Town And Country Blvd. Suite 222",
    "city": "Houston",
    "state": "TX",
    "zipCode": "77024",
    "phone": "(713) 467-3458",
    "fax": "",
    "webSite": ""
  },
  {
    "name": "Campbell, Minah Kim",
    "street": "545 Hwy 377 North, Suite #103 ",
    "city": "Whitesboro",
    "state": "TX",
    "zipCode": "76273",
    "phone": "(903) 564-4600",
    "fax": "",
    "webSite": ""
  },
  {
    "name": "Campbell, Patrick",
    "street": "39033 Support Ave ",
    "city": "Ft. Hood",
    "state": "TX",
    "zipCode": "76544",
    "phone": "(254) 287-1225",
    "fax": "",
    "webSite": ""
  },
  {
    "name": "Campbell, Richard J",
    "street": "3435 S Alameda St Ste A ",
    "city": "Corpus Christi",
    "state": "TX",
    "zipCode": "78411-1797",
    "phone": "(361) 853-0381",
    "fax": "(361) 853-1681",
    "webSite": ""
  },
  {
    "name": "Campbell, Tiffany",
    "street": "15521 Aldine Westfield Rd ",
    "city": "Houston",
    "state": "TX",
    "zipCode": "77032-2007",
    "phone": "(352) 328-0365",
    "fax": "(352) 328-0365",
    "webSite": ""
  },
  {
    "name": "Campos Family Dental Pc",
    "street": "3715 Sw Military Dr ",
    "city": "San Antonio",
    "state": "TX",
    "zipCode": "78211-3514",
    "phone": "(210) 532-1166",
    "fax": "",
    "webSite": ""
  },
  {
    "name": "Campos Family Dental, P. C.",
    "street": "5715 Evers Rd ",
    "city": "San Antonio",
    "state": "TX",
    "zipCode": "78238-1718",
    "phone": "(210) 523-6188",
    "fax": "(210) 523-7291",
    "webSite": ""
  },
  {
    "name": "Dresden Dental",
    "street": "5250 Blanco Rd ",
    "city": "San Antonio",
    "state": "TX",
    "zipCode": "78216-7017",
    "phone": "(210) 349-3368",
    "fax": "(210) 349-2473",
    "webSite": ""
  },
  {
    "name": "Campos Family Dental, P.C.",
    "street": "4351 Callaghan Rd Ste 1 ",
    "city": "San Antonio",
    "state": "TX",
    "zipCode": "78228-3414",
    "phone": "(210) 680-9544",
    "fax": "(210) 680-2601",
    "webSite": ""
  },
  {
    "name": "Campos Family Dental, P.C.",
    "street": "5563 De Zavala Rd Ste 160 ",
    "city": "San Antonio",
    "state": "TX",
    "zipCode": "78249-1738",
    "phone": "(210) 696-7885",
    "fax": "",
    "webSite": ""
  },
  {
    "name": "Campos Family Dental, P.C.",
    "street": "2020 Pleasanton Rd ",
    "city": "San Antonio",
    "state": "TX",
    "zipCode": "78221-1305",
    "phone": "(210) 922-2765",
    "fax": "",
    "webSite": ""
  },
  {
    "name": "Campos Family Dental, P.C.",
    "street": "6140 Wurzbach Road ",
    "city": "San Antonio",
    "state": "TX",
    "zipCode": "78238",
    "phone": "(210) 523-6188",
    "fax": "",
    "webSite": ""
  },
  {
    "name": "Campos Family Dental, P.C.",
    "street": "230 W Bandera Rd ",
    "city": "Boerne",
    "state": "TX",
    "zipCode": "78006-2805",
    "phone": "(830) 816-5228",
    "fax": "(830) 816-5113",
    "webSite": ""
  },
  {
    "name": "Campos Family Dental. P.C,",
    "street": "1313 Guadalupe St Ste 106 ",
    "city": "San Antonio",
    "state": "TX",
    "zipCode": "78207-5554",
    "phone": "(210) 212-3900",
    "fax": "",
    "webSite": ""
  },
  {
    "name": "Campos, Roger S",
    "street": "5250 Blanco Rd ",
    "city": "San Antonio",
    "state": "TX",
    "zipCode": "78216-7017",
    "phone": "(210) 349-3368",
    "fax": "",
    "webSite": ""
  },
  {
    "name": "Canada, Shelley Lynn",
    "street": "8556 Katy Fwy Ste 100 ",
    "city": "Houston",
    "state": "TX",
    "zipCode": "77024-1806",
    "phone": "(713) 957-8668",
    "fax": "(713) 957-3441",
    "webSite": ""
  },
  {
    "name": "Canales Dental Pa",
    "street": "1001 Highland Park Suite G",
    "city": "Mission",
    "state": "TX",
    "zipCode": "78572",
    "phone": "(956) 585-1711",
    "fax": "(956) 584-8529",
    "webSite": ""
  },
  {
    "name": "Canales, Ellysse",
    "street": "323 Nw 24Th St ",
    "city": "San Antonio",
    "state": "TX",
    "zipCode": "78207-3209",
    "phone": "(210) 436-6261",
    "fax": "(210) 436-7126",
    "webSite": ""
  },
  {
    "name": "Canales, Tomas Adolfo",
    "street": "1001 Highland Park Ave Ste G",
    "city": "Mission",
    "state": "TX",
    "zipCode": "78572-4452",
    "phone": "(956) 585-4341",
    "fax": "(956) 584-8529",
    "webSite": ""
  },
  {
    "name": "Candds Dental Company Pllc",
    "street": "145 W Fm 1382 Ste 100 ",
    "city": "Cedar Hill",
    "state": "TX",
    "zipCode": "75104-5804",
    "phone": "(972) 291-0800",
    "fax": "(972) 291-0801",
    "webSite": ""
  },
  {
    "name": "Candelario, Ivan",
    "street": "9909 Kenworthy St ",
    "city": "El Paso",
    "state": "TX",
    "zipCode": "79924-4404",
    "phone": "(915) 755-7639",
    "fax": "(915) 755-0060",
    "webSite": ""
  },
  {
    "name": "Canfield, David William",
    "street": "14742 Fm 981 ",
    "city": "Blue Ridge",
    "state": "TX",
    "zipCode": "75424-3551",
    "phone": "(214) 384-0796",
    "fax": "",
    "webSite": ""
  },
  {
    "name": "Cannon, Calvin Douglas",
    "street": "1303 W Duval St ",
    "city": "Troup",
    "state": "TX",
    "zipCode": "75789-1509",
    "phone": "(903) 842-4600",
    "fax": "(903) 842-4600",
    "webSite": ""
  },
  {
    "name": "Cannon, Clay",
    "street": "202 Shelley Dr ",
    "city": "Tyler",
    "state": "TX",
    "zipCode": "75701-8725",
    "phone": "(903) 561-8600",
    "fax": "",
    "webSite": ""
  },
  {
    "name": "Cannon, Milton Van",
    "street": "7551 Oakmont Blvd ",
    "city": "Fort Worth",
    "state": "TX",
    "zipCode": "76132",
    "phone": "(817) 292-9348",
    "fax": "(817) 292-9397",
    "webSite": ""
  },
  {
    "name": "Cano, Felix Helio",
    "street": "434 Highway 199 East ",
    "city": "Springtown",
    "state": "TX",
    "zipCode": "76082",
    "phone": "(817) 523-5963",
    "fax": "(817) 220-5963",
    "webSite": ""
  },
  {
    "name": "Cano, Valerie Marie",
    "street": "7223 Crosswater ",
    "city": "Tyler",
    "state": "TX",
    "zipCode": "75703-0719",
    "phone": "(903) 561-0533",
    "fax": "",
    "webSite": ""
  },
  {
    "name": "Canto, Amanda E",
    "street": "1900 West Loop South Suite 810",
    "city": "Houston",
    "state": "TX",
    "zipCode": "77027",
    "phone": "(713) 622-1977",
    "fax": "(713) 622-3148",
    "webSite": ""
  },
  {
    "name": "Cantrell, Jonathan",
    "street": "6243 Retail Rd Suite 100",
    "city": "Dallas",
    "state": "TX",
    "zipCode": "75231-7808",
    "phone": "(214) 368-3384",
    "fax": "",
    "webSite": ""
  },
  {
    "name": "Cantrell, Sarah Lynn",
    "street": "3600 Gus Thomasson Rd Ste. #127",
    "city": "Mesquite",
    "state": "TX",
    "zipCode": "75150-6200",
    "phone": "(214) 275-4720",
    "fax": "",
    "webSite": ""
  },
  {
    "name": "Cantu, Chris Donald",
    "street": "5616 Lawndale A-204 ",
    "city": "Houston",
    "state": "TX",
    "zipCode": "77023",
    "phone": "(713) 926-5144",
    "fax": "(713) 923-2339",
    "webSite": ""
  },
  {
    "name": "Cantu, Daniel",
    "street": "1415 North Loop W Suite 920",
    "city": "Houston",
    "state": "TX",
    "zipCode": "77008-1664",
    "phone": "(832) 316-0002",
    "fax": "",
    "webSite": ""
  },
  {
    "name": "Cantu, Irma Irene",
    "street": "5460 Babcock Rd Ste 105 ",
    "city": "San Antonio",
    "state": "TX",
    "zipCode": "78240-3400",
    "phone": "(210) 694-4999",
    "fax": "(210) 923-2974",
    "webSite": ""
  },
  {
    "name": "Cantu, Mark Justin",
    "street": "4701 Staggerbrush Rd Apt 2414 ",
    "city": "Austin",
    "state": "TX",
    "zipCode": "78749-1053",
    "phone": "(512) 739-5229",
    "fax": "",
    "webSite": ""
  },
  {
    "name": "Cantu, Norberto",
    "street": "204 E 2Nd St ",
    "city": "Rio Grande City",
    "state": "TX",
    "zipCode": "78582-3804",
    "phone": "(956) 487-4746",
    "fax": "(956) 487-4468",
    "webSite": ""
  },
  {
    "name": "Cantu, Rose",
    "street": "11241 Veterans Memorial Dr ",
    "city": "Houston",
    "state": "TX",
    "zipCode": "77067-3757",
    "phone": "(281) 580-8026",
    "fax": "(281) 580-9383",
    "webSite": ""
  },
  {
    "name": "Cantu, Willie",
    "street": "13133 Nw Military Hwy Ste. 500",
    "city": "San Antonio",
    "state": "TX",
    "zipCode": "78231-1813",
    "phone": "(210) 479-7500",
    "fax": "(210) 479-7585",
    "webSite": ""
  },
  {
    "name": "Cantu-Petty, Beatriz",
    "street": "9262 Culebra Rd 107",
    "city": "San Antonio",
    "state": "TX",
    "zipCode": "78251-3571",
    "phone": "(210) 680-0860",
    "fax": "(210) 680-0861",
    "webSite": ""
  },
  {
    "name": "Cantwell, Devin",
    "street": "225 Exchange St Ste D ",
    "city": "Burleson",
    "state": "TX",
    "zipCode": "76028-4588",
    "phone": "(817) 426-9337",
    "fax": "",
    "webSite": ""
  },
  {
    "name": "Canvas Dental",
    "street": "8517 Fm 1826 Bldg 1 St 500",
    "city": "Austin",
    "state": "TX",
    "zipCode": "78737",
    "phone": "(512) 646-4505",
    "fax": "(512) 646-4128",
    "webSite": ""
  },
  {
    "name": "Canyon Creek Family Dentistry Plano, Pllc",
    "street": "7224 Independence Pkwy Suite # 312",
    "city": "Plano",
    "state": "TX",
    "zipCode": "75025-5759",
    "phone": "(972) 312-1718",
    "fax": "",
    "webSite": ""
  },
  {
    "name": "Canyon Creek Family Dentistry, P.A.",
    "street": "2091 N Collins Blvd Ste 100 ",
    "city": "Richardson",
    "state": "TX",
    "zipCode": "75080-2636",
    "phone": "(972) 644-3800",
    "fax": "(972) 644-3888",
    "webSite": ""
  },
  {
    "name": "Canyon Golf Family Dentistry",
    "street": "20210 Stone Oak Pkwy 209",
    "city": "San Antonio",
    "state": "TX",
    "zipCode": "78258",
    "phone": "(210) 787-2062",
    "fax": "",
    "webSite": ""
  },
  {
    "name": "Canyon Lake Dental Pllc",
    "street": "8565 Fm 2673 ",
    "city": "Canyon Lake",
    "state": "TX",
    "zipCode": "78133-4908",
    "phone": "(903) 360-8657",
    "fax": "",
    "webSite": ""
  },
  {
    "name": "Cao, Andy Trong",
    "street": "2819 Larkdale Dr ",
    "city": "Pearland",
    "state": "TX",
    "zipCode": "77584-7084",
    "phone": "(832) 274-4399",
    "fax": "",
    "webSite": ""
  },
  {
    "name": "Cao, Bich Lien Thi",
    "street": "3125 Matlock Rd Suite 103",
    "city": "Arlington",
    "state": "TX",
    "zipCode": "76015-2920",
    "phone": "(817) 795-5690",
    "fax": "(817) 465-9899",
    "webSite": ""
  },
  {
    "name": "Cao, Christopher",
    "street": "8800 Long Point Rd Ste A ",
    "city": "Houston",
    "state": "TX",
    "zipCode": "77055-3015",
    "phone": "(713) 584-0959",
    "fax": "",
    "webSite": ""
  },
  {
    "name": "Cao, Michael",
    "street": "9203 Highway 6 S ",
    "city": "Houston",
    "state": "TX",
    "zipCode": "77083-6386",
    "phone": "(281) 564-8100",
    "fax": "",
    "webSite": ""
  },
  {
    "name": "Capital City Smiles, Pllc",
    "street": "7320 N Mo Pac Expy Ste 200 ",
    "city": "Austin",
    "state": "TX",
    "zipCode": "78731-2309",
    "phone": "(512) 345-5885",
    "fax": "",
    "webSite": ""
  },
  {
    "name": "Capital Dental Care",
    "street": "2302 Sam Rayburn Highway Ste 100",
    "city": "Melissa",
    "state": "TX",
    "zipCode": "75454",
    "phone": "(972) 590-8809",
    "fax": "",
    "webSite": ""
  },
  {
    "name": "Capstone Dental Care Pc",
    "street": "1517 Brookleaf Dr. ",
    "city": "Arlington",
    "state": "TX",
    "zipCode": "76018",
    "phone": "(972) 358-4877",
    "fax": "(469) 574-5138",
    "webSite": ""
  },
  {
    "name": "Caraballo, Amaris",
    "street": "711 W 38Th St Ste E4 ",
    "city": "Austin",
    "state": "TX",
    "zipCode": "78705",
    "phone": "(512) 479-6633",
    "fax": "",
    "webSite": ""
  },
  {
    "name": "Caragea, Marius",
    "street": "21212 Kuykendahl Rd ",
    "city": "Spring",
    "state": "TX",
    "zipCode": "77379-2605",
    "phone": "(832) 618-9812",
    "fax": "",
    "webSite": ""
  },
  {
    "name": "Caram, Santiago Julio",
    "street": "4718 Ingersoll St ",
    "city": "Houston",
    "state": "TX",
    "zipCode": "77027-6602",
    "phone": "(713) 450-2900",
    "fax": "",
    "webSite": ""
  },
  {
    "name": "Caranto, Mark E",
    "street": "9567 S Gessner Dr ",
    "city": "Houston",
    "state": "TX",
    "zipCode": "77074-3813",
    "phone": "(713) 981-0025",
    "fax": "(713) 981-1660",
    "webSite": ""
  },
  {
    "name": "Caraveo, Daniel",
    "street": "806 E Ave D Suite C",
    "city": "Copperas Cove",
    "state": "TX",
    "zipCode": "76522-2284",
    "phone": "(254) 547-4866",
    "fax": "",
    "webSite": ""
  },
  {
    "name": "Cardoso, Andre",
    "street": "179 Verbena Dr ",
    "city": "Temple",
    "state": "TX",
    "zipCode": "76502-4505",
    "phone": "(254) 778-3333",
    "fax": "",
    "webSite": ""
  },
  {
    "name": "Richard C Cardoso                                                                        ",
    "street": "1515 Holcombe Blvd Houston, TX 77030-4009"
  },
  {
    "name": "Cardwell, John",
    "street": "1111 2Nd St ",
    "city": "Rosenberg",
    "state": "TX",
    "zipCode": "77471-3401",
    "phone": "(281) 344-8440",
    "fax": "",
    "webSite": ""
  },
  {
    "name": "Care 'N' Cure Dental Pllc",
    "street": "1901 Northwest Hwy Suite 103",
    "city": "Garland",
    "state": "TX",
    "zipCode": "75041-4857",
    "phone": "(214) 218-5917",
    "fax": "",
    "webSite": ""
  },
  {
    "name": "A Tooth Doctor For Kids",
    "street": "3949 Fredericksburg Rd ",
    "city": "San Antonio",
    "state": "TX",
    "zipCode": "78201-3231",
    "phone": "(210) 785-8555",
    "fax": "(480) 385-2397",
    "webSite": ""
  },
  {
    "name": "Care Plus Dental Associates",
    "street": "3201 University Dr E Suite 170",
    "city": "Bryan",
    "state": "TX",
    "zipCode": "77802",
    "phone": "(979) 774-1255",
    "fax": "(979) 776-8855",
    "webSite": ""
  },
  {
    "name": "Care Plus Iii Inc",
    "street": "1103 East Villa Maria Road ",
    "city": "Bryan",
    "state": "TX",
    "zipCode": "77802",
    "phone": "(979) 268-1407",
    "fax": "(979) 846-1967",
    "webSite": ""
  },
  {
    "name": "Carewell Dental Clinic, P.A.",
    "street": "6300 Stonewood Dr Suite #210",
    "city": "Plano",
    "state": "TX",
    "zipCode": "75024-5280",
    "phone": "(972) 596-0100",
    "fax": "(972) 596-7999",
    "webSite": ""
  },
  {
    "name": "Carewell Dental Dallas Pa",
    "street": "3128 Forest Ln Ste 106 ",
    "city": "Dallas",
    "state": "TX",
    "zipCode": "75234-7725",
    "phone": "(972) 241-4820",
    "fax": "",
    "webSite": ""
  },
  {
    "name": "Carey, Deborah A.",
    "street": "16100 Cairnway Dr Suite 285",
    "city": "Houston",
    "state": "TX",
    "zipCode": "77084-3562",
    "phone": "(281) 859-5637",
    "fax": "(281) 859-9055",
    "webSite": ""
  },
  {
    "name": "Carey, John Dylan",
    "street": "7210 Norman Ln ",
    "city": "San Antonio",
    "state": "TX",
    "zipCode": "78240-5250",
    "phone": "(806) 773-9865",
    "fax": "",
    "webSite": ""
  },
  {
    "name": "Carey, R H",
    "street": "729 Everhart Rd ",
    "city": "Corpus Christi",
    "state": "TX",
    "zipCode": "78411",
    "phone": "(361) 992-7531",
    "fax": "(361) 992-7227",
    "webSite": ""
  },
  {
    "name": "Carignan, Geoffrey",
    "street": "3711 Gregory St ",
    "city": "Wichita Falls",
    "state": "TX",
    "zipCode": "76308",
    "phone": "(940) 228-0963",
    "fax": "(940) 689-8497",
    "webSite": ""
  },
  {
    "name": "Carl M Hickman Dds Pa",
    "street": "15731 Fm 2920 ",
    "city": "Tomball",
    "state": "TX",
    "zipCode": "77377",
    "phone": "(281) 516-9919",
    "fax": "(281) 516-1750",
    "webSite": ""
  },
  {
    "name": "Bethany Heights Dental Care",
    "street": "1208 E Bethany Dr Suite 7",
    "city": "Allen",
    "state": "TX",
    "zipCode": "75002-3659",
    "phone": "(972) 390-8500",
    "fax": "",
    "webSite": ""
  },
  {
    "name": "Carlile, Jamie",
    "street": "5501 Independence Pkwy St. 200",
    "city": "Plano",
    "state": "TX",
    "zipCode": "75023-5463",
    "phone": "(972) 867-8882",
    "fax": "",
    "webSite": ""
  },
  {
    "name": "Carlisle, Lynn David",
    "street": "128 Chaffee Rd. ",
    "city": "Fort Bliss",
    "state": "TX",
    "zipCode": "79906-3811",
    "phone": "(915) 568-5001",
    "fax": "(915) 568-5174",
    "webSite": ""
  },
  {
    "name": "Alonso Family Dental",
    "street": "8551 Highway 6 ",
    "city": "Missouri City",
    "state": "TX",
    "zipCode": "77459",
    "phone": "(832) 687-5271",
    "fax": "",
    "webSite": ""
  },
  {
    "name": "Woodlake Dental Group",
    "street": "6735 Fm 78 Ste. 101",
    "city": "San Antonio",
    "state": "TX",
    "zipCode": "78244-1367",
    "phone": "(210) 661-6200",
    "fax": "(210) 661-6684",
    "webSite": ""
  },
  {
    "name": "Carlos J. Romero D.D.S. And Assocaites P.L.L.C",
    "street": "3120 La Pita Mangana Road Suite #200 ",
    "city": "Laredo",
    "state": "TX",
    "zipCode": "78046",
    "phone": "(956) 235-1122",
    "fax": "",
    "webSite": ""
  },
  {
    "name": "Carlos J. Romero D.D.S. And Associates P.L.L.C",
    "street": "2439 Monarch Dr Suite 4",
    "city": "Laredo",
    "state": "TX",
    "zipCode": "78045-6329",
    "phone": "(956) 337-2845",
    "fax": "",
    "webSite": ""
  },
  {
    "name": "Carlos J. Romero D.D.S. And Associates P.L.L.C",
    "street": "4311 Clark Blvd Suite O",
    "city": "Laredo",
    "state": "TX",
    "zipCode": "78043-4129",
    "phone": "(956) 723-1230",
    "fax": "",
    "webSite": ""
  },
  {
    "name": "Carlos Wiesse, Dds, Pa",
    "street": "5535 Lake Ridge Pkwy ",
    "city": "Grand Prairie",
    "state": "TX",
    "zipCode": "75052-8515",
    "phone": "(817) 649-8888",
    "fax": "(817) 649-8889",
    "webSite": ""
  },
  {
    "name": "Carlson, Craig R",
    "street": "400 N Loop 1604 E Ste 315",
    "city": "San Antonio",
    "state": "TX",
    "zipCode": "78232-1200",
    "phone": "(210) 494-3511",
    "fax": "(210) 494-7115",
    "webSite": ""
  },
  {
    "name": "Carlson, Hal C",
    "street": "15321 San Pedro Ave Ste 105 ",
    "city": "San Antonio",
    "state": "TX",
    "zipCode": "78232-3712",
    "phone": "(210) 490-2040",
    "fax": "",
    "webSite": ""
  },
  {
    "name": "Carlson, Jason",
    "street": "515 E Interstate 30 ",
    "city": "Rockwall",
    "state": "TX",
    "zipCode": "75087-5408",
    "phone": "(214) 771-4603",
    "fax": "",
    "webSite": ""
  },
  {
    "name": "Carlson, Tyler",
    "street": "810 S General Mcmullen Dr ",
    "city": "San Antonio",
    "state": "TX",
    "zipCode": "78237-3162",
    "phone": "(940) 808-1892",
    "fax": "",
    "webSite": ""
  },
  {
    "name": "Carlson, Zachary Anders",
    "street": "11601 W Hwy 290 Ste B105 ",
    "city": "Austin",
    "state": "TX",
    "zipCode": "78737-2858",
    "phone": "(512) 917-4550",
    "fax": "(512) 532-6431",
    "webSite": ""
  },
  {
    "name": "Carlton, Randall",
    "street": "1712 N Access Rd ",
    "city": "Clyde",
    "state": "TX",
    "zipCode": "79510-3352",
    "phone": "(325) 893-4010",
    "fax": "",
    "webSite": ""
  },
  {
    "name": "Carlyle, Alexandria",
    "street": "264 Se John Jones Dr Ste 116 ",
    "city": "Burleson",
    "state": "TX",
    "zipCode": "76028-8326",
    "phone": "(469) 490-1410",
    "fax": "",
    "webSite": ""
  },
  {
    "name": "Carman, Jon Goodwin",
    "street": "1515 23Rd St ",
    "city": "Galveston",
    "state": "TX",
    "zipCode": "77550-4501",
    "phone": "(409) 765-6023",
    "fax": "(409) 770-0313",
    "webSite": ""
  },
  {
    "name": "Carmel Village Family Dentistry, Pllc",
    "street": "4122 S Staples St ",
    "city": "Corpus Christi",
    "state": "TX",
    "zipCode": "78411-2109",
    "phone": "(361) 949-5215",
    "fax": "",
    "webSite": ""
  },
  {
    "name": "Carmichael Surgical Pa",
    "street": "1016 Liberty St Suite 6",
    "city": "Dallas",
    "state": "TX",
    "zipCode": "75204-5521",
    "phone": "(404) 276-8085",
    "fax": "",
    "webSite": ""
  },
  {
    "name": "Carney, Ted",
    "street": "300 Olive St ",
    "city": "Smithville",
    "state": "TX",
    "zipCode": "78957-1437",
    "phone": "(512) 237-4420",
    "fax": "(512) 237-4420",
    "webSite": ""
  },
  {
    "name": "Crestwater Dental",
    "street": "17125 Westheimer Rd ",
    "city": "Houston",
    "state": "TX",
    "zipCode": "77082-1259",
    "phone": "(281) 277-3405",
    "fax": "",
    "webSite": ""
  },
  {
    "name": "Carol L. Price D.D.S., P.C.",
    "street": "306 W 20Th St ",
    "city": "Houston",
    "state": "TX",
    "zipCode": "77008-2439",
    "phone": "(713) 862-6408",
    "fax": "(713) 862-2187",
    "webSite": ""
  },
  {
    "name": "Carol Randolph Wald Dds Pc",
    "street": "101 Austin Blvd Suite 100",
    "city": "Red Oak",
    "state": "TX",
    "zipCode": "75154-4660",
    "phone": "(972) 617-3322",
    "fax": "",
    "webSite": ""
  },
  {
    "name": "Carole L Bates Dds Pa",
    "street": "1010 W Audie Murphy Pkwy ",
    "city": "Farmersville",
    "state": "TX",
    "zipCode": "75442-2523",
    "phone": "(972) 784-8282",
    "fax": "",
    "webSite": ""
  },
  {
    "name": "Carothers Family Dental, Pa",
    "street": "310 Stagecoach Trail Suite 700",
    "city": "San Marcos",
    "state": "TX",
    "zipCode": "78666",
    "phone": "(512) 396-4288",
    "fax": "(512) 396-4379",
    "webSite": ""
  },
  {
    "name": "Carousel Dental Pllc",
    "street": "2315 Gus Thomasson Rd ",
    "city": "Dallas",
    "state": "TX",
    "zipCode": "75228-3004",
    "phone": "(916) 897-6682",
    "fax": "",
    "webSite": ""
  },
  {
    "name": "Carousel Nks Dental Services",
    "street": "2237 E Riverside Dr Ste 101-C ",
    "city": "Austin",
    "state": "TX",
    "zipCode": "78741-3051",
    "phone": "(512) 744-6000",
    "fax": "",
    "webSite": ""
  },
  {
    "name": "Carousel Nks Dental Services",
    "street": "7112 Ed Bluestein Blvd Ste 100 ",
    "city": "Austin",
    "state": "TX",
    "zipCode": "78723-2913",
    "phone": "(512) 744-6000",
    "fax": "(512) 744-6055",
    "webSite": ""
  },
  {
    "name": "Carousel Nks Dental Services",
    "street": "9411 N Lamar Blvd Ste 120 ",
    "city": "Austin",
    "state": "TX",
    "zipCode": "78753-4179",
    "phone": "(512) 744-6000",
    "fax": "(512) 334-1005",
    "webSite": ""
  },
  {
    "name": "Carpenter, Dave S.",
    "street": "3560 Delaware St Ste 1003",
    "city": "Beaumont",
    "state": "TX",
    "zipCode": "77706-3026",
    "phone": "(409) 898-4300",
    "fax": "(409) 898-2777",
    "webSite": ""
  },
  {
    "name": "Carpenter, James Lee",
    "street": "2001 Rickabaugh Dr ",
    "city": "Big Spring",
    "state": "TX",
    "zipCode": "79720-7702",
    "phone": "(432) 267-7911",
    "fax": "(432) 263-6295",
    "webSite": ""
  },
  {
    "name": "Carpenter, James Terry",
    "street": "3300 Haynes Ave ",
    "city": "Midland",
    "state": "TX",
    "zipCode": "79707-3600",
    "phone": "(432) 699-7334",
    "fax": "(432) 699-7336",
    "webSite": ""
  },
  {
    "name": "Carpenter, Matthew Forrest",
    "street": "323 N Lake Creek Dr ",
    "city": "Round Rock",
    "state": "TX",
    "zipCode": "78681-4936",
    "phone": "(512) 255-3618",
    "fax": "(512) 255-1419",
    "webSite": ""
  },
  {
    "name": "Carpenter, Vanessa Gale",
    "street": "7002 Mcpherson Suite 104",
    "city": "Laredo",
    "state": "TX",
    "zipCode": "78041-6442",
    "phone": "(956) 725-5035",
    "fax": "(956) 717-4106",
    "webSite": ""
  },
  {
    "name": "Carr & Smith Dental Pllc",
    "street": "7007 Hart Ln ",
    "city": "Austin",
    "state": "TX",
    "zipCode": "78731-3018",
    "phone": "(512) 345-0399",
    "fax": "(512) 345-5890",
    "webSite": ""
  },
  {
    "name": "Carr, Azita Saidi",
    "street": "404 N I 35 E Ste 118 ",
    "city": "Lancaster",
    "state": "TX",
    "zipCode": "75146-1866",
    "phone": "(972) 223-3500",
    "fax": "",
    "webSite": ""
  },
  {
    "name": "Carr, Bren Montgomery",
    "street": "20475 State Highway 46 W Suite 310",
    "city": "Spring Branch",
    "state": "TX",
    "zipCode": "78070-6146",
    "phone": "(830) 438-7444",
    "fax": "(830) 438-7112",
    "webSite": ""
  },
  {
    "name": "Carr, Courtney Beth",
    "street": "6225 Chapel Hill Blvd ",
    "city": "Plano",
    "state": "TX",
    "zipCode": "75093-6392",
    "phone": "(972) 608-4746",
    "fax": "(972) 608-4749",
    "webSite": ""
  },
  {
    "name": "Carr, David William",
    "street": "7007 Hart Ln ",
    "city": "Austin",
    "state": "TX",
    "zipCode": "78731-3018",
    "phone": "(512) 345-0399",
    "fax": "(512) 345-5890",
    "webSite": ""
  },
  {
    "name": "Carr, Joshua Craig",
    "street": "12854 Research Blvd ",
    "city": "Austin",
    "state": "TX",
    "zipCode": "78750-3222",
    "phone": "(512) 831-7918",
    "fax": "(512) 831-7909",
    "webSite": ""
  },
  {
    "name": "Carr, Toni",
    "street": "1757 Broad Park Cir N Ste 101 ",
    "city": "Mansfield",
    "state": "TX",
    "zipCode": "76063-7840",
    "phone": "(682) 207-4800",
    "fax": "(682) 207-4800",
    "webSite": ""
  },
  {
    "name": "Carrasco, Kathrina",
    "street": "6513 Preston Rd Ste 500 ",
    "city": "Plano",
    "state": "TX",
    "zipCode": "75024-2711",
    "phone": "(972) 378-6762",
    "fax": "",
    "webSite": ""
  },
  {
    "name": "Carrasco, Manuel C",
    "street": "7331 East Ridge Rd ",
    "city": "Odessa",
    "state": "TX",
    "zipCode": "79765-8903",
    "phone": "(432) 337-2522",
    "fax": "(432) 337-2755",
    "webSite": ""
  },
  {
    "name": "Carrell, Darren A.",
    "street": "9720 Coit Rd 130",
    "city": "Plano",
    "state": "TX",
    "zipCode": "75082",
    "phone": "(972) 335-6400",
    "fax": "(972) 335-6405",
    "webSite": ""
  },
  {
    "name": "Carrell, James R",
    "street": "3001 W Illinois Ave Suite 1B3",
    "city": "Midland",
    "state": "TX",
    "zipCode": "79701-3180",
    "phone": "(432) 689-3014",
    "fax": "(432) 522-5202",
    "webSite": ""
  },
  {
    "name": "Carrell, Samuel Afton",
    "street": "620 W Alabama St ",
    "city": "Houston",
    "state": "TX",
    "zipCode": "77006-5004",
    "phone": "(713) 529-4364",
    "fax": "(713) 529-4337",
    "webSite": ""
  },
  {
    "name": "Carrie Muzny, Dds & Associates",
    "street": "9595 Six Pines Dr Ste 6260 ",
    "city": "The Woodlands",
    "state": "TX",
    "zipCode": "77380-1551",
    "phone": "(281) 298-2205",
    "fax": "",
    "webSite": ""
  },
  {
    "name": "Carrier Dental, Pllc",
    "street": "511 S Carrier Pkwy ",
    "city": "Grand Prairie",
    "state": "TX",
    "zipCode": "75051-1511",
    "phone": "(940) 808-1940",
    "fax": "",
    "webSite": ""
  },
  {
    "name": "Carrier Dentistry, Pa",
    "street": "515 S Carrier Pkwy Ste 102",
    "city": "Grand Prairie",
    "state": "TX",
    "zipCode": "75051-0921",
    "phone": "(972) 642-2423",
    "fax": "(972) 642-2571",
    "webSite": ""
  },
  {
    "name": "Avion Dental",
    "street": "510 S Carrier Pkwy Suite 200",
    "city": "Grand Prairie",
    "state": "TX",
    "zipCode": "75051-1544",
    "phone": "(214) 493-1216",
    "fax": "",
    "webSite": ""
  },
  {
    "name": "Carrier, Sandra",
    "street": "2646 S Loop W Suite 575",
    "city": "Houston",
    "state": "TX",
    "zipCode": "77054-2665",
    "phone": "(713) 660-7222",
    "fax": "(713) 660-0253",
    "webSite": ""
  },
  {
    "name": "Carrillo, Beatriz Elizabeth",
    "street": "5803 Airline Dr ",
    "city": "Houston",
    "state": "TX",
    "zipCode": "77076-4922",
    "phone": "(713) 692-7600",
    "fax": "(713) 692-7649",
    "webSite": ""
  },
  {
    "name": "Carrillo, Maria E.",
    "street": "1314 S Mccoll Rd ",
    "city": "Edinburg",
    "state": "TX",
    "zipCode": "78539-7989",
    "phone": "(956) 316-1582",
    "fax": "(956) 380-1176",
    "webSite": ""
  },
  {
    "name": "Carrion, Carlos F.",
    "street": "19961 Katy Fwy ",
    "city": "Houston",
    "state": "TX",
    "zipCode": "77094-1019",
    "phone": "(713) 244-7799",
    "fax": "",
    "webSite": ""
  },
  {
    "name": "Carris, Robert C",
    "street": "10246 Midway Road Suite C",
    "city": "Dallas",
    "state": "TX",
    "zipCode": "75229-6275",
    "phone": "(214) 353-2787",
    "fax": "(214) 353-9477",
    "webSite": ""
  },
  {
    "name": "Carroll, Destinie",
    "street": "3121 N George Bush Fwy #113",
    "city": "Garland",
    "state": "TX",
    "zipCode": "75040-2752",
    "phone": "(469) 368-9889",
    "fax": "",
    "webSite": ""
  },
  {
    "name": "Carroll, James Richard",
    "street": "420 N Rusk St ",
    "city": "Sherman",
    "state": "TX",
    "zipCode": "75090-5858",
    "phone": "(903) 892-1052",
    "fax": "(903) 892-0607",
    "webSite": ""
  },
  {
    "name": "Carroll, John Thomas",
    "street": "1801 Broadway St ",
    "city": "Galveston",
    "state": "TX",
    "zipCode": "77550-4912",
    "phone": "(409) 762-8443",
    "fax": "(409) 762-0036",
    "webSite": ""
  },
  {
    "name": "Carroll, Reagan Lonnie",
    "street": "1201 Lake Woodlands Dr Suite 4010",
    "city": "The Woodlands",
    "state": "TX",
    "zipCode": "77380-5000",
    "phone": "(281) 465-8844",
    "fax": "(281) 465-9455",
    "webSite": ""
  },
  {
    "name": "Carrollton Modern Dentistry, Pc",
    "street": "2604 Old Denton Rd Ste 112 ",
    "city": "Carrollton",
    "state": "TX",
    "zipCode": "75007-5137",
    "phone": "(972) 323-5060",
    "fax": "(972) 323-6408",
    "webSite": ""
  },
  {
    "name": "Carrollton Top Dental Pllc",
    "street": "1628 W Hebron Pkwy Ste 108 ",
    "city": "Carrollton",
    "state": "TX",
    "zipCode": "75010-6311",
    "phone": "(972) 492-0002",
    "fax": "",
    "webSite": ""
  },
  {
    "name": "Carruth, Paul",
    "street": "2403 Lacy Ln ",
    "city": "Carrollton",
    "state": "TX",
    "zipCode": "75006-6514",
    "phone": "(972) 869-3789",
    "fax": "(972) 869-3791",
    "webSite": ""
  },
  {
    "name": "Carson, Sandra Celia",
    "street": "2681 State Highway 361 ",
    "city": "Ingleside",
    "state": "TX",
    "zipCode": "78362-4200",
    "phone": "(361) 776-3535",
    "fax": "",
    "webSite": ""
  },
  {
    "name": "Carter, Chad Bryan",
    "street": "1100 Wilford Hall Loop Bldg 4554 ",
    "city": "Jbsa Lackland",
    "state": "TX",
    "zipCode": "78236-5638",
    "phone": "(210) 292-9038",
    "fax": "",
    "webSite": ""
  },
  {
    "name": "Carter, Cynthia Jane",
    "street": "14739 Hwy 132 ",
    "city": "Lytle",
    "state": "TX",
    "zipCode": "78052-0886",
    "phone": "(830) 772-4567",
    "fax": "",
    "webSite": ""
  },
  {
    "name": "Carter, William Martin",
    "street": "519 S Missouri Ave ",
    "city": "Weslaco",
    "state": "TX",
    "zipCode": "78596-6019",
    "phone": "(956) 968-6561",
    "fax": "(956) 968-6562",
    "webSite": ""
  },
  {
    "name": "Carthage Dental Center",
    "street": "401 N Adams St ",
    "city": "Carthage",
    "state": "TX",
    "zipCode": "75633-1311",
    "phone": "(903) 693-8500",
    "fax": "(903) 693-8501",
    "webSite": ""
  },
  {
    "name": "Carthel, Courtney Kay",
    "street": "8535 W Bellfort St ",
    "city": "Houston",
    "state": "TX",
    "zipCode": "77071-2263",
    "phone": "(713) 777-8999",
    "fax": "",
    "webSite": ""
  },
  {
    "name": "Cartwright, Chris Stephen",
    "street": "117 N Belt Line Rd ",
    "city": "Grand Prairie",
    "state": "TX",
    "zipCode": "75050-5800",
    "phone": "(972) 262-1395",
    "fax": "(972) 262-1397",
    "webSite": ""
  },
  {
    "name": "Carus Dental",
    "street": "23641 Katy Fwy Suite 200",
    "city": "Katy",
    "state": "TX",
    "zipCode": "77494-7221",
    "phone": "(832) 913-1151",
    "fax": "",
    "webSite": ""
  },
  {
    "name": "Carus Dental",
    "street": "105 Wildwood Dr Suite 216",
    "city": "Georgetown",
    "state": "TX",
    "zipCode": "78633-1343",
    "phone": "(512) 930-5930",
    "fax": "",
    "webSite": ""
  },
  {
    "name": "Jones Rd",
    "street": "13331 Jones Rd ",
    "city": "Houston",
    "state": "TX",
    "zipCode": "77070-3915",
    "phone": "(281) 807-5539",
    "fax": "(281) 807-1062",
    "webSite": ""
  },
  {
    "name": "Carus Dental",
    "street": "21450 Kuykendahl Suite 100",
    "city": "Spring",
    "state": "TX",
    "zipCode": "77379",
    "phone": "(281) 602-3511",
    "fax": "",
    "webSite": ""
  },
  {
    "name": "Carus Dental",
    "street": "718 Highway 79 Suite 300",
    "city": "Hutto",
    "state": "TX",
    "zipCode": "78634",
    "phone": "(512) 371-1222",
    "fax": "",
    "webSite": ""
  },
  {
    "name": "Carus Dental Pc",
    "street": "19121 W Lake Houston Pkwy Ste E",
    "city": "Humble",
    "state": "TX",
    "zipCode": "77346-4825",
    "phone": "(281) 446-2153",
    "fax": "",
    "webSite": ""
  },
  {
    "name": "Carus Dental Pc",
    "street": "1130 Cottonwood Creek Trl Building A Ste 2",
    "city": "Cedar Park",
    "state": "TX",
    "zipCode": "78613-7861",
    "phone": "(512) 690-2368",
    "fax": "",
    "webSite": ""
  },
  {
    "name": "Carus Dental Pc",
    "street": "3620 Ranch Road 620 S Ste 280",
    "city": "Bee Cave",
    "state": "TX",
    "zipCode": "78738-6853",
    "phone": "(512) 592-3857",
    "fax": "",
    "webSite": ""
  },
  {
    "name": "Carwile, David Scott",
    "street": "18438 Highway 105 W Suite D",
    "city": "Montgomery",
    "state": "TX",
    "zipCode": "77356-6045",
    "phone": "(936) 582-6677",
    "fax": "(936) 582-4590",
    "webSite": ""
  },
  {
    "name": "Casa Dental",
    "street": "2912 W Northwest Hwy ",
    "city": "Dallas",
    "state": "TX",
    "zipCode": "75220-6218",
    "phone": "(214) 352-2272",
    "fax": "(214) 352-2279",
    "webSite": ""
  },
  {
    "name": "Casa Dental-Dumas Pllc",
    "street": "2100 S Dumas Ave Ste 112 ",
    "city": "Dumas",
    "state": "TX",
    "zipCode": "79029-6112",
    "phone": "(806) 934-3170",
    "fax": "(806) 934-3172",
    "webSite": ""
  },
  {
    "name": "Casa Mossman Dental Pllc",
    "street": "670 W Campbell Rd Ste 160 ",
    "city": "Richardson",
    "state": "TX",
    "zipCode": "75080-3384",
    "phone": "(972) 838-3772",
    "fax": "",
    "webSite": ""
  },
  {
    "name": "Cascio, Gerard A",
    "street": "3560 Delaware St Suite 102",
    "city": "Beaumont",
    "state": "TX",
    "zipCode": "77706-3067",
    "phone": "(409) 892-2600",
    "fax": "(409) 892-5970",
    "webSite": ""
  },
  {
    "name": "Nolan River Dental Center",
    "street": "503 N Nolan River Rd ",
    "city": "Cleburne",
    "state": "TX",
    "zipCode": "76033-7005",
    "phone": "(817) 517-6453",
    "fax": "",
    "webSite": ""
  },
  {
    "name": "Case, Amy Ploy",
    "street": "2315 Virginia Pkwy ",
    "city": "Mckinney",
    "state": "TX",
    "zipCode": "75071-3505",
    "phone": "(972) 562-0767",
    "fax": "(972) 548-0769",
    "webSite": ""
  },
  {
    "name": "Case, Brian Robert",
    "street": "725 N Fielder Rd ",
    "city": "Arlington",
    "state": "TX",
    "zipCode": "76012-4698",
    "phone": "(817) 275-4817",
    "fax": "(817) 275-1765",
    "webSite": ""
  },
  {
    "name": "Casey, James Newman",
    "street": "1950 S Austin Ave ",
    "city": "Georgetown",
    "state": "TX",
    "zipCode": "78626-7835",
    "phone": "(512) 863-2303",
    "fax": "(512) 869-6292",
    "webSite": ""
  },
  {
    "name": "Cash, Gary",
    "street": "1500 W 38Th St Suite 48",
    "city": "Austin",
    "state": "TX",
    "zipCode": "78731-6321",
    "phone": "(512) 451-7577",
    "fax": "",
    "webSite": ""
  },
  {
    "name": "Cashion, Christopher King",
    "street": "1605 Rock Prairie Rd Suite 216",
    "city": "College Station",
    "state": "TX",
    "zipCode": "77845-8358",
    "phone": "(979) 693-6723",
    "fax": "",
    "webSite": ""
  },
  {
    "name": "Cashion, Timothy James",
    "street": "17003 Southwest Fwy Suite 100",
    "city": "Sugar Land",
    "state": "TX",
    "zipCode": "77479-3480",
    "phone": "(281) 242-0241",
    "fax": "(281) 242-3421",
    "webSite": ""
  },
  {
    "name": "Casillas, Cynthia",
    "street": "5250 Weber Rd ",
    "city": "Corpus Christi",
    "state": "TX",
    "zipCode": "78411-4547",
    "phone": "(361) 855-1521",
    "fax": "",
    "webSite": ""
  },
  {
    "name": "Casillas, Henry F",
    "street": "5250 Weber Rd ",
    "city": "Corpus Christi",
    "state": "TX",
    "zipCode": "78411-4547",
    "phone": "(361) 855-1521",
    "fax": "",
    "webSite": ""
  },
  {
    "name": "Caspian Dental Center Pllc",
    "street": "410 Park Grove Ln. Suite A",
    "city": "Katy",
    "state": "TX",
    "zipCode": "77450",
    "phone": "(281) 222-4546",
    "fax": "",
    "webSite": ""
  },
  {
    "name": "Casquete, Nedith",
    "street": "3201 Broadway St ",
    "city": "Houston",
    "state": "TX",
    "zipCode": "77017",
    "phone": "(713) 643-2500",
    "fax": "(713) 643-2797",
    "webSite": ""
  },
  {
    "name": "Cass, Ronald B",
    "street": "7011 Hart Ln ",
    "city": "Austin",
    "state": "TX",
    "zipCode": "78731-3018",
    "phone": "(512) 345-2655",
    "fax": "(512) 345-2658",
    "webSite": ""
  },
  {
    "name": "Cassidy, Christopher Martin",
    "street": "3010 Lbj Fwy Suite 200",
    "city": "Dallas",
    "state": "TX",
    "zipCode": "75234-7770",
    "phone": "(972) 247-9236",
    "fax": "",
    "webSite": ""
  },
  {
    "name": "Castell, Ian Adan",
    "street": "300 Lorenaly Dr ",
    "city": "Brownsville",
    "state": "TX",
    "zipCode": "78526-4060",
    "phone": "(956) 542-9200",
    "fax": "",
    "webSite": ""
  },
  {
    "name": "Castellano & Carpenter Dental Asociates, Pc",
    "street": "7002 Mcpherson Rd Ste 104 ",
    "city": "Laredo",
    "state": "TX",
    "zipCode": "78041-6442",
    "phone": "(956) 725-5035",
    "fax": "",
    "webSite": ""
  },
  {
    "name": "Castellanos-Castro, Lliliam",
    "street": "1313 Guadalupe St Ste 106 ",
    "city": "San Antonio",
    "state": "TX",
    "zipCode": "78207-5554",
    "phone": "(210) 212-3900",
    "fax": "(210) 680-2601",
    "webSite": ""
  },
  {
    "name": "Castells, Roderick James",
    "street": "2403 Lacy Ln ",
    "city": "Carrollton",
    "state": "TX",
    "zipCode": "75006-6514",
    "phone": "(972) 869-3789",
    "fax": "(972) 869-3791",
    "webSite": ""
  },
  {
    "name": "Castelo, Levely",
    "street": "2323 Wirt Rd Suite F",
    "city": "Houston",
    "state": "TX",
    "zipCode": "77055-1232",
    "phone": "(713) 467-4900",
    "fax": "",
    "webSite": ""
  },
  {
    "name": "Castille, M. Gerard",
    "street": "1001 W Main St ",
    "city": "League City",
    "state": "TX",
    "zipCode": "77573-2021",
    "phone": "(281) 332-5561",
    "fax": "(832) 632-2506",
    "webSite": ""
  },
  {
    "name": "Castillo, Autumn",
    "street": "1251 Austin Hwy Ste 104 ",
    "city": "San Antonio",
    "state": "TX",
    "zipCode": "78209-4807",
    "phone": "(210) 817-8683",
    "fax": "",
    "webSite": ""
  },
  {
    "name": "Castillo, Catherine Papa",
    "street": "9720 Jones Rd Suite 210",
    "city": "Houston",
    "state": "TX",
    "zipCode": "77065-4388",
    "phone": "(281) 477-8022",
    "fax": "",
    "webSite": ""
  },
  {
    "name": "Castillo, Gilberto Javier",
    "street": "1515 Pappas St ",
    "city": "Laredo",
    "state": "TX",
    "zipCode": "78041-1705",
    "phone": "(956) 718-6259",
    "fax": "(956) 718-6294",
    "webSite": ""
  }
]
