[
  {
    "name": "Castillo, Miguel",
    "street": "900 Plaza Dr Suite 3",
    "city": "Mission",
    "state": "TX",
    "zipCode": "78572-6045",
    "phone": "(956) 584-1554",
    "fax": "(956) 584-0383",
    "webSite": ""
  },
  {
    "name": "Castillon, Edward Martin",
    "street": "16500 San Pedro Ave Suite # 420",
    "city": "San Antonio",
    "state": "TX",
    "zipCode": "78232-2241",
    "phone": "(210) 340-0994",
    "fax": "",
    "webSite": ""
  },
  {
    "name": "Castle Dental",
    "street": "9025 Research Blvd Suite 250",
    "city": "Austin",
    "state": "TX",
    "zipCode": "78758-7010",
    "phone": "(512) 836-7576",
    "fax": "(512) 836-3181",
    "webSite": ""
  },
  {
    "name": "Castle Hills Family Dental",
    "street": "1931 Nw Military Hwy Suite 225",
    "city": "San Antonio",
    "state": "TX",
    "zipCode": "78213-2153",
    "phone": "(210) 732-4570",
    "fax": "(210) 732-4572",
    "webSite": ""
  },
  {
    "name": "Castle, Cliff D.",
    "street": "780 N Fielder Rd ",
    "city": "Arlington",
    "state": "TX",
    "zipCode": "76012-4635",
    "phone": "(817) 460-4900",
    "fax": "",
    "webSite": ""
  },
  {
    "name": "Castle, Jay",
    "street": "3210 Richmond Rd ",
    "city": "Texarkana",
    "state": "TX",
    "zipCode": "75503",
    "phone": "(903) 832-3146",
    "fax": "(903) 838-2579",
    "webSite": ""
  },
  {
    "name": "Castle, Michael Joseph",
    "street": "2771 E Broad St Ste 221 ",
    "city": "Mansfield",
    "state": "TX",
    "zipCode": "76063-9157",
    "phone": "(559) 797-5053",
    "fax": "(817) 473-2251",
    "webSite": ""
  },
  {
    "name": "Castleberry, Darrick Lavone",
    "street": "4429 Griggs Rd Ste A ",
    "city": "Houston",
    "state": "TX",
    "zipCode": "77021-2852",
    "phone": "(713) 842-2500",
    "fax": "(713) 842-4224",
    "webSite": ""
  },
  {
    "name": "Castor, Mark S",
    "street": "1221 W Ben White Blvd Suite A207",
    "city": "Austin",
    "state": "TX",
    "zipCode": "78704-6888",
    "phone": "(512) 441-7777",
    "fax": "(512) 441-7632",
    "webSite": ""
  },
  {
    "name": "Castro, Jeanneth Flor",
    "street": "8101 Fondren Rd ",
    "city": "Houston",
    "state": "TX",
    "zipCode": "77074-5903",
    "phone": "(713) 774-3999",
    "fax": "(713) 774-1714",
    "webSite": ""
  },
  {
    "name": "Castro, Neidy",
    "street": "2020 W Rochelle Rd ",
    "city": "Irving",
    "state": "TX",
    "zipCode": "75062-5348",
    "phone": "(972) 258-1702",
    "fax": "(972) 258-1703",
    "webSite": ""
  },
  {
    "name": "Castro, Robert A",
    "street": "1926 Pleasanton Dr ",
    "city": "San Antonio",
    "state": "TX",
    "zipCode": "78221",
    "phone": "(210) 924-1811",
    "fax": "(210) 924-7432",
    "webSite": ""
  },
  {
    "name": "Castroville Dental Pllc",
    "street": "703 Old Us Hwy 90 E Suite 108",
    "city": "Castroville",
    "state": "TX",
    "zipCode": "78009",
    "phone": "(903) 360-8657",
    "fax": "",
    "webSite": ""
  },
  {
    "name": "Cate, Casey J.",
    "street": "341 Sawdust Rd ",
    "city": "Spring",
    "state": "TX",
    "zipCode": "77380-2240",
    "phone": "(360) 830-8284",
    "fax": "",
    "webSite": ""
  },
  {
    "name": "Cater, Robert William",
    "street": "1916 Highway 36 Byp N ",
    "city": "Gatesville",
    "state": "TX",
    "zipCode": "76596-0001",
    "phone": "(254) 865-2000",
    "fax": "",
    "webSite": ""
  },
  {
    "name": "Bee Family Dental",
    "street": "8647 Wurzbach Rd Bldg. A",
    "city": "San Antonio",
    "state": "TX",
    "zipCode": "78240-1225",
    "phone": "(210) 690-9430",
    "fax": "(210) 690-2919",
    "webSite": ""
  },
  {
    "name": "Cathey, George Keith",
    "street": "6609 Blanco Rd Suite 215",
    "city": "San Antonio",
    "state": "TX",
    "zipCode": "78216-6264",
    "phone": "(210) 340-0781",
    "fax": "",
    "webSite": ""
  },
  {
    "name": "Cauley, Richard Carter",
    "street": "701 Johnson ",
    "city": "Big Spring",
    "state": "TX",
    "zipCode": "79721-0629",
    "phone": "(432) 267-4544",
    "fax": "(432) 267-4870",
    "webSite": ""
  },
  {
    "name": "Causey, Dorothy Marie",
    "street": "8210 Floyd Curl Dr ",
    "city": "San Antonio",
    "state": "TX",
    "zipCode": "78229-3923",
    "phone": "(210) 450-3700",
    "fax": "",
    "webSite": ""
  },
  {
    "name": "Cavazos, Alejandro",
    "street": "523 Med Ct Ste 106 ",
    "city": "San Antonio",
    "state": "TX",
    "zipCode": "78258-3359",
    "phone": "(210) 281-5115",
    "fax": "(210) 455-5891",
    "webSite": ""
  },
  {
    "name": "Cavazos, Claudia",
    "street": "1515 Pappas St ",
    "city": "Laredo",
    "state": "TX",
    "zipCode": "78041-1705",
    "phone": "(956) 795-8100",
    "fax": "(956) 718-6294",
    "webSite": ""
  },
  {
    "name": "Cavazos, Johnny Cardona",
    "street": "409 Hidalgo Ave ",
    "city": "Zapata",
    "state": "TX",
    "zipCode": "78076-0465",
    "phone": "(956) 765-4400",
    "fax": "(956) 765-1122",
    "webSite": ""
  },
  {
    "name": "Cavazos, Joseph M",
    "street": "1108 1St St ",
    "city": "La Marque",
    "state": "TX",
    "zipCode": "77568-4207",
    "phone": "(956) 874-4642",
    "fax": "(409) 935-6211",
    "webSite": ""
  },
  {
    "name": "Cavazos, Mark",
    "street": "3414 Roosevelt Ave ",
    "city": "San Antonio",
    "state": "TX",
    "zipCode": "78214-2606",
    "phone": "(210) 924-5008",
    "fax": "",
    "webSite": ""
  },
  {
    "name": "Cavazos, Roland",
    "street": "504 Barclay St ",
    "city": "San Antonio",
    "state": "TX",
    "zipCode": "78207-5129",
    "phone": "(210) 431-7711",
    "fax": "(210) 431-9867",
    "webSite": ""
  },
  {
    "name": "Caytlyn Foy, Dds, Pc",
    "street": "841 N Tarrant Pkwy Suite 112",
    "city": "Keller",
    "state": "TX",
    "zipCode": "76248-6860",
    "phone": "(817) 281-0100",
    "fax": "",
    "webSite": ""
  },
  {
    "name": "Cazares, Jose Luis",
    "street": "1632 N 10Th St ",
    "city": "Mcallen",
    "state": "TX",
    "zipCode": "78501-4103",
    "phone": "(956) 686-5000",
    "fax": "(956) 686-6562",
    "webSite": ""
  },
  {
    "name": "Dental Sleep Solutions Of Leon Springs",
    "street": "25235 W Interstate 10 Suite 201",
    "city": "San Antonio",
    "state": "TX",
    "zipCode": "78257-9550",
    "phone": "(210) 698-1010",
    "fax": "(210) 698-1078",
    "webSite": ""
  },
  {
    "name": "Ilove Dental",
    "street": "16202 Huebner Rd ",
    "city": "San Antonio",
    "state": "TX",
    "zipCode": "78248",
    "phone": "(210) 479-9999",
    "fax": "",
    "webSite": ""
  },
  {
    "name": "Kids And Teens Dental Place",
    "street": "11041 Shadow Creek Pkwy Suite Number 125",
    "city": "Pearland",
    "state": "TX",
    "zipCode": "77584-7402",
    "phone": "(832) 661-4656",
    "fax": "",
    "webSite": ""
  },
  {
    "name": "Cedar Hill Modern Dentistry",
    "street": "398 E Fm 1382 Ste B ",
    "city": "Cedar Hill",
    "state": "TX",
    "zipCode": "75104-6024",
    "phone": "(972) 291-6262",
    "fax": "(972) 291-9981",
    "webSite": ""
  },
  {
    "name": "Cedar Hills Dental, Pllc",
    "street": "180 E Whitestone Blvd Suite 162",
    "city": "Cedar Park",
    "state": "TX",
    "zipCode": "78613-7433",
    "phone": "(512) 259-6633",
    "fax": "(512) 259-6590",
    "webSite": ""
  },
  {
    "name": "Cedar Park Modern Dentistry",
    "street": "1455 E Whitestone Blvd Ste 127 ",
    "city": "Cedar Park",
    "state": "TX",
    "zipCode": "78613-7723",
    "phone": "(512) 259-7171",
    "fax": "",
    "webSite": ""
  },
  {
    "name": "Cedar Ridge Dental Care",
    "street": "210 S Cedar Ridge Dr Ste A ",
    "city": "Duncanville",
    "state": "TX",
    "zipCode": "75116-4578",
    "phone": "(972) 296-3600",
    "fax": "(972) 296-8527",
    "webSite": ""
  },
  {
    "name": "Cedarlake Dental Associates, Inc.",
    "street": "2434 Cedar Dr ",
    "city": "La Marque",
    "state": "TX",
    "zipCode": "77568-3916",
    "phone": "(409) 938-8018",
    "fax": "",
    "webSite": ""
  },
  {
    "name": "Ceeone Dental P.C.",
    "street": "909 S Tyler St ",
    "city": "Dallas",
    "state": "TX",
    "zipCode": "75208-6254",
    "phone": "(972) 362-2225",
    "fax": "",
    "webSite": ""
  },
  {
    "name": "Celebrity Dental & Orthodontics Pllc",
    "street": "817 W Jefferson Blvd Ste 2",
    "city": "Dallas",
    "state": "TX",
    "zipCode": "75208-4924",
    "phone": "(469) 930-8280",
    "fax": "(855) 541-0586",
    "webSite": ""
  },
  {
    "name": "Celestino, Arnel P",
    "street": "1214 E Houston St Ste D ",
    "city": "Cleveland",
    "state": "TX",
    "zipCode": "77327-4754",
    "phone": "(281) 593-3300",
    "fax": "(281) 593-1616",
    "webSite": ""
  },
  {
    "name": "Cementum Llc",
    "street": "3205 N University Dr Ste B ",
    "city": "Nacogdoches",
    "state": "TX",
    "zipCode": "75965-2683",
    "phone": "(936) 657-0110",
    "fax": "",
    "webSite": ""
  },
  {
    "name": "Cen-Tex Family Dental Pllc",
    "street": "3000 Old Fm 440 Rd Ste 106 ",
    "city": "Killeen",
    "state": "TX",
    "zipCode": "76549-1603",
    "phone": "(254) 300-7649",
    "fax": "",
    "webSite": ""
  },
  {
    "name": "Cenk, David Allan",
    "street": "824 E Redd Rd Ste 1B ",
    "city": "El Paso",
    "state": "TX",
    "zipCode": "79912-7262",
    "phone": "(915) 833-3484",
    "fax": "(915) 833-8048",
    "webSite": ""
  },
  {
    "name": "Center For Cosmetic Dentistry",
    "street": "6705 W Highway 290 ",
    "city": "Austin",
    "state": "TX",
    "zipCode": "78735-8400",
    "phone": "(512) 892-5335",
    "fax": "",
    "webSite": ""
  },
  {
    "name": "Center For Cosmetic Dentistry West Austin",
    "street": "5656 Bee Cave Rd ",
    "city": "West Lake Hills",
    "state": "TX",
    "zipCode": "78746-5280",
    "phone": "(512) 328-1500",
    "fax": "(512) 328-8650",
    "webSite": ""
  },
  {
    "name": "Center For Facial Pain & Dental Sleep Medicine",
    "street": "1001 Medical Plaza Dr Suite 200",
    "city": "The Woodlands",
    "state": "TX",
    "zipCode": "77380-3241",
    "phone": "(281) 296-6797",
    "fax": "(281) 296-6887",
    "webSite": ""
  },
  {
    "name": "Center For Sleep And Tmj Therpy Pllc",
    "street": "915 W Exchange Pkwy Ste 170",
    "city": "Allen",
    "state": "TX",
    "zipCode": "75013-7017",
    "phone": "(972) 727-7900",
    "fax": "(972) 727-7902",
    "webSite": ""
  },
  {
    "name": "Center Of Cosmetics And General Dentistry",
    "street": "1213 Rr 620 S Suite 205",
    "city": "Lakeway",
    "state": "TX",
    "zipCode": "78734-6340",
    "phone": "(512) 263-8337",
    "fax": "(512) 402-9558",
    "webSite": ""
  },
  {
    "name": "Center Pointe Dental",
    "street": "3121 W Alberta Rd ",
    "city": "Edinburg",
    "state": "TX",
    "zipCode": "78539-9402",
    "phone": "(956) 630-4899",
    "fax": "(956) 630-6599",
    "webSite": ""
  },
  {
    "name": "Centra One Dental",
    "street": "4318 W Fuqua St ",
    "city": "Houston",
    "state": "TX",
    "zipCode": "77045-6204",
    "phone": "(713) 433-7500",
    "fax": "(713) 433-6245",
    "webSite": ""
  },
  {
    "name": "Centra Dental",
    "street": "4318 W Fuqua St ",
    "city": "Houston",
    "state": "TX",
    "zipCode": "77045-6204",
    "phone": "(713) 433-7500",
    "fax": "",
    "webSite": ""
  },
  {
    "name": "Centra Soho Pllc",
    "street": "701 College Ave ",
    "city": "South Houston",
    "state": "TX",
    "zipCode": "77587-4205",
    "phone": "(713) 941-7555",
    "fax": "",
    "webSite": ""
  },
  {
    "name": "Centra Two Dental",
    "street": "5103 Broadway St 109",
    "city": "Pearland",
    "state": "TX",
    "zipCode": "77581-3900",
    "phone": "(281) 485-7767",
    "fax": "(281) 485-7745",
    "webSite": ""
  },
  {
    "name": "Central Park Dental",
    "street": "3101 S. Center St Suite #151",
    "city": "Arlington",
    "state": "TX",
    "zipCode": "76014",
    "phone": "(817) 466-1200",
    "fax": "(817) 466-1201",
    "webSite": ""
  },
  {
    "name": "Central Texas Family Dentistry Pc",
    "street": "1117 Ranch Road 1431 ",
    "city": "Kingsland",
    "state": "TX",
    "zipCode": "78639-4055",
    "phone": "(325) 388-6021",
    "fax": "(325) 388-9991",
    "webSite": ""
  },
  {
    "name": "Central Texas Oral Health Pllc",
    "street": "5625 Eiger Rd Suite 135",
    "city": "Austin",
    "state": "TX",
    "zipCode": "78735-8977",
    "phone": "(512) 386-1229",
    "fax": "(512) 394-5966",
    "webSite": ""
  },
  {
    "name": "Cerelli, Jason S",
    "street": "25300 Borough Park Dr ",
    "city": "Spring",
    "state": "TX",
    "zipCode": "77380-3552",
    "phone": "(281) 296-0052",
    "fax": "(281) 296-0118",
    "webSite": ""
  },
  {
    "name": "Cerone, Sean M.",
    "street": "271 E Southlake Blvd Suite 150",
    "city": "Southlake",
    "state": "TX",
    "zipCode": "76092-6271",
    "phone": "(817) 421-2437",
    "fax": "(817) 251-1467",
    "webSite": ""
  },
  {
    "name": "Cessac, Michael E",
    "street": "228 S 27Th St ",
    "city": "Nederland",
    "state": "TX",
    "zipCode": "77627-7532",
    "phone": "(409) 727-8816",
    "fax": "",
    "webSite": ""
  },
  {
    "name": "Cessna, Katelyn",
    "street": "401 N Ann St Ste A-B ",
    "city": "Terrell",
    "state": "TX",
    "zipCode": "75160-2549",
    "phone": "(972) 524-5347",
    "fax": "",
    "webSite": ""
  },
  {
    "name": "Cfd Associates Pc",
    "street": "500 Crystal Falls Pkwy ",
    "city": "Leander",
    "state": "TX",
    "zipCode": "78641-1921",
    "phone": "(512) 260-7400",
    "fax": "",
    "webSite": ""
  },
  {
    "name": "Central Family Dental",
    "street": "3202 S W S Young Dr Suite 101",
    "city": "Killeen",
    "state": "TX",
    "zipCode": "76542-6537",
    "phone": "(254) 519-2875",
    "fax": "",
    "webSite": ""
  },
  {
    "name": "Cha Masek, Linda",
    "street": "11661 Preston Rd Ste 104 ",
    "city": "Dallas",
    "state": "TX",
    "zipCode": "75230",
    "phone": "(214) 361-4151",
    "fax": "",
    "webSite": ""
  },
  {
    "name": "Cha, Andrew H",
    "street": "2560 Royal Ln Suite Number 114",
    "city": "Dallas",
    "state": "TX",
    "zipCode": "75229-3452",
    "phone": "(972) 620-2875",
    "fax": "",
    "webSite": ""
  },
  {
    "name": "Cha, Steve Hun",
    "street": "305 E. Fm 544 Suite 915",
    "city": "Murphy",
    "state": "TX",
    "zipCode": "75094",
    "phone": "(972) 423-0415",
    "fax": "(972) 423-0596",
    "webSite": ""
  },
  {
    "name": "Chacon-Smith, Lorena",
    "street": "905 N Gulf Blvd ",
    "city": "Freeport",
    "state": "TX",
    "zipCode": "77541-3907",
    "phone": "(281) 824-1490",
    "fax": "(281) 220-6407",
    "webSite": ""
  },
  {
    "name": "Chaconas, John Raymond",
    "street": "914 Fm 517 Rd W Ste 204 ",
    "city": "Dickinson",
    "state": "TX",
    "zipCode": "77539-3924",
    "phone": "(281) 337-5262",
    "fax": "",
    "webSite": ""
  },
  {
    "name": "Chad E Byler Dds Pa",
    "street": "201 Hunters Crossing Blvd Suite 16",
    "city": "Bastrop",
    "state": "TX",
    "zipCode": "78602-3972",
    "phone": "(512) 308-9860",
    "fax": "(512) 308-9862",
    "webSite": ""
  },
  {
    "name": "Chad Latino Dds Pa",
    "street": "6701 Sanger Ave Suite 101",
    "city": "Waco",
    "state": "TX",
    "zipCode": "76710-7736",
    "phone": "(254) 776-6241",
    "fax": "(254) 776-6017",
    "webSite": ""
  },
  {
    "name": "Chad T Fletcher Dds Pa",
    "street": "8989 Garland Rd ",
    "city": "Dallas",
    "state": "TX",
    "zipCode": "75218-3918",
    "phone": "(214) 328-9173",
    "fax": "(214) 328-9175",
    "webSite": ""
  },
  {
    "name": "Chaffin, Robert Nelson",
    "street": "2935 Thousand Oaks #5",
    "city": "San Antonio",
    "state": "TX",
    "zipCode": "78247",
    "phone": "(210) 545-6699",
    "fax": "(210) 545-6719",
    "webSite": ""
  },
  {
    "name": "Chafin, Phillip E",
    "street": "4502 S Mccoll Rd Cornerstone Medical Park",
    "city": "Edinburg",
    "state": "TX",
    "zipCode": "78539-9739",
    "phone": "(956) 630-4900",
    "fax": "(956) 630-4900",
    "webSite": ""
  },
  {
    "name": "Chahal, Prabhjot Kaur",
    "street": "10645 Broadway St ",
    "city": "Pearland",
    "state": "TX",
    "zipCode": "77584-8007",
    "phone": "(713) 436-9416",
    "fax": "",
    "webSite": ""
  },
  {
    "name": "Chahine, Justin",
    "street": "510 Curts Dr ",
    "city": "Grand Prairie",
    "state": "TX",
    "zipCode": "75052-6040",
    "phone": "(817) 420-2599",
    "fax": "",
    "webSite": ""
  },
  {
    "name": "Chakarvarty, Mridul",
    "street": "2110 W Slaughter Ln #190 ",
    "city": "Austin",
    "state": "TX",
    "zipCode": "78748",
    "phone": "(512) 593-4465",
    "fax": "",
    "webSite": ""
  },
  {
    "name": "Chakmakjian, Chris",
    "street": "3104 Ridge Rd ",
    "city": "Rockwall",
    "state": "TX",
    "zipCode": "75032-5807",
    "phone": "(972) 772-8588",
    "fax": "",
    "webSite": ""
  },
  {
    "name": "Chakraborti, Sumita",
    "street": "5145 N. Fm 620 Suite G-150",
    "city": "Austin",
    "state": "TX",
    "zipCode": "78732",
    "phone": "(512) 619-3514",
    "fax": "",
    "webSite": ""
  },
  {
    "name": "Chalajour, Mahasti",
    "street": "5901 Richmond Ave ",
    "city": "Houston",
    "state": "TX",
    "zipCode": "77057-6316",
    "phone": "(713) 914-0000",
    "fax": "",
    "webSite": ""
  },
  {
    "name": "Chalk, Ronald J",
    "street": "8315 Walnut Hill Ln Suite 230",
    "city": "Dallas",
    "state": "TX",
    "zipCode": "75231-4218",
    "phone": "(214) 691-6698",
    "fax": "",
    "webSite": ""
  },
  {
    "name": "Chamberlain, Thaddeus Miles",
    "street": "21142 Santa Lucia ",
    "city": "San Antonio",
    "state": "TX",
    "zipCode": "78259-2173",
    "phone": "(210) 565-0647",
    "fax": "(210) 565-4240",
    "webSite": ""
  },
  {
    "name": "Chambers, Kyle",
    "street": "2401 N Hobart St ",
    "city": "Pampa",
    "state": "TX",
    "zipCode": "79065-2723",
    "phone": "(806) 665-0256",
    "fax": "",
    "webSite": ""
  },
  {
    "name": "Chambers, Stanley Don",
    "street": "929 W Pioneer Pkwy Suite E",
    "city": "Grand Prairie",
    "state": "TX",
    "zipCode": "75051-4734",
    "phone": "(972) 641-4888",
    "fax": "(972) 641-5412",
    "webSite": ""
  },
  {
    "name": "Champion, Joshua Aaron",
    "street": "921 E Main Ave ",
    "city": "Alton",
    "state": "TX",
    "zipCode": "78573-1605",
    "phone": "(956) 583-5050",
    "fax": "",
    "webSite": ""
  },
  {
    "name": "Champion, Samantha Rae",
    "street": "800 E Dove Ave Ste C ",
    "city": "Mcallen",
    "state": "TX",
    "zipCode": "78504-2263",
    "phone": "(956) 661-1000",
    "fax": "",
    "webSite": ""
  },
  {
    "name": "Champions Dentistry Pa",
    "street": "8419 Louetta Rd Ste A ",
    "city": "Spring",
    "state": "TX",
    "zipCode": "77379-6737",
    "phone": "(281) 401-8200",
    "fax": "(281) 401-8201",
    "webSite": ""
  },
  {
    "name": "Champions Modern Dentistry",
    "street": "5620 Fm 1960 Road West ",
    "city": "Houston",
    "state": "TX",
    "zipCode": "77069",
    "phone": "(281) 880-9469",
    "fax": "(281) 880-9481",
    "webSite": ""
  },
  {
    "name": "Champsi, Mukhttar Jaffer",
    "street": "1304 Village Creek Dr #400",
    "city": "Plano",
    "state": "TX",
    "zipCode": "75093-4449",
    "phone": "(972) 733-3666",
    "fax": "",
    "webSite": ""
  },
  {
    "name": "Chan, Derek Mk",
    "street": "426 S Buckner Blvd ",
    "city": "Dallas",
    "state": "TX",
    "zipCode": "75217-6521",
    "phone": "(469) 248-2958",
    "fax": "",
    "webSite": ""
  },
  {
    "name": "Chan, Ho K",
    "street": "16312 Stuebner Airline Rd ",
    "city": "Spring",
    "state": "TX",
    "zipCode": "77379-7332",
    "phone": "(281) 379-3636",
    "fax": "",
    "webSite": ""
  },
  {
    "name": "Chan, Jarvis T",
    "street": "9110 Bellaire Blvd Suite P",
    "city": "Houston",
    "state": "TX",
    "zipCode": "77036-4626",
    "phone": "(713) 773-9621",
    "fax": "",
    "webSite": ""
  },
  {
    "name": "Chan, Lai Man",
    "street": "13145 Veterans Memorial Dr ",
    "city": "Houston",
    "state": "TX",
    "zipCode": "77014-1903",
    "phone": "(281) 580-4830",
    "fax": "(281) 580-1397",
    "webSite": ""
  },
  {
    "name": "Chan, Peter Kit Chun",
    "street": "10714 W Bellfort St ., Suite #A ",
    "city": "Houston",
    "state": "TX",
    "zipCode": "77099-4749",
    "phone": "(281) 530-0683",
    "fax": "",
    "webSite": ""
  },
  {
    "name": "Chan, Rachel S",
    "street": "1721 Waterbury Way ",
    "city": "Houston",
    "state": "TX",
    "zipCode": "77055-1491",
    "phone": "(214) 519-1289",
    "fax": "",
    "webSite": ""
  },
  {
    "name": "Chan, Sharon",
    "street": "4949 Hedgcoxe Rd #160",
    "city": "Plano",
    "state": "TX",
    "zipCode": "75024-3898",
    "phone": "(214) 387-9990",
    "fax": "(214) 387-9991",
    "webSite": ""
  },
  {
    "name": "Chan, Terence Song-Yang",
    "street": "11281 Fondren Rd Ste B ",
    "city": "Houston",
    "state": "TX",
    "zipCode": "77096",
    "phone": "(713) 484-8889",
    "fax": "",
    "webSite": ""
  },
  {
    "name": "Chan, Warren Biff",
    "street": "14441 Memorial Dr Suite 2",
    "city": "Houston",
    "state": "TX",
    "zipCode": "77079-6744",
    "phone": "(281) 589-2182",
    "fax": "(281) 589-8359",
    "webSite": ""
  },
  {
    "name": "Chance, Jeremy Wade",
    "street": "2511 W Holcombe Blvd Ste 200 ",
    "city": "Houston",
    "state": "TX",
    "zipCode": "77030-1903",
    "phone": "(713) 666-0003",
    "fax": "(713) 666-7999",
    "webSite": ""
  },
  {
    "name": "Chandesh, Aishwarya Kumar",
    "street": "816 Travis St Apt F65 ",
    "city": "Mission",
    "state": "TX",
    "zipCode": "78572-7147",
    "phone": "(972) 814-0485",
    "fax": "",
    "webSite": ""
  },
  {
    "name": "Chandler, Bryce S",
    "street": "11021 Old Corpus Christi Hwy ",
    "city": "San Antonio",
    "state": "TX",
    "zipCode": "78223",
    "phone": "(210) 633-0057",
    "fax": "(888) 633-2279",
    "webSite": ""
  },
  {
    "name": "Chandler, Karen Batchelder",
    "street": "5005 N Piedras St Dentac",
    "city": "El Paso",
    "state": "TX",
    "zipCode": "79920-5001",
    "phone": "(915) 742-6001",
    "fax": "(915) 742-5174",
    "webSite": ""
  },
  {
    "name": "Chandler, Randall S",
    "street": "11021 Old Corpus Christi Hwy ",
    "city": "San Antonio",
    "state": "TX",
    "zipCode": "78223-9363",
    "phone": "(210) 633-2050",
    "fax": "",
    "webSite": ""
  },
  {
    "name": "Chandler, Thomas",
    "street": "9200 White Settlement Rd ",
    "city": "Ft Worth",
    "state": "TX",
    "zipCode": "76108-2028",
    "phone": "(817) 246-2721",
    "fax": "",
    "webSite": ""
  },
  {
    "name": "Chandran, Sangita",
    "street": "906 W Mcdermott Dr Ste 112",
    "city": "Allen",
    "state": "TX",
    "zipCode": "75013-6510",
    "phone": "(214) 495-8884",
    "fax": "(214) 495-8886",
    "webSite": ""
  },
  {
    "name": "Chandrasekaran, Meera",
    "street": "1221 W Ben White Blvd Suite 112B",
    "city": "Austin",
    "state": "TX",
    "zipCode": "78704-7192",
    "phone": "(512) 978-9700",
    "fax": "(512) 279-2307",
    "webSite": ""
  },
  {
    "name": "Chandrashekar, Parvatham",
    "street": "13729 Research Blvd Suite 840",
    "city": "Austin",
    "state": "TX",
    "zipCode": "78750-1883",
    "phone": "(512) 258-7890",
    "fax": "(512) 258-9014",
    "webSite": ""
  },
  {
    "name": "Chandrashekhar, Sumathi",
    "street": "5605 Old Bullard Road ",
    "city": "Tyler",
    "state": "TX",
    "zipCode": "75703-1018",
    "phone": "(760) 628-5664",
    "fax": "",
    "webSite": ""
  },
  {
    "name": "Chandy, Moji",
    "street": "2500 Ne Green Oaks Blvd Ste 102",
    "city": "Arlington",
    "state": "TX",
    "zipCode": "76006-3000",
    "phone": "(214) 455-3111",
    "fax": "(214) 292-8777",
    "webSite": ""
  },
  {
    "name": "Chang, Bill Po Wei",
    "street": "9245 Virginia Pkwy Ste 300 ",
    "city": "Mckinney",
    "state": "TX",
    "zipCode": "75071-6232",
    "phone": "(972) 346-5133",
    "fax": "(972) 586-7025",
    "webSite": ""
  },
  {
    "name": "Chang, Carol C",
    "street": "17125 Westheimer Rd ",
    "city": "Houston",
    "state": "TX",
    "zipCode": "77082",
    "phone": "(281) 741-1000",
    "fax": "",
    "webSite": ""
  },
  {
    "name": "Chang, Ching",
    "street": "8800 Katy Fwy Suite 280",
    "city": "Houston",
    "state": "TX",
    "zipCode": "77024-1633",
    "phone": "(713) 365-9904",
    "fax": "(713) 365-9781",
    "webSite": ""
  },
  {
    "name": "Chang, Daniel E",
    "street": "312 N Central Expy ",
    "city": "Mckinney",
    "state": "TX",
    "zipCode": "75070-3520",
    "phone": "(214) 842-8825",
    "fax": "(214) 842-8971",
    "webSite": ""
  },
  {
    "name": "Chang, David Jonathan",
    "street": "3823 South Shaver Suite A",
    "city": "Pasadena",
    "state": "TX",
    "zipCode": "77504",
    "phone": "(713) 947-7837",
    "fax": "(713) 947-7838",
    "webSite": ""
  },
  {
    "name": "Chang, Derek",
    "street": "737 Everhart Rd Suite B",
    "city": "Corpus Christi",
    "state": "TX",
    "zipCode": "78411-1924",
    "phone": "(361) 992-7631",
    "fax": "",
    "webSite": ""
  },
  {
    "name": "Chang, Lin",
    "street": "101 E Corporate Dr Ste. 120",
    "city": "Lewisville",
    "state": "TX",
    "zipCode": "75067-6603",
    "phone": "(972) 459-5608",
    "fax": "(972) 459-5638",
    "webSite": ""
  },
  {
    "name": "Chang, Michael William",
    "street": "12450 East Fwy Ste 140 ",
    "city": "Houston",
    "state": "TX",
    "zipCode": "77015",
    "phone": "(832) 872-2930",
    "fax": "",
    "webSite": ""
  },
  {
    "name": "Chang, Minho",
    "street": "10710 Eldorado Pkwy Suite 160",
    "city": "Frisco",
    "state": "TX",
    "zipCode": "75035",
    "phone": "(469) 731-5700",
    "fax": "(469) 731-5705",
    "webSite": ""
  },
  {
    "name": "Chang, Robert Nghia",
    "street": "3315 Burke Rd Ste 303 ",
    "city": "Pasadena",
    "state": "TX",
    "zipCode": "77504-1825",
    "phone": "(713) 947-0293",
    "fax": "",
    "webSite": ""
  },
  {
    "name": "Chang, Szu Wei",
    "street": "3325 Belt Line Rd ",
    "city": "Garland",
    "state": "TX",
    "zipCode": "75044-6913",
    "phone": "(972) 333-1291",
    "fax": "",
    "webSite": ""
  },
  {
    "name": "Chapala, Hema Kishore",
    "street": "216 Dalton Dr ",
    "city": "Desoto",
    "state": "TX",
    "zipCode": "75115-4414",
    "phone": "(972) 230-1100",
    "fax": "",
    "webSite": ""
  },
  {
    "name": "Chaparala, Sri Lakshmi",
    "street": "4021 Belt Line Rd Ste 102 ",
    "city": "Addison",
    "state": "TX",
    "zipCode": "75001-5878",
    "phone": "(469) 440-7105",
    "fax": "",
    "webSite": ""
  },
  {
    "name": "Chaparro, Daniel",
    "street": "5214 75Th St ",
    "city": "Lubbock",
    "state": "TX",
    "zipCode": "79424-2520",
    "phone": "(806) 794-1545",
    "fax": "",
    "webSite": ""
  },
  {
    "name": "Chaparro, Luis Sergio",
    "street": "1123 Colina Bella Dr ",
    "city": "El Paso",
    "state": "TX",
    "zipCode": "79928-6053",
    "phone": "(915) 239-5630",
    "fax": "",
    "webSite": ""
  },
  {
    "name": "Chaparro, Noe Josue",
    "street": "1199 Old Lorena Rd ",
    "city": "Lorena",
    "state": "TX",
    "zipCode": "76655-3176",
    "phone": "(254) 655-4323",
    "fax": "",
    "webSite": ""
  },
  {
    "name": "Chapman, David M",
    "street": "13725 Northwest Blvd Medical Plaza I Ste I David M Chapman Dds",
    "city": "Corpus Christi",
    "state": "TX",
    "zipCode": "78410",
    "phone": "(361) 387-5521",
    "fax": "(361) 767-9028",
    "webSite": ""
  },
  {
    "name": "Chapman, Larry L",
    "street": "333 N Shiloh Rd Suite 101",
    "city": "Garland",
    "state": "TX",
    "zipCode": "75042-6680",
    "phone": "(972) 276-1810",
    "fax": "(972) 276-1740",
    "webSite": ""
  },
  {
    "name": "Chapman, Richard J",
    "street": "3405 Silverstone Dr ",
    "city": "Plano",
    "state": "TX",
    "zipCode": "75023-7840",
    "phone": "(972) 867-5090",
    "fax": "(972) 398-6788",
    "webSite": ""
  },
  {
    "name": "Chappell, Garrett E",
    "street": "1307 Tahoka Rd ",
    "city": "Brownfield",
    "state": "TX",
    "zipCode": "79316-4006",
    "phone": "(806) 637-8386",
    "fax": "(806) 637-8504",
    "webSite": ""
  },
  {
    "name": "Char, Bernard Siu Lai",
    "street": "7270 E Highway 191 Ste 206 ",
    "city": "Odessa",
    "state": "TX",
    "zipCode": "79765-8657",
    "phone": "(432) 614-4144",
    "fax": "(432) 614-4164",
    "webSite": ""
  },
  {
    "name": "Charisma Dental",
    "street": "1735 Keller Springs Rd Ste 212 ",
    "city": "Carrollton",
    "state": "TX",
    "zipCode": "75006-3014",
    "phone": "(469) 501-2660",
    "fax": "",
    "webSite": ""
  },
  {
    "name": "Charles D Kolb Dds Inc",
    "street": "1210 Gregory St Ste 3",
    "city": "Taft",
    "state": "TX",
    "zipCode": "78390-0212",
    "phone": "(361) 528-3262",
    "fax": "(361) 528-2016",
    "webSite": ""
  },
  {
    "name": "Kolb Dentistry",
    "street": "4449 S Alameda St Ste #1",
    "city": "Corpus Christi",
    "state": "TX",
    "zipCode": "78412-2464",
    "phone": "(361) 991-5652",
    "fax": "(361) 991-5653",
    "webSite": ""
  },
  {
    "name": "Charles Ho Dds Pllc",
    "street": "6918 Corporate Dr Ste B6 ",
    "city": "Houston",
    "state": "TX",
    "zipCode": "77036-5114",
    "phone": "(713) 272-8883",
    "fax": "",
    "webSite": ""
  },
  {
    "name": "Charles J Portales Dds Pc",
    "street": "2101 Maurel ",
    "city": "Conroe",
    "state": "TX",
    "zipCode": "77304-1231",
    "phone": "(936) 441-3363",
    "fax": "(936) 494-2189",
    "webSite": ""
  },
  {
    "name": "Charles R. Williams, Dds, Pa",
    "street": "602 N. Hampton Rd. ",
    "city": "Desoto",
    "state": "TX",
    "zipCode": "75115-4309",
    "phone": "(972) 230-1755",
    "fax": "",
    "webSite": ""
  },
  {
    "name": "Charlie, Anne",
    "street": "22618 Aldine Westfield Rd ",
    "city": "Spring",
    "state": "TX",
    "zipCode": "77373-6569",
    "phone": "(832) 706-4930",
    "fax": "",
    "webSite": ""
  },
  {
    "name": "Charmdental",
    "street": "3403 Louetta Rd Suite B",
    "city": "Spring",
    "state": "TX",
    "zipCode": "77388-4868",
    "phone": "(201) 214-5136",
    "fax": "",
    "webSite": ""
  },
  {
    "name": "Charunmethee, Pintip",
    "street": "4801 Bryan St Ste 400 ",
    "city": "Dallas",
    "state": "TX",
    "zipCode": "75204-8037",
    "phone": "(214) 823-1181",
    "fax": "(214) 823-1183",
    "webSite": ""
  },
  {
    "name": "Chatham, Kenneth D.",
    "street": "119 W Commercial Ave P.O.B. 155",
    "city": "La Feria",
    "state": "TX",
    "zipCode": "78559-5108",
    "phone": "(956) 797-2230",
    "fax": "",
    "webSite": ""
  },
  {
    "name": "Chau, Jennifer Lan",
    "street": "1467 E Court St ",
    "city": "Seguin",
    "state": "TX",
    "zipCode": "78155-5165",
    "phone": "(972) 869-3789",
    "fax": "(972) 619-7622",
    "webSite": ""
  },
  {
    "name": "Chau, Monica Crystal",
    "street": "1403 N Loop 336 W Ste C ",
    "city": "Conroe",
    "state": "TX",
    "zipCode": "77304-3672",
    "phone": "(936) 539-4867",
    "fax": "",
    "webSite": ""
  },
  {
    "name": "Chau, Sydney",
    "street": "425 S Summit Ave ",
    "city": "Fort Worth",
    "state": "TX",
    "zipCode": "76104-1023",
    "phone": "(817) 335-3993",
    "fax": "",
    "webSite": ""
  },
  {
    "name": "Chau, Tuan Anh",
    "street": "5080 Spectrum Dr Ste 610E ",
    "city": "Addison",
    "state": "TX",
    "zipCode": "75001-6487",
    "phone": "(972) 233-2111",
    "fax": "",
    "webSite": ""
  },
  {
    "name": "Chau, Vonica",
    "street": "2621 Matlock Rd Ste 1004 ",
    "city": "Arlington",
    "state": "TX",
    "zipCode": "76015-2592",
    "phone": "(817) 548-8925",
    "fax": "(817) 548-0099",
    "webSite": ""
  },
  {
    "name": "Chaudhari, Girishkumar",
    "street": "3030 Lbj Fwy Suite 400",
    "city": "Dallas",
    "state": "TX",
    "zipCode": "75234-7781",
    "phone": "(972) 444-8888",
    "fax": "(972) 488-8848",
    "webSite": ""
  },
  {
    "name": "Chaudhari, Rohit Rugnathbhai",
    "street": "3030 Lbj Fwy Ste 1400 ",
    "city": "Dallas",
    "state": "TX",
    "zipCode": "75234-2766",
    "phone": "(972) 663-5301",
    "fax": "",
    "webSite": ""
  },
  {
    "name": "Chaudhry, Faysal Y.",
    "street": "7410 Preston Rd Suite 121",
    "city": "Frisco",
    "state": "TX",
    "zipCode": "75034-5681",
    "phone": "(860) 335-5966",
    "fax": "",
    "webSite": ""
  },
  {
    "name": "Chaudhury, Deepa",
    "street": "1401 E 8Th St ",
    "city": "Odessa",
    "state": "TX",
    "zipCode": "79761-4802",
    "phone": "(888) 988-4066",
    "fax": "(847) 496-7603",
    "webSite": ""
  },
  {
    "name": "Chauhan, Virendrasinh",
    "street": "15068 San Pedro Ave ",
    "city": "San Antonio",
    "state": "TX",
    "zipCode": "78232-3714",
    "phone": "(210) 494-7681",
    "fax": "",
    "webSite": ""
  },
  {
    "name": "Chaumont, Catherine",
    "street": "1050 5Th Ave Ste G ",
    "city": "Fort Worth",
    "state": "TX",
    "zipCode": "76104-2903",
    "phone": "(817) 332-9700",
    "fax": "",
    "webSite": ""
  },
  {
    "name": "Chavarria, Arnaldo",
    "street": "11360 Montwood Dr Suite D",
    "city": "El Paso",
    "state": "TX",
    "zipCode": "79936-4546",
    "phone": "(915) 855-9655",
    "fax": "(915) 855-9209",
    "webSite": ""
  },
  {
    "name": "Chavarria, Carmen",
    "street": "6655 Hillcroft St Suite 206",
    "city": "Houston",
    "state": "TX",
    "zipCode": "77081-4815",
    "phone": "(713) 272-9196",
    "fax": "(713) 272-9198",
    "webSite": ""
  },
  {
    "name": "Chavarria, Lazaro",
    "street": "6655 Hillcroft St Suite 206",
    "city": "Houston",
    "state": "TX",
    "zipCode": "77081-4815",
    "phone": "(713) 272-9196",
    "fax": "(713) 272-9198",
    "webSite": ""
  },
  {
    "name": "Chawala, Tathagat",
    "street": "3010 Lbj Fwy Ste 200 ",
    "city": "Dallas",
    "state": "TX",
    "zipCode": "75234-2723",
    "phone": "(972) 444-8888",
    "fax": "(972) 243-6059",
    "webSite": ""
  },
  {
    "name": "Chawla, Manika",
    "street": "419 W Little York Rd ",
    "city": "Houston",
    "state": "TX",
    "zipCode": "77076",
    "phone": "(832) 606-3007",
    "fax": "",
    "webSite": ""
  },
  {
    "name": "Caribbean Dental",
    "street": "10705 Gateway Blvd W Ste J ",
    "city": "El Paso",
    "state": "TX",
    "zipCode": "79935-4921",
    "phone": "(972) 786-1734",
    "fax": "",
    "webSite": ""
  },
  {
    "name": "Cheer Dental",
    "street": "2628 Cedar Elm Ln ",
    "city": "Plano",
    "state": "TX",
    "zipCode": "75075-3105",
    "phone": "(972) 768-6138",
    "fax": "",
    "webSite": ""
  },
  {
    "name": "Chelkowski, John D.",
    "street": "4419 Frontier Trl Ste. 104",
    "city": "Austin",
    "state": "TX",
    "zipCode": "78745-1686",
    "phone": "(512) 444-1133",
    "fax": "(512) 445-0552",
    "webSite": ""
  },
  {
    "name": "Chen, Allen",
    "street": "4625 Austin Pkwy ",
    "city": "Sugar Land",
    "state": "TX",
    "zipCode": "77479-2146",
    "phone": "(281) 491-8988",
    "fax": "(281) 491-8729",
    "webSite": ""
  },
  {
    "name": "Chen, Amy",
    "street": "9288 Bellaire Blvd ",
    "city": "Houston",
    "state": "TX",
    "zipCode": "77036-4502",
    "phone": "(713) 270-7044",
    "fax": "",
    "webSite": ""
  },
  {
    "name": "Chen, Andrew T",
    "street": "7333 Coit Rd. Ste #110",
    "city": "Frisco",
    "state": "TX",
    "zipCode": "75035-4905",
    "phone": "(469) 200-0544",
    "fax": "(888) 977-2940",
    "webSite": ""
  },
  {
    "name": "Chen, Angela",
    "street": "3747 Walnut Hill Ln ",
    "city": "Dallas",
    "state": "TX",
    "zipCode": "75229-6139",
    "phone": "(214) 484-7010",
    "fax": "",
    "webSite": ""
  },
  {
    "name": "Chen, Becky",
    "street": "9288 Bellaire Blvd ",
    "city": "Houston",
    "state": "TX",
    "zipCode": "77036-4502",
    "phone": "(713) 270-7044",
    "fax": "",
    "webSite": ""
  },
  {
    "name": "Chen, Chiyuan",
    "street": "2336 S Buckner Blvd ",
    "city": "Dallas",
    "state": "TX",
    "zipCode": "75227-8605",
    "phone": "(972) 728-4319",
    "fax": "",
    "webSite": ""
  },
  {
    "name": "Chen, Frost",
    "street": "12247 Briar Forest Dr ",
    "city": "Houston",
    "state": "TX",
    "zipCode": "77077-2501",
    "phone": "(716) 226-8350",
    "fax": "",
    "webSite": ""
  },
  {
    "name": "Chen, Jason Xin",
    "street": "105 E Belt Line Rd Ste 900 ",
    "city": "Cedar Hill",
    "state": "TX",
    "zipCode": "75104-2230",
    "phone": "(469) 454-3045",
    "fax": "",
    "webSite": ""
  },
  {
    "name": "Chen, Jessica C",
    "street": "2200 Victory Ave Apt 1307 ",
    "city": "Dallas",
    "state": "TX",
    "zipCode": "75219-7679",
    "phone": "(408) 892-9073",
    "fax": "",
    "webSite": ""
  },
  {
    "name": "Chen, Jimmie",
    "street": "1700 E Palm Valley Blvd Ste 495 ",
    "city": "Round Rock",
    "state": "TX",
    "zipCode": "78664-4680",
    "phone": "(512) 246-7373",
    "fax": "",
    "webSite": ""
  },
  {
    "name": "Chen, Jin Yuan",
    "street": "9198 Bellaire Blvd Ste B ",
    "city": "Houston",
    "state": "TX",
    "zipCode": "77036-4630",
    "phone": "(713) 981-6878",
    "fax": "(713) 981-8822",
    "webSite": ""
  },
  {
    "name": "Chen, Joseph J",
    "street": "5014 Main St ",
    "city": "The Colony",
    "state": "TX",
    "zipCode": "75056-2250",
    "phone": "(469) 425-9988",
    "fax": "(469) 425-9990",
    "webSite": ""
  },
  {
    "name": "Chen, Kyleen Jieh-Ling",
    "street": "6301 W Parmer Ln Suite #606",
    "city": "Austin",
    "state": "TX",
    "zipCode": "78729-6801",
    "phone": "(512) 918-0888",
    "fax": "(512) 918-0886",
    "webSite": ""
  },
  {
    "name": "Chen, Liang",
    "street": "1108 N Mechanic St ",
    "city": "El Campo",
    "state": "TX",
    "zipCode": "77437-3030",
    "phone": "(979) 541-5400",
    "fax": "",
    "webSite": ""
  },
  {
    "name": "Chen, Lily",
    "street": "4747 Bellaire Blvd Ste 300 ",
    "city": "Bellaire",
    "state": "TX",
    "zipCode": "77401-4519",
    "phone": "(713) 665-2088",
    "fax": "",
    "webSite": ""
  },
  {
    "name": "Chen, Ming-Hsiang Peter",
    "street": "9288 Bellaire Blvd ",
    "city": "Houston",
    "state": "TX",
    "zipCode": "77036-4502",
    "phone": "(713) 270-7044",
    "fax": "",
    "webSite": ""
  },
  {
    "name": "Chen, Stephen Joseph",
    "street": "11455 Fallbrook Dr #201",
    "city": "Houston",
    "state": "TX",
    "zipCode": "77065-4238",
    "phone": "(832) 237-4746",
    "fax": "(281) 890-4862",
    "webSite": ""
  },
  {
    "name": "Chen, Tin-Sheng",
    "street": "1807 W. Slaughter Ln. #650",
    "city": "Austin",
    "state": "TX",
    "zipCode": "78748",
    "phone": "(512) 282-4266",
    "fax": "(512) 282-4269",
    "webSite": ""
  },
  {
    "name": "Chen, Ya-Lin",
    "street": "8404 Stacy Road Suite 100",
    "city": "Mckinney",
    "state": "TX",
    "zipCode": "75070",
    "phone": "(972) 548-1688",
    "fax": "",
    "webSite": ""
  },
  {
    "name": "Chen, Yupei",
    "street": "2301 Central Expy Suite 270",
    "city": "Plano",
    "state": "TX",
    "zipCode": "75075-2535",
    "phone": "(972) 479-9304",
    "fax": "",
    "webSite": ""
  },
  {
    "name": "Chen-Mizuuchi, Eileen Lin",
    "street": "5000 Collin Mckinney Pkwy Suite 130",
    "city": "Mckinney",
    "state": "TX",
    "zipCode": "75070",
    "phone": "(469) 301-1255",
    "fax": "(469) 301-1255",
    "webSite": ""
  },
  {
    "name": "Chenault, Waneta Lee",
    "street": "2280 Highland Village Rd Ste. 100",
    "city": "Highland Village",
    "state": "TX",
    "zipCode": "75077-7146",
    "phone": "(972) 966-6686",
    "fax": "",
    "webSite": ""
  },
  {
    "name": "Chenausky, Michelle N",
    "street": "8210 Floyd Curl Dr # 8103 ",
    "city": "San Antonio",
    "state": "TX",
    "zipCode": "78229",
    "phone": "(210) 450-3273",
    "fax": "(210) 450-2223",
    "webSite": ""
  },
  {
    "name": "Chenausky, Ryan August",
    "street": "1624 N. Lee Trevino Suite A",
    "city": "El Paso",
    "state": "TX",
    "zipCode": "79936-5100",
    "phone": "(915) 593-8815",
    "fax": "(915) 593-8857",
    "webSite": ""
  },
  {
    "name": "Cheng Yen Dmd Pllc",
    "street": "1475 George Dieter Dr Suite L",
    "city": "El Paso",
    "state": "TX",
    "zipCode": "79936-7677",
    "phone": "(915) 857-1111",
    "fax": "(915) 857-1212",
    "webSite": ""
  },
  {
    "name": "Cheng, David",
    "street": "3030 Lbj Fwy Ste 1400 ",
    "city": "Dallas",
    "state": "TX",
    "zipCode": "75234-2766",
    "phone": "(972) 663-5301",
    "fax": "",
    "webSite": ""
  },
  {
    "name": "Cheng, David",
    "street": "110 N. I-35 Suite 380",
    "city": "Round Rock",
    "state": "TX",
    "zipCode": "78681",
    "phone": "(512) 462-3232",
    "fax": "",
    "webSite": ""
  },
  {
    "name": "Cheng, Hao Chuan",
    "street": "415 Westheimer Rd Ste 209 ",
    "city": "Houston",
    "state": "TX",
    "zipCode": "77006",
    "phone": "(512) 560-5649",
    "fax": "",
    "webSite": ""
  },
  {
    "name": "Cheng, Johnny Shu-Luan",
    "street": "4900 Overton Ridge Blvd Suite 112",
    "city": "Fort Worth",
    "state": "TX",
    "zipCode": "76132-1940",
    "phone": "(817) 292-5957",
    "fax": "(817) 292-0763",
    "webSite": ""
  },
  {
    "name": "Cheng, Linda Ling",
    "street": "3825 W Spring Creek Pkwy Suite 200",
    "city": "Plano",
    "state": "TX",
    "zipCode": "75023-3849",
    "phone": "(972) 867-7768",
    "fax": "(972) 867-0800",
    "webSite": ""
  },
  {
    "name": "Cheng, Wendy Chih-Yun",
    "street": "12800 Fountain Lake Cir ",
    "city": "Stafford",
    "state": "TX",
    "zipCode": "77477-3756",
    "phone": "(281) 277-7744",
    "fax": "(281) 277-1236",
    "webSite": ""
  },
  {
    "name": "Gentle Touch Family And Cosmetic Dentistry",
    "street": "1750 Alma Rd ",
    "city": "Richardson",
    "state": "TX",
    "zipCode": "75081-6725",
    "phone": "(214) 733-4241",
    "fax": "",
    "webSite": ""
  },
  {
    "name": "Chepyala, Anuritha",
    "street": "1750 Alma Rd Ste 110 ",
    "city": "Richardson",
    "state": "TX",
    "zipCode": "75081-1863",
    "phone": "(469) 320-1346",
    "fax": "(469) 320-1356",
    "webSite": ""
  },
  {
    "name": "Leon Springs Family Dental",
    "street": "24165 Ih 10 W Suite 125",
    "city": "San Antonio",
    "state": "TX",
    "zipCode": "78257-1159",
    "phone": "(210) 698-0610",
    "fax": "(210) 698-0631",
    "webSite": ""
  },
  {
    "name": "Cherry Blossom Molina Pllc",
    "street": "811 Ne Alsbury Blvd Suite 600",
    "city": "Burleson",
    "state": "TX",
    "zipCode": "76028-2668",
    "phone": "(817) 756-8647",
    "fax": "",
    "webSite": ""
  },
  {
    "name": "Cherry Creek Dental Group P.C.",
    "street": "5700 Manchaca Rd Suite 340",
    "city": "Austin",
    "state": "TX",
    "zipCode": "78745-3679",
    "phone": "(512) 448-9655",
    "fax": "(512) 448-9668",
    "webSite": ""
  },
  {
    "name": "Cherry, Michael",
    "street": "1665 W Texas Ave ",
    "city": "Waskom",
    "state": "TX",
    "zipCode": "75692-9652",
    "phone": "(903) 687-2984",
    "fax": "(903) 687-2038",
    "webSite": ""
  },
  {
    "name": "Cherry, William Fredrick",
    "street": "2426 South Carrier Parkway Suite 102",
    "city": "Grand Prairie",
    "state": "TX",
    "zipCode": "75051-8506",
    "phone": "(972) 641-8415",
    "fax": "",
    "webSite": ""
  },
  {
    "name": "Springlove Dentistry",
    "street": "6380 Louetta Rd ",
    "city": "Spring",
    "state": "TX",
    "zipCode": "77379-7589",
    "phone": "(281) 288-1500",
    "fax": "",
    "webSite": ""
  },
  {
    "name": "Cherukadu Vasalaa, Srikanth",
    "street": "4622 W Commerce St Ste 108 ",
    "city": "San Antonio",
    "state": "TX",
    "zipCode": "78237-1608",
    "phone": "(210) 757-9915",
    "fax": "",
    "webSite": ""
  },
  {
    "name": "Cherukumalli, Neelima Chowdary",
    "street": "3333 Telephone Rd ",
    "city": "Houston",
    "state": "TX",
    "zipCode": "77023-5401",
    "phone": "(713) 900-2400",
    "fax": "",
    "webSite": ""
  },
  {
    "name": "Cheryl L. Rhoden, Dds, Pc",
    "street": "2222 Airline Rd Ste A4 ",
    "city": "Corpus Christi",
    "state": "TX",
    "zipCode": "78414-2644",
    "phone": "(361) 853-8999",
    "fax": "(361) 853-4084",
    "webSite": ""
  },
  {
    "name": "Chesson, John Chadwick",
    "street": "5131 South Fry Rd Ste 800",
    "city": "Katy",
    "state": "TX",
    "zipCode": "77450",
    "phone": "(281) 944-4500",
    "fax": "(281) 944-4505",
    "webSite": ""
  },
  {
    "name": "Doniphan Family Dental",
    "street": "6821 Doniphan Dr ",
    "city": "Canutillo",
    "state": "TX",
    "zipCode": "79835",
    "phone": "(915) 788-4949",
    "fax": "(915) 877-4242",
    "webSite": ""
  },
  {
    "name": "Chetwood Dental Clinic Pllc",
    "street": "6910 Chetwood Dr Ste C ",
    "city": "Houston",
    "state": "TX",
    "zipCode": "77081-5612",
    "phone": "(281) 451-7886",
    "fax": "",
    "webSite": ""
  },
  {
    "name": "Cheung, Jojo",
    "street": "4708 W. Plano Pkwy #100 ",
    "city": "Plano",
    "state": "TX",
    "zipCode": "75093",
    "phone": "(972) 612-8388",
    "fax": "(972) 612-4018",
    "webSite": ""
  },
  {
    "name": "Cheung, Tristan",
    "street": "2690 E. Us 290 Suite 400",
    "city": "Dripping Springs",
    "state": "TX",
    "zipCode": "78260",
    "phone": "(512) 607-6500",
    "fax": "(512) 607-6651",
    "webSite": ""
  },
  {
    "name": "Chi Family Dental",
    "street": "8731 Hwy 6 Ste 300",
    "city": "Missouri City",
    "state": "TX",
    "zipCode": "77459",
    "phone": "(713) 213-2658",
    "fax": "(866) 892-0774",
    "webSite": ""
  },
  {
    "name": "Chiang, Jan Xie",
    "street": "1420 Wells Branch Parkway, Ste 490 ",
    "city": "Pflugerville",
    "state": "TX",
    "zipCode": "78660-3170",
    "phone": "(512) 989-2489",
    "fax": "(512) 989-2976",
    "webSite": ""
  },
  {
    "name": "Ideal Smiles Family Dentistry",
    "street": "8191 Southwest Fwy Suite 117",
    "city": "Houston",
    "state": "TX",
    "zipCode": "77074-1709",
    "phone": "(713) 270-9926",
    "fax": "(713) 270-9931",
    "webSite": ""
  },
  {
    "name": "Chic Smiles Dental Lllp",
    "street": "10603 Fuqua St Ste D",
    "city": "Houston",
    "state": "TX",
    "zipCode": "77089-2630",
    "phone": "(713) 944-4901",
    "fax": "",
    "webSite": ""
  },
  {
    "name": "Chiem, Thanh",
    "street": "1127 Wake Dr ",
    "city": "Richardson",
    "state": "TX",
    "zipCode": "75081-3740",
    "phone": "(972) 375-1938",
    "fax": "",
    "webSite": ""
  },
  {
    "name": "Chigurupati, Ramya",
    "street": "508 W Mcdermott Dr Suite 100",
    "city": "Allen",
    "state": "TX",
    "zipCode": "75013-2777",
    "phone": "(214) 222-9108",
    "fax": "",
    "webSite": ""
  },
  {
    "name": "Chikonya",
    "street": "4611 Steel St ",
    "city": "Dallas",
    "state": "TX",
    "zipCode": "75219-2421",
    "phone": "(484) 802-4619",
    "fax": "",
    "webSite": ""
  },
  {
    "name": "Childers, Margaret Braden",
    "street": "20919 Kingsland Blvd ",
    "city": "Katy",
    "state": "TX",
    "zipCode": "77450-5548",
    "phone": "(281) 578-6661",
    "fax": "(281) 578-6682",
    "webSite": ""
  },
  {
    "name": "Childrens Dentistry Of Amarillo",
    "street": "4501 Vanwinkle ",
    "city": "Amarillo",
    "state": "TX",
    "zipCode": "79119",
    "phone": "(806) 351-0008",
    "fax": "(806) 351-0053",
    "webSite": ""
  },
  {
    "name": "Childress, Steven A",
    "street": "421 N Robinson Dr ",
    "city": "Robinson",
    "state": "TX",
    "zipCode": "76706-5303",
    "phone": "(254) 662-3306",
    "fax": "(254) 662-2500",
    "webSite": ""
  },
  {
    "name": "Chiles, Ronald Keith",
    "street": "101 San Jacinto ",
    "city": "Whitney",
    "state": "TX",
    "zipCode": "76692",
    "phone": "(254) 694-3111",
    "fax": "(254) 694-6292",
    "webSite": ""
  },
  {
    "name": "Chilton, J. Carl",
    "street": "434 Weatherly St ",
    "city": "Borger",
    "state": "TX",
    "zipCode": "79007-4220",
    "phone": "(806) 274-5329",
    "fax": "(806) 274-7115",
    "webSite": ""
  },
  {
    "name": "Chinta, Sridhar Krishna",
    "street": "4511 Western Center Blvd ",
    "city": "Fort Worth",
    "state": "TX",
    "zipCode": "76137-2628",
    "phone": "(817) 918-3343",
    "fax": "",
    "webSite": ""
  },
  {
    "name": "Chiou, Jyun-Heng",
    "street": "14285 Midway Rd Suite 160",
    "city": "Addison",
    "state": "TX",
    "zipCode": "75001-3622",
    "phone": "(972) 361-0600",
    "fax": "",
    "webSite": ""
  },
  {
    "name": "Chisholm Trail Dental",
    "street": "381 Mercedes St ",
    "city": "Benbrook",
    "state": "TX",
    "zipCode": "76126-2593",
    "phone": "(817) 953-7700",
    "fax": "",
    "webSite": ""
  },
  {
    "name": "Chitkara, Surina",
    "street": "3010 Lbj Fwy Ste 200 ",
    "city": "Dallas",
    "state": "TX",
    "zipCode": "75234-2723",
    "phone": "(972) 444-8888",
    "fax": "(972) 243-6059",
    "webSite": ""
  },
  {
    "name": "Chitre, Sanjukta S",
    "street": "3685 Preston Rd Suite 145",
    "city": "Frisco",
    "state": "TX",
    "zipCode": "75034-9509",
    "phone": "(972) 377-5516",
    "fax": "(972) 377-5517",
    "webSite": ""
  },
  {
    "name": "Chitsey, Douglas Franklin",
    "street": "3419 Johnson Ave ",
    "city": "San Angelo",
    "state": "TX",
    "zipCode": "76904-5554",
    "phone": "(325) 949-9696",
    "fax": "(325) 949-7989",
    "webSite": ""
  },
  {
    "name": "Chitta, Harini",
    "street": "2305 W William Cannon Dr ",
    "city": "Austin",
    "state": "TX",
    "zipCode": "78745-5319",
    "phone": "(512) 444-3494",
    "fax": "",
    "webSite": ""
  },
  {
    "name": "Chittal Ramachandra Reddy Lakshmi, Deepti",
    "street": "3020 39Th St ",
    "city": "Port Arthur",
    "state": "TX",
    "zipCode": "77642-5548",
    "phone": "(409) 433-6462",
    "fax": "",
    "webSite": ""
  },
  {
    "name": "Chiu, Jieun",
    "street": "908 Southmore Suite 100",
    "city": "Pasadena",
    "state": "TX",
    "zipCode": "77502-1120",
    "phone": "(713) 554-1091",
    "fax": "(713) 554-1096",
    "webSite": ""
  },
  {
    "name": "Cho, Daniel Hangshin",
    "street": "7253 Rawlins Ln ",
    "city": "Frisco",
    "state": "TX",
    "zipCode": "75036-4442",
    "phone": "(469) 261-7889",
    "fax": "",
    "webSite": ""
  },
  {
    "name": "Cho, Dave",
    "street": "12718 Trail Hollow Dr ",
    "city": "Houston",
    "state": "TX",
    "zipCode": "77024-4011",
    "phone": "(562) 237-2446",
    "fax": "",
    "webSite": ""
  },
  {
    "name": "Cho, David W.",
    "street": "200 S. Beauchamp Blvd Suite 104",
    "city": "Princeton",
    "state": "TX",
    "zipCode": "75407",
    "phone": "(972) 736-6226",
    "fax": "",
    "webSite": ""
  },
  {
    "name": "Cho, Eun Young",
    "street": "2300 Virginia Pkwy ",
    "city": "Mckinney",
    "state": "TX",
    "zipCode": "75071-3504",
    "phone": "(972) 542-8733",
    "fax": "",
    "webSite": ""
  },
  {
    "name": "Cho, Jaeyeon",
    "street": "2260 Linda Ave Ste 103 ",
    "city": "Odessa",
    "state": "TX",
    "zipCode": "79763-2665",
    "phone": "(432) 333-4867",
    "fax": "",
    "webSite": ""
  },
  {
    "name": "Cho, Jun Sang",
    "street": "4203 Santa Fe St ",
    "city": "Mission",
    "state": "TX",
    "zipCode": "78572-8599",
    "phone": "(954) 270-3911",
    "fax": "",
    "webSite": ""
  },
  {
    "name": "Cho, Michael Yung",
    "street": "8710 Grand Mission Boulevard Suite A",
    "city": "Richmond",
    "state": "TX",
    "zipCode": "77407",
    "phone": "(610) 574-6467",
    "fax": "",
    "webSite": ""
  },
  {
    "name": "Cho, Sueginn Eileen",
    "street": "1210 W Braker Ln ",
    "city": "Austin",
    "state": "TX",
    "zipCode": "78758-3801",
    "phone": "(512) 978-9880",
    "fax": "(512) 279-2556",
    "webSite": ""
  },
  {
    "name": "Cho, Tim",
    "street": "117 Lane Dr Ste 3 ",
    "city": "Rosenberg",
    "state": "TX",
    "zipCode": "77471-2263",
    "phone": "(281) 342-1601",
    "fax": "(281) 342-1408",
    "webSite": ""
  },
  {
    "name": "Cho, Yong Ho",
    "street": "3010 L B J Fwy Suite 200",
    "city": "Dallas",
    "state": "TX",
    "zipCode": "75234-7770",
    "phone": "(972) 247-9236",
    "fax": "",
    "webSite": ""
  },
  {
    "name": "Cho, Young Joon",
    "street": "5904 Chapel Hill Blvd Ste 200 ",
    "city": "Plano",
    "state": "TX",
    "zipCode": "75093-5907",
    "phone": "(214) 919-7040",
    "fax": "",
    "webSite": ""
  },
  {
    "name": "Choate, Coleman Ray",
    "street": "4606 Cedar Springs Rd Apt 2025 ",
    "city": "Dallas",
    "state": "TX",
    "zipCode": "75219-7211",
    "phone": "(618) 318-0069",
    "fax": "",
    "webSite": ""
  },
  {
    "name": "Chodavadia, Hardik",
    "street": "1025 Carroll Meadows Ct ",
    "city": "Southlake",
    "state": "TX",
    "zipCode": "76092-3830",
    "phone": "(817) 988-6484",
    "fax": "",
    "webSite": ""
  },
  {
    "name": "Choi, Airy",
    "street": "3154 S State Highway 161 ",
    "city": "Grand Prairie",
    "state": "TX",
    "zipCode": "75052-7687",
    "phone": "(972) 890-0718",
    "fax": "",
    "webSite": ""
  },
  {
    "name": "Choi, Diana Kee-Sun",
    "street": "5005 N Piedras St ",
    "city": "El Paso",
    "state": "TX",
    "zipCode": "79920-5002",
    "phone": "(915) 742-5935",
    "fax": "(915) 742-7462",
    "webSite": ""
  },
  {
    "name": "Choi, Euree",
    "street": "3711 Gregory St Kool Smiles",
    "city": "Wichita Falls",
    "state": "TX",
    "zipCode": "76308-1614",
    "phone": "(940) 228-0963",
    "fax": "",
    "webSite": ""
  },
  {
    "name": "Choi, Joseph Jong Il",
    "street": "6300 West Loop S Ste 650 ",
    "city": "Bellaire",
    "state": "TX",
    "zipCode": "77401-2997",
    "phone": "(713) 457-3445",
    "fax": "",
    "webSite": ""
  },
  {
    "name": "Choi, Yoonhyeok",
    "street": "13802 Boyle Ln ",
    "city": "Frisco",
    "state": "TX",
    "zipCode": "75035-0374",
    "phone": "(909) 747-5905",
    "fax": "",
    "webSite": ""
  },
  {
    "name": "Choice One Family Dental Pllc",
    "street": "10615 Perrin Beitel Rd Ste 601 ",
    "city": "San Antonio",
    "state": "TX",
    "zipCode": "78217-3142",
    "phone": "(210) 375-9502",
    "fax": "",
    "webSite": ""
  },
  {
    "name": "Cholopisa General Dentistry",
    "street": "300 N Sherman St ",
    "city": "Mexia",
    "state": "TX",
    "zipCode": "76667-2857",
    "phone": "(254) 562-5347",
    "fax": "(254) 562-5041",
    "webSite": ""
  },
  {
    "name": "Cholopisa, Robin L",
    "street": "300 N Sherman ",
    "city": "Mexia",
    "state": "TX",
    "zipCode": "76667",
    "phone": "(254) 562-5347",
    "fax": "(254) 562-5041",
    "webSite": ""
  },
  {
    "name": "Chon, Susan Jenny",
    "street": "1315 W Main Ave Ste 10 ",
    "city": "Alton",
    "state": "TX",
    "zipCode": "78573-1643",
    "phone": "(956) 599-9446",
    "fax": "(956) 599-9449",
    "webSite": ""
  },
  {
    "name": "Chon, Yojin Steven",
    "street": "1315 W Main Ave Ste 10 ",
    "city": "Alton",
    "state": "TX",
    "zipCode": "78573-1643",
    "phone": "(956) 599-9446",
    "fax": "(956) 599-9449",
    "webSite": ""
  },
  {
    "name": "Choque, Laura Gabriela",
    "street": "9030 Southwestern Blvd Apt 3225 ",
    "city": "Dallas",
    "state": "TX",
    "zipCode": "75214-1542",
    "phone": "(301) 655-6187",
    "fax": "",
    "webSite": ""
  },
  {
    "name": "Chou, Alec Chi",
    "street": "6910 Bellaire Blvd Suite 6",
    "city": "Houston",
    "state": "TX",
    "zipCode": "77074-3509",
    "phone": "(713) 772-7313",
    "fax": "(713) 772-6594",
    "webSite": ""
  },
  {
    "name": "Choung Lee, Jenny Dahee",
    "street": "20131 Highway 59 N Ste 1238 ",
    "city": "Humble",
    "state": "TX",
    "zipCode": "77338-2332",
    "phone": "(281) 446-4237",
    "fax": "",
    "webSite": ""
  },
  {
    "name": "Chow, Charles Kai",
    "street": "10100 Beechnut St Ste 110 ",
    "city": "Houston",
    "state": "TX",
    "zipCode": "77072-5042",
    "phone": "(281) 879-5800",
    "fax": "(281) 879-5858",
    "webSite": ""
  },
  {
    "name": "Chow, Lara L",
    "street": "610 Uvalde Dr ",
    "city": "Keller",
    "state": "TX",
    "zipCode": "76248-8392",
    "phone": "(817) 760-0376",
    "fax": "(817) 743-0610",
    "webSite": ""
  },
  {
    "name": "Chow, Mimi Mae",
    "street": "5631 Telephone Rd. Suite A",
    "city": "Houston",
    "state": "TX",
    "zipCode": "77087",
    "phone": "(713) 644-4446",
    "fax": "",
    "webSite": ""
  },
  {
    "name": "Chow, Nielofar Shahla",
    "street": "6300 West Loop S Ste 650 ",
    "city": "Bellaire",
    "state": "TX",
    "zipCode": "77401-2997",
    "phone": "(713) 663-7960",
    "fax": "",
    "webSite": ""
  },
  {
    "name": "Chowdhry, Tanawush",
    "street": "4833 S Hulen St Ste 101 ",
    "city": "Fort Worth",
    "state": "TX",
    "zipCode": "76132-1427",
    "phone": "(817) 294-4600",
    "fax": "",
    "webSite": ""
  },
  {
    "name": "Chowdhury, Ali",
    "street": "325 University Blvd ",
    "city": "Round Rock",
    "state": "TX",
    "zipCode": "78665-1045",
    "phone": "(512) 238-1154",
    "fax": "(512) 238-1154",
    "webSite": ""
  },
  {
    "name": "Chowdhury, Jyoti K",
    "street": "2511 B Nasa Parkway Suite 200",
    "city": "Seabrook",
    "state": "TX",
    "zipCode": "77586-3452",
    "phone": "(281) 326-9433",
    "fax": "",
    "webSite": ""
  },
  {
    "name": "Chowdhury, Nihal Alam",
    "street": "5800 N Tarrant Pkwy Ste 102 ",
    "city": "Fort Worth",
    "state": "TX",
    "zipCode": "76244-8003",
    "phone": "(817) 581-6453",
    "fax": "",
    "webSite": ""
  },
  {
    "name": "Chowning, Rodney Duane",
    "street": "2540 Lillian Miller Pkwy Suite 100",
    "city": "Denton",
    "state": "TX",
    "zipCode": "76210-7214",
    "phone": "(940) 382-1750",
    "fax": "(940) 384-0617",
    "webSite": ""
  },
  {
    "name": "Choy, Robert Kim",
    "street": "6220 Dashwood Dr ",
    "city": "Houston",
    "state": "TX",
    "zipCode": "77081-4214",
    "phone": "(713) 771-8883",
    "fax": "",
    "webSite": ""
  },
  {
    "name": "Denton Family Dentistry",
    "street": "2219 S Loop 288 Ste 215 ",
    "city": "Denton",
    "state": "TX",
    "zipCode": "76205-4983",
    "phone": "(940) 591-9700",
    "fax": "(940) 387-7982",
    "webSite": ""
  },
  {
    "name": "The Kids Spot Dentistry",
    "street": "5489 Summerhill Rd ",
    "city": "Texarkana",
    "state": "TX",
    "zipCode": "75503-4608",
    "phone": "(870) 648-5608",
    "fax": "(903) 223-6006",
    "webSite": ""
  },
  {
    "name": "Chris W. Kennaugh D.D.S.,P.A.",
    "street": "3549 39Th St ",
    "city": "Port Arthur",
    "state": "TX",
    "zipCode": "77642-4331",
    "phone": "(409) 982-2271",
    "fax": "(409) 982-3454",
    "webSite": ""
  },
  {
    "name": "Chris Wilson Dds, Pllc",
    "street": "3000 N Garfield St Suite 275",
    "city": "Midland",
    "state": "TX",
    "zipCode": "79705-6453",
    "phone": "(432) 682-0565",
    "fax": "(432) 682-9709",
    "webSite": ""
  },
  {
    "name": "Christensen, Ashley Peet",
    "street": "1403 N Loop 336 W Ste C ",
    "city": "Conroe",
    "state": "TX",
    "zipCode": "77304-3672",
    "phone": "(972) 689-3789",
    "fax": "",
    "webSite": ""
  },
  {
    "name": "Christensen, Mark Dwayne",
    "street": "6617 Precinct Line Rd, Suite 100 ",
    "city": "North Richland Hills",
    "state": "TX",
    "zipCode": "76182",
    "phone": "(817) 595-2458",
    "fax": "(817) 590-2468",
    "webSite": ""
  },
  {
    "name": "Christensen, Robert Emil",
    "street": "2303 W Louisiana Ave ",
    "city": "Midland",
    "state": "TX",
    "zipCode": "79701-5800",
    "phone": "(432) 684-7424",
    "fax": "(432) 570-6181",
    "webSite": ""
  },
  {
    "name": "William T Cooper Dds Hector T Garcia Dds Coleman Nockolds Dds",
    "street": "109 E Ave J ",
    "city": "Robstown",
    "state": "TX",
    "zipCode": "78380",
    "phone": "(361) 387-1531",
    "fax": "(361) 767-8802",
    "webSite": ""
  },
  {
    "name": "Christi V. Clifford D.D.S., Pa",
    "street": "903 Bay Area Blvd. Ste. E",
    "city": "Houston",
    "state": "TX",
    "zipCode": "77058",
    "phone": "(281) 486-0440",
    "fax": "(281) 486-5918",
    "webSite": ""
  },
  {
    "name": "Christian Family Dentistry Inc P.C",
    "street": "132 Henry M Chandler Dr ",
    "city": "Rockwall",
    "state": "TX",
    "zipCode": "75032-5781",
    "phone": "(347) 439-8901",
    "fax": "",
    "webSite": ""
  },
  {
    "name": "Christian, Jayanth",
    "street": "19450 Mcdonald St # 101 ",
    "city": "Lytle",
    "state": "TX",
    "zipCode": "78052",
    "phone": "(832) 786-5091",
    "fax": "",
    "webSite": ""
  },
  {
    "name": "Christian, Melisa",
    "street": "4514 Travis St Suite 117",
    "city": "Dallas",
    "state": "TX",
    "zipCode": "75205-4112",
    "phone": "(214) 522-4330",
    "fax": "",
    "webSite": ""
  },
  {
    "name": "Christiansen, Richard Kevin",
    "street": "11398 Bandera Rd Ste 106 ",
    "city": "San Antonio",
    "state": "TX",
    "zipCode": "78250-6841",
    "phone": "(210) 543-8900",
    "fax": "",
    "webSite": ""
  },
  {
    "name": "Christophe, John Wendell",
    "street": "135 River North Blvd ",
    "city": "Stephenville",
    "state": "TX",
    "zipCode": "76401-1804",
    "phone": "(254) 965-2810",
    "fax": "(254) 965-5440",
    "webSite": ""
  },
  {
    "name": "Sozo Dentistry And Orthodontics",
    "street": "2200 Airport Fwy Ste 480 ",
    "city": "Bedford",
    "state": "TX",
    "zipCode": "76022-6048",
    "phone": "(817) 785-3290",
    "fax": "",
    "webSite": ""
  },
  {
    "name": "Burleson Smiles Dentistry",
    "street": "1304 Nw John Jones Dr ",
    "city": "Burleson",
    "state": "TX",
    "zipCode": "76028-8040",
    "phone": "(817) 447-6453",
    "fax": "(817) 426-2816",
    "webSite": ""
  },
  {
    "name": "Christopher B. Tran, Dds, Pc",
    "street": "3300 Matlock Rd ",
    "city": "Arlington",
    "state": "TX",
    "zipCode": "76015-2907",
    "phone": "(817) 466-8166",
    "fax": "(817) 701-2205",
    "webSite": ""
  },
  {
    "name": "Christopher D Pollard, D.D.S., P.C.",
    "street": "3325 Premier Dr ",
    "city": "Plano",
    "state": "TX",
    "zipCode": "75023-7017",
    "phone": "(972) 423-0880",
    "fax": "(972) 423-3404",
    "webSite": ""
  },
  {
    "name": "Christopher J. Martinez, Dds, Pa",
    "street": "3509 E Main Ave Suite 103",
    "city": "Alton",
    "state": "TX",
    "zipCode": "78573-1561",
    "phone": "(956) 583-9601",
    "fax": "",
    "webSite": ""
  },
  {
    "name": "Shiloh Family Dental",
    "street": "5011 Troup Hwy Suite 700",
    "city": "Tyler",
    "state": "TX",
    "zipCode": "75707-2562",
    "phone": "(903) 581-5500",
    "fax": "",
    "webSite": ""
  },
  {
    "name": "Christopher S Hoffpauir Dds Pllc",
    "street": "2101 Highway 35 Byp N Suite 105",
    "city": "Alvin",
    "state": "TX",
    "zipCode": "77511-9655",
    "phone": "(281) 767-9990",
    "fax": "(281) 756-9690",
    "webSite": ""
  },
  {
    "name": "Christopher Sierra",
    "street": "4221 Vista Rd ",
    "city": "Pasadena",
    "state": "TX",
    "zipCode": "77504-2141",
    "phone": "(713) 943-2094",
    "fax": "",
    "webSite": ""
  },
  {
    "name": "Horizon Dental",
    "street": "16453 Highway 62 S ",
    "city": "Orange",
    "state": "TX",
    "zipCode": "77630-1986",
    "phone": "(409) 882-9304",
    "fax": "(409) 670-1039",
    "webSite": ""
  },
  {
    "name": "Christopher, Robert Hamilton",
    "street": "1007 Longmire Rd ",
    "city": "Conroe",
    "state": "TX",
    "zipCode": "77304-1826",
    "phone": "(936) 756-3633",
    "fax": "(936) 756-3653",
    "webSite": ""
  },
  {
    "name": "Scarsdale Dental Smiles",
    "street": "10904 Scarsdale Blvd Suite 100",
    "city": "Houston",
    "state": "TX",
    "zipCode": "77089-6068",
    "phone": "(281) 464-9440",
    "fax": "(281) 464-9441",
    "webSite": ""
  },
  {
    "name": "Chu, Alex",
    "street": "4849 Farm To Market Rd 1488 Suite #800",
    "city": "Magnolia",
    "state": "TX",
    "zipCode": "77354",
    "phone": "(832) 521-8448",
    "fax": "",
    "webSite": ""
  },
  {
    "name": "Chu, Dan B",
    "street": "6018 South Gessner ",
    "city": "Houston",
    "state": "TX",
    "zipCode": "77036",
    "phone": "(713) 771-8090",
    "fax": "(713) 771-7075",
    "webSite": ""
  },
  {
    "name": "Chu, Henry H",
    "street": "11309 Bandera Rd Ste:101",
    "city": "San Antonio",
    "state": "TX",
    "zipCode": "78250-2601",
    "phone": "(210) 684-8033",
    "fax": "(210) 684-8056",
    "webSite": ""
  },
  {
    "name": "Chu, Jolie",
    "street": "10311 N Eldridge Pkwy Suite B-7",
    "city": "Houston",
    "state": "TX",
    "zipCode": "77065-5368",
    "phone": "(281) 897-9977",
    "fax": "",
    "webSite": ""
  },
  {
    "name": "Chu, Lawton K",
    "street": "2100 W Northwest Hwy Suite 204",
    "city": "Grapevine",
    "state": "TX",
    "zipCode": "76051-7808",
    "phone": "(817) 329-6000",
    "fax": "(817) 251-1833",
    "webSite": ""
  },
  {
    "name": "Chu, Norman Russell",
    "street": "9660 Hillcroft Suite 244",
    "city": "Houston",
    "state": "TX",
    "zipCode": "77096",
    "phone": "(713) 721-1662",
    "fax": "(713) 721-1663",
    "webSite": ""
  },
  {
    "name": "Chuang, Kevin",
    "street": "5100 Belt Line Rd Ste 312 ",
    "city": "Dallas",
    "state": "TX",
    "zipCode": "75254-7125",
    "phone": "(972) 980-8500",
    "fax": "",
    "webSite": ""
  },
  {
    "name": "Chuangdental",
    "street": "3950 W Plano Pkwy Ste B ",
    "city": "Plano",
    "state": "TX",
    "zipCode": "75075-7805",
    "phone": "(469) 929-9370",
    "fax": "",
    "webSite": ""
  },
  {
    "name": "Chudej, Dana W",
    "street": "6300 West Loop S Ste 650 ",
    "city": "Bellaire",
    "state": "TX",
    "zipCode": "77401-2997",
    "phone": "(713) 663-7960",
    "fax": "(713) 663-6948",
    "webSite": ""
  },
  {
    "name": "Chukkapalli, Neeva",
    "street": "26735 Us Hwy 380 E Suite 105",
    "city": "Aubrey",
    "state": "TX",
    "zipCode": "76227",
    "phone": "(972) 347-1090",
    "fax": "(972) 347-1021",
    "webSite": ""
  },
  {
    "name": "Chuks, Ugochi",
    "street": "6245 Highway 6 ",
    "city": "Missouri City",
    "state": "TX",
    "zipCode": "77459-4764",
    "phone": "(281) 969-5099",
    "fax": "",
    "webSite": ""
  },
  {
    "name": "Chumbley, Steven Lewis",
    "street": "16000 Stuebner Airline Rd Ste 190 ",
    "city": "Spring",
    "state": "TX",
    "zipCode": "77379-7392",
    "phone": "(281) 376-0911",
    "fax": "",
    "webSite": ""
  },
  {
    "name": "Chun, Hoyoung",
    "street": "5340 El Paso Dr Suite K",
    "city": "El Paso",
    "state": "TX",
    "zipCode": "79905-2837",
    "phone": "(915) 781-7725",
    "fax": "(915) 779-3387",
    "webSite": ""
  },
  {
    "name": "Chun, Jae H",
    "street": "7917 Mcpherson Rd Suite 202",
    "city": "Laredo",
    "state": "TX",
    "zipCode": "78045-2811",
    "phone": "(956) 712-8444",
    "fax": "(956) 712-8439",
    "webSite": ""
  },
  {
    "name": "Chun, Younghee Kwon",
    "street": "5800 Bellaire Blvd Ste 110 ",
    "city": "Houston",
    "state": "TX",
    "zipCode": "77081-5537",
    "phone": "(713) 667-4077",
    "fax": "(713) 667-4281",
    "webSite": ""
  },
  {
    "name": "Chung, Cheolwon",
    "street": "2631 Faudree Rd Ste B ",
    "city": "Odessa",
    "state": "TX",
    "zipCode": "79765-8530",
    "phone": "(432) 339-4444",
    "fax": "",
    "webSite": ""
  },
  {
    "name": "Chung, Diana",
    "street": "1417 N Belt Line Rd ",
    "city": "Irving",
    "state": "TX",
    "zipCode": "75061",
    "phone": "(972) 870-1200",
    "fax": "",
    "webSite": ""
  },
  {
    "name": "Chung, Jamie J",
    "street": "6426 Meadowbrook Dr ",
    "city": "Fort Worth",
    "state": "TX",
    "zipCode": "76112-5123",
    "phone": "(817) 496-2343",
    "fax": "",
    "webSite": ""
  },
  {
    "name": "Chung, Ji Yoon",
    "street": "103B W Us Highway 80 ",
    "city": "White Oak",
    "state": "TX",
    "zipCode": "75693-2003",
    "phone": "(430) 201-2511",
    "fax": "",
    "webSite": ""
  },
  {
    "name": "Chung, Lee",
    "street": "11301 Palm Bay St ",
    "city": "Pearland",
    "state": "TX",
    "zipCode": "77584-8407",
    "phone": "(281) 384-9183",
    "fax": "",
    "webSite": ""
  },
  {
    "name": "Chung, Myungso",
    "street": "5601 Bandera Rd ",
    "city": "Leon Valley",
    "state": "TX",
    "zipCode": "78238-1986",
    "phone": "(210) 806-0376",
    "fax": "",
    "webSite": ""
  },
  {
    "name": "Chung, So Yeon",
    "street": "112 Industrial Ave ",
    "city": "Azle",
    "state": "TX",
    "zipCode": "76020",
    "phone": "(817) 270-3700",
    "fax": "",
    "webSite": ""
  },
  {
    "name": "Chung, Sue Hyun",
    "street": "3610 W University Dr Ste 400 ",
    "city": "Mckinney",
    "state": "TX",
    "zipCode": "75071-2952",
    "phone": "(972) 548-9956",
    "fax": "",
    "webSite": ""
  },
  {
    "name": "Chung, Theresa Tam",
    "street": "1403 Norwalk Ln Apt 207 ",
    "city": "Austin",
    "state": "TX",
    "zipCode": "78703-3751",
    "phone": "(510) 918-9918",
    "fax": "",
    "webSite": ""
  },
  {
    "name": "Chung, Yoonjin",
    "street": "119 Business Park Blvd Ste 200 ",
    "city": "Kenedy",
    "state": "TX",
    "zipCode": "78119-2063",
    "phone": "(830) 583-3737",
    "fax": "",
    "webSite": ""
  },
  {
    "name": "Chungmi Jo Dental Pc",
    "street": "6000 Mckinney Ranch Pkwy Ste 101",
    "city": "Mckinney",
    "state": "TX",
    "zipCode": "75070",
    "phone": "(713) 471-0122",
    "fax": "(866) 892-0774",
    "webSite": ""
  },
  {
    "name": "Chuoke, William Anthony",
    "street": "1310 34Th St N Suite A",
    "city": "Texas City",
    "state": "TX",
    "zipCode": "77590-6570",
    "phone": "(409) 948-1384",
    "fax": "",
    "webSite": ""
  },
  {
    "name": "Church, Austin Ryan",
    "street": "1706 Treasure Hills Blvd ",
    "city": "Harlingen",
    "state": "TX",
    "zipCode": "78550-8911",
    "phone": "(956) 365-6003",
    "fax": "(956) 365-6780",
    "webSite": ""
  },
  {
    "name": "Church, Sherry Ann",
    "street": "11919 Culebra Rd Bldg 2",
    "city": "San Antonio",
    "state": "TX",
    "zipCode": "78253",
    "phone": "(210) 688-0332",
    "fax": "(210) 688-0333",
    "webSite": ""
  },
  {
    "name": "Chuttoo, Satish",
    "street": "2210 Bell Street Kool Smiles",
    "city": "Amarillo",
    "state": "TX",
    "zipCode": "79106",
    "phone": "(806) 553-5079",
    "fax": "",
    "webSite": ""
  },
  {
    "name": "Ciaverelli, Michael Allen",
    "street": "4029 Capital Of Tx Hwy S Suite 109",
    "city": "Austin",
    "state": "TX",
    "zipCode": "78704",
    "phone": "(512) 445-5866",
    "fax": "",
    "webSite": ""
  },
  {
    "name": "Cimino, Michael Paul",
    "street": "3602 Vista Rd Suite H",
    "city": "Pasadena",
    "state": "TX",
    "zipCode": "77504-1942",
    "phone": "(711) 394-6517",
    "fax": "",
    "webSite": ""
  },
  {
    "name": "Cinco Ranch Dental, P. A.",
    "street": "1150 S Mason Rd Ste 101 ",
    "city": "Katy",
    "state": "TX",
    "zipCode": "77450-3935",
    "phone": "(281) 693-6300",
    "fax": "(281) 693-1101",
    "webSite": ""
  },
  {
    "name": "Cinco Ranch Smiles & Braces Pllc",
    "street": "3030 Falcon Landing Blvd Ste 400 ",
    "city": "Katy",
    "state": "TX",
    "zipCode": "77494",
    "phone": "(281) 394-1811",
    "fax": "",
    "webSite": ""
  },
  {
    "name": "Cipriani, Glen R.",
    "street": "5519 Sw H K Dodgen Loop ",
    "city": "Temple",
    "state": "TX",
    "zipCode": "76502-7422",
    "phone": "(254) 778-4951",
    "fax": "(254) 778-4199",
    "webSite": ""
  },
  {
    "name": "Cisneros Dentistry",
    "street": "1313 Holland St Ste E ",
    "city": "Houston",
    "state": "TX",
    "zipCode": "77029-2873",
    "phone": "(713) 450-2900",
    "fax": "(713) 453-2479",
    "webSite": ""
  },
  {
    "name": "Cisneros Dentistry Pllc",
    "street": "918 W Southmore Ave Ste 115 ",
    "city": "Pasadena",
    "state": "TX",
    "zipCode": "77502-1020",
    "phone": "(832) 489-2881",
    "fax": "",
    "webSite": ""
  },
  {
    "name": "Cisneros, Robert Andrew",
    "street": "4407 S Panam Expy Ste 1 ",
    "city": "San Antonio",
    "state": "TX",
    "zipCode": "78225-2301",
    "phone": "(210) 533-6603",
    "fax": "(210) 533-6605",
    "webSite": ""
  },
  {
    "name": "Cisneros, Victoria Quiteno",
    "street": "1313 Holland St Ste E ",
    "city": "Houston",
    "state": "TX",
    "zipCode": "77029-2873",
    "phone": "(713) 450-2900",
    "fax": "(713) 453-2479",
    "webSite": ""
  },
  {
    "name": "Citek, David Alan",
    "street": "10126 Thermon St ",
    "city": "Houston",
    "state": "TX",
    "zipCode": "77075-3412",
    "phone": "(713) 943-2506",
    "fax": "",
    "webSite": ""
  },
  {
    "name": "Citi Dental Pllc",
    "street": "655 West Illinois Ave Suite #1065",
    "city": "Dallas",
    "state": "TX",
    "zipCode": "75224",
    "phone": "(214) 943-2484",
    "fax": "(214) 975-4811",
    "webSite": ""
  },
  {
    "name": "City Smiles Dental",
    "street": "14740 Barryknoll Ln Suite 160",
    "city": "Houston",
    "state": "TX",
    "zipCode": "77079-2884",
    "phone": "(281) 589-6100",
    "fax": "(281) 752-0256",
    "webSite": ""
  },
  {
    "name": "Cj Soloman Dds Pa",
    "street": "25815 Budde Rd ",
    "city": "The Woodlands",
    "state": "TX",
    "zipCode": "77380-2009",
    "phone": "(281) 367-4007",
    "fax": "(281) 367-4012",
    "webSite": ""
  },
  {
    "name": "Ismile Dental",
    "street": "6804 Highway 6 S Suite H",
    "city": "Houston",
    "state": "TX",
    "zipCode": "77083-3397",
    "phone": "(281) 495-4100",
    "fax": "",
    "webSite": ""
  },
  {
    "name": "Clapham, Elizabeth Larson",
    "street": "9030 Southwestern Blvd #3336",
    "city": "Dallas",
    "state": "TX",
    "zipCode": "75214-2236",
    "phone": "(919) 475-7242",
    "fax": "",
    "webSite": ""
  },
  {
    "name": "Clapner, Gayle",
    "street": "6729 Bridge St ",
    "city": "Ft Worth",
    "state": "TX",
    "zipCode": "76112-0817",
    "phone": "(817) 654-0354",
    "fax": "",
    "webSite": ""
  },
  {
    "name": "Clapp, Landry David",
    "street": "1610 5Th St ",
    "city": "Lubbock",
    "state": "TX",
    "zipCode": "79401-2622",
    "phone": "(806) 765-2611",
    "fax": "",
    "webSite": ""
  },
  {
    "name": "Clara Griffey Dds, Pllc",
    "street": "1501 N 25Th St ",
    "city": "Waco",
    "state": "TX",
    "zipCode": "76707-2702",
    "phone": "(254) 752-0305",
    "fax": "(254) 752-0103",
    "webSite": ""
  },
  {
    "name": "Clardy, Kevin Dwayne",
    "street": "2900 Coggin Avenue ",
    "city": "Brownwood",
    "state": "TX",
    "zipCode": "76801",
    "phone": "(325) 643-6323",
    "fax": "(325) 646-7428",
    "webSite": ""
  },
  {
    "name": "Clarence E. Musslewhite Jr. Dds Inc",
    "street": "12727 Kimberley Ln Suite 101",
    "city": "Houston",
    "state": "TX",
    "zipCode": "77024-4047",
    "phone": "(713) 827-8200",
    "fax": "(713) 827-8567",
    "webSite": ""
  },
  {
    "name": "Clarendon Dental Associates Pllc",
    "street": "# 5 Medical Drive ",
    "city": "Clarendon",
    "state": "TX",
    "zipCode": "79226",
    "phone": "(806) 584-4074",
    "fax": "",
    "webSite": ""
  },
  {
    "name": "Clarissa Esparza Serrato, D.D.S., P.L.L.C.",
    "street": "2802 S Staples St Suite B",
    "city": "Corpus Christi",
    "state": "TX",
    "zipCode": "78404-3613",
    "phone": "(361) 852-3600",
    "fax": "(361) 852-3605",
    "webSite": ""
  },
  {
    "name": "Clark Dental Group, P.A.",
    "street": "211 W Belt Line Rd ",
    "city": "Cedar Hill",
    "state": "TX",
    "zipCode": "75104-2066",
    "phone": "(972) 291-4281",
    "fax": "(972) 291-6466",
    "webSite": ""
  },
  {
    "name": "Clark, Brian Glenn",
    "street": "211 W Belt Line Rd ",
    "city": "Cedar Hill",
    "state": "TX",
    "zipCode": "75104-2066",
    "phone": "(972) 291-4281",
    "fax": "",
    "webSite": ""
  },
  {
    "name": "Clark, Christina Michelle",
    "street": "15310 Dawn Meadows Dr ",
    "city": "Houston",
    "state": "TX",
    "zipCode": "77068-3816",
    "phone": "(253) 254-1604",
    "fax": "",
    "webSite": ""
  },
  {
    "name": "Clark, David Lesley",
    "street": "6300 Stonewood Dr # 402",
    "city": "Plano",
    "state": "TX",
    "zipCode": "75024-5280",
    "phone": "(972) 612-3500",
    "fax": "(972) 612-8156",
    "webSite": ""
  },
  {
    "name": "Clark, Debora D",
    "street": "103 S 7Th St ",
    "city": "Midlothian",
    "state": "TX",
    "zipCode": "76065-3211",
    "phone": "(972) 775-2377",
    "fax": "(972) 775-2565",
    "webSite": ""
  },
  {
    "name": "Clark, E. Glenn",
    "street": "211 W Belt Line Rd ",
    "city": "Cedar Hill",
    "state": "TX",
    "zipCode": "75104-2066",
    "phone": "(972) 291-4281",
    "fax": "(972) 291-6466",
    "webSite": ""
  },
  {
    "name": "Clark, George R",
    "street": "610 Old Campbell Rd Suite 116",
    "city": "Richardson",
    "state": "TX",
    "zipCode": "75080",
    "phone": "(972) 231-2576",
    "fax": "(972) 235-4491",
    "webSite": ""
  },
  {
    "name": "Clark, Gerald L",
    "street": "103 S 7Th St ",
    "city": "Midlothian",
    "state": "TX",
    "zipCode": "76065-3211",
    "phone": "(972) 775-2377",
    "fax": "",
    "webSite": ""
  },
  {
    "name": "Clark, Glenn D",
    "street": "10405 E Northwest Hwy 204",
    "city": "Dallas",
    "state": "TX",
    "zipCode": "75238-4619",
    "phone": "(214) 348-7000",
    "fax": "",
    "webSite": ""
  },
  {
    "name": "Clark, Jeffrey Paul",
    "street": "1403 N Loop 336 W ",
    "city": "Conroe",
    "state": "TX",
    "zipCode": "77304-3503",
    "phone": "(936) 539-4867",
    "fax": "",
    "webSite": ""
  },
  {
    "name": "Clark, Johnny Michael",
    "street": "121 N Rice St ",
    "city": "Hamilton",
    "state": "TX",
    "zipCode": "76531-1857",
    "phone": "(254) 386-8957",
    "fax": "(254) 386-3240",
    "webSite": ""
  },
  {
    "name": "Clark, Kyle",
    "street": "115 N Avenue D ",
    "city": "Burkburnett",
    "state": "TX",
    "zipCode": "76354-3510",
    "phone": "(940) 569-4901",
    "fax": "(940) 569-3999",
    "webSite": ""
  },
  {
    "name": "Clark, Thomas",
    "street": "4402 Airline Dr ",
    "city": "Houston",
    "state": "TX",
    "zipCode": "77022-2934",
    "phone": "(713) 691-1831",
    "fax": "(713) 691-3836",
    "webSite": ""
  },
  {
    "name": "Floss Westlake",
    "street": "2785 Bee Cave Rd Suite 331",
    "city": "Rollingwood",
    "state": "TX",
    "zipCode": "78746-5798",
    "phone": "(512) 782-0820",
    "fax": "",
    "webSite": ""
  },
  {
    "name": "Clark-Fass, Lindsey Marie",
    "street": "504 S Clay St ",
    "city": "Ennis",
    "state": "TX",
    "zipCode": "75119-4551",
    "phone": "(972) 875-6081",
    "fax": "",
    "webSite": ""
  },
  {
    "name": "Clarke, Craig M",
    "street": "955 Dairy Ashford St Suite 107",
    "city": "Houston",
    "state": "TX",
    "zipCode": "77079-5310",
    "phone": "(281) 531-7000",
    "fax": "(281) 531-7023",
    "webSite": ""
  },
  {
    "name": "Clarkson, Kelly L",
    "street": "3066 E Commerce St ",
    "city": "San Antonio",
    "state": "TX",
    "zipCode": "78220-1013",
    "phone": "(210) 233-7000",
    "fax": "(210) 277-6387",
    "webSite": ""
  },
  {
    "name": "Claudia Minoso Dds Pllc",
    "street": "4603 Highway 6 N ",
    "city": "Houston",
    "state": "TX",
    "zipCode": "77084-2821",
    "phone": "(832) 427-1998",
    "fax": "(832) 427-1885",
    "webSite": ""
  },
  {
    "name": "Clay D Cannon, Dds, Pllc",
    "street": "202 Shelley Dr ",
    "city": "Tyler",
    "state": "TX",
    "zipCode": "75701-8725",
    "phone": "(903) 561-8600",
    "fax": "",
    "webSite": ""
  },
  {
    "name": "Clay Dental, Pllc",
    "street": "19214 Clay Rd Ste D ",
    "city": "Katy",
    "state": "TX",
    "zipCode": "77449-4082",
    "phone": "(281) 463-4333",
    "fax": "(281) 463-4908",
    "webSite": ""
  },
  {
    "name": "Clayton A Gautreaux D.D.S",
    "street": "302 N 3Rd St ",
    "city": "Mabank",
    "state": "TX",
    "zipCode": "75147-8611",
    "phone": "(903) 887-4405",
    "fax": "",
    "webSite": ""
  },
  {
    "name": "Clayton, Neill Pyburn",
    "street": "1112 N Floyd Rd Ste 5",
    "city": "Richardson",
    "state": "TX",
    "zipCode": "75080-4243",
    "phone": "(972) 231-4876",
    "fax": "(972) 234-4145",
    "webSite": ""
  },
  {
    "name": "Clayton, Robert Lee",
    "street": "214 N Rusk Ave ",
    "city": "Denison",
    "state": "TX",
    "zipCode": "75020-3047",
    "phone": "(903) 465-8040",
    "fax": "(903) 463-6581",
    "webSite": ""
  },
  {
    "name": "Clean Dental",
    "street": "4907 Spring Ave ",
    "city": "Dallas",
    "state": "TX",
    "zipCode": "75210-1360",
    "phone": "(214) 765-6212",
    "fax": "",
    "webSite": ""
  },
  {
    "name": "Clean Dental",
    "street": "4402 Gus Thomasson Rd Suite A",
    "city": "Mesquite",
    "state": "TX",
    "zipCode": "75150-2232",
    "phone": "(214) 765-6212",
    "fax": "",
    "webSite": ""
  },
  {
    "name": "Clear Creek Dentistry, Pllc",
    "street": "901 Normal Park Dr Ste 202 ",
    "city": "Huntsville",
    "state": "TX",
    "zipCode": "77320-3770",
    "phone": "(617) 319-6674",
    "fax": "",
    "webSite": ""
  },
  {
    "name": "Clear Lake Modern Dentistry And Orthodontics",
    "street": "1000 Bay Area Boulevard Suite A ",
    "city": "Houston",
    "state": "TX",
    "zipCode": "77058",
    "phone": "(281) 990-9400",
    "fax": "(281) 990-9200",
    "webSite": ""
  },
  {
    "name": "Clearstone Dental",
    "street": "1228 E Exchange Pkwy Ste 120 ",
    "city": "Allen",
    "state": "TX",
    "zipCode": "75002-1981",
    "phone": "(832) 305-5764",
    "fax": "",
    "webSite": ""
  },
  {
    "name": "Clearview Dental Pllc",
    "street": "3200 Greenlawn Blvd Ste 180 ",
    "city": "Round Rock",
    "state": "TX",
    "zipCode": "78664-7591",
    "phone": "(347) 835-9897",
    "fax": "",
    "webSite": ""
  },
  {
    "name": "Cleburne Dental Studio Pllc",
    "street": "1607 W Henderson St Ste K ",
    "city": "Cleburne",
    "state": "TX",
    "zipCode": "76033-4179",
    "phone": "(817) 522-3166",
    "fax": "",
    "webSite": ""
  },
  {
    "name": "Clegg, Stephen Connell",
    "street": "1026 S Adams St ",
    "city": "Fredericksburg",
    "state": "TX",
    "zipCode": "78624-5002",
    "phone": "(830) 997-3399",
    "fax": "(830) 990-9200",
    "webSite": ""
  },
  {
    "name": "Clements, Casey Lee",
    "street": "13843 Highway 105 W #106",
    "city": "Conroe",
    "state": "TX",
    "zipCode": "77304-5700",
    "phone": "(936) 524-3368",
    "fax": "",
    "webSite": ""
  },
  {
    "name": "Clements, Charles A",
    "street": "325 General Cavazos Blvd ",
    "city": "Kingsville",
    "state": "TX",
    "zipCode": "78363-7203",
    "phone": "(361) 592-5248",
    "fax": "(361) 592-5259",
    "webSite": ""
  },
  {
    "name": "Clements, Clint A.",
    "street": "303 E Hildebrand Ave Suite 3",
    "city": "San Antonio",
    "state": "TX",
    "zipCode": "78212-2475",
    "phone": "(210) 828-6357",
    "fax": "(210) 828-7460",
    "webSite": ""
  },
  {
    "name": "Clements, Vanesa Guerra",
    "street": "13331 Preston Rd Ste 1134 ",
    "city": "Dallas",
    "state": "TX",
    "zipCode": "75240-1140",
    "phone": "(972) 991-4867",
    "fax": "(214) 420-4859",
    "webSite": ""
  },
  {
    "name": "Clemetson, Jonathan Christopher",
    "street": "1700 Pacific Ave Suite 260",
    "city": "Dallas",
    "state": "TX",
    "zipCode": "75201-4617",
    "phone": "(214) 651-0005",
    "fax": "(214) 651-1419",
    "webSite": ""
  },
  {
    "name": "Clendenen, Walter Von",
    "street": "302 N. Main ",
    "city": "Winters",
    "state": "TX",
    "zipCode": "79567",
    "phone": "(325) 754-4235",
    "fax": "",
    "webSite": ""
  },
  {
    "name": "Cleveland, Charles Reginald",
    "street": "107 Main ",
    "city": "Sealy",
    "state": "TX",
    "zipCode": "77474",
    "phone": "(979) 885-3355",
    "fax": "(979) 885-0809",
    "webSite": ""
  },
  {
    "name": "Cleveland, Kellie Kendrick",
    "street": "4110 Fm 407 Ste 150 ",
    "city": "Flower Mound",
    "state": "TX",
    "zipCode": "75077",
    "phone": "(940) 455-7004",
    "fax": "(940) 455-7064",
    "webSite": ""
  },
  {
    "name": "Cleveland, Mary Katherine",
    "street": "9202 Elam Rd ",
    "city": "Dallas",
    "state": "TX",
    "zipCode": "75217-4151",
    "phone": "(888) 682-7286",
    "fax": "",
    "webSite": ""
  },
  {
    "name": "Clifford N. Auten, D.D.S,",
    "street": "305 S Bosque St Suite A",
    "city": "Whitney",
    "state": "TX",
    "zipCode": "76692-2736",
    "phone": "(254) 694-3114",
    "fax": "(254) 694-7084",
    "webSite": ""
  },
  {
    "name": "Clifford, Christi Van",
    "street": "903 Bay Area Blvd Suite E",
    "city": "Houston",
    "state": "TX",
    "zipCode": "77058-2647",
    "phone": "(281) 486-0440",
    "fax": "(281) 486-5918",
    "webSite": ""
  },
  {
    "name": "Clifton B. Baldwin, D.D.S.",
    "street": "5258 Louetta Rd Suite 100",
    "city": "Spring",
    "state": "TX",
    "zipCode": "77379-8159",
    "phone": "(281) 893-4746",
    "fax": "(281) 376-8273",
    "webSite": ""
  },
  {
    "name": "Cline, Charles W",
    "street": "2348 W Main St ",
    "city": "League City",
    "state": "TX",
    "zipCode": "77573-3435",
    "phone": "(281) 332-3756",
    "fax": "(281) 332-1191",
    "webSite": ""
  },
  {
    "name": "Clinica Dental Llc",
    "street": "2026 Wirt Rd 101",
    "city": "Houston",
    "state": "TX",
    "zipCode": "77055-1602",
    "phone": "(713) 682-4311",
    "fax": "",
    "webSite": ""
  },
  {
    "name": "Beaumont Dental Associates",
    "street": "590 Dowlen Rd ",
    "city": "Beaumont",
    "state": "TX",
    "zipCode": "77706-6014",
    "phone": "(409) 866-9541",
    "fax": "(409) 866-0622",
    "webSite": ""
  },
  {
    "name": "Clinkscales, John Charles",
    "street": "590 Dowlen Rd ",
    "city": "Beaumont",
    "state": "TX",
    "zipCode": "77706-6014",
    "phone": "(409) 866-9541",
    "fax": "(409) 866-0622",
    "webSite": ""
  },
  {
    "name": "Hyatt Family Dental",
    "street": "8711 Bedford Euless Rd ",
    "city": "Hurst",
    "state": "TX",
    "zipCode": "76053-3851",
    "phone": "(817) 589-0496",
    "fax": "",
    "webSite": ""
  },
  {
    "name": "Clinton, Scott Gene",
    "street": "125 Park Place Blvd ",
    "city": "Waxahachie",
    "state": "TX",
    "zipCode": "75165-9104",
    "phone": "(972) 937-4370",
    "fax": "(972) 937-4369",
    "webSite": ""
  },
  {
    "name": "Cloin, Marty L",
    "street": "3703 W Green Oaks Blvd ",
    "city": "Arlington",
    "state": "TX",
    "zipCode": "76016-3328",
    "phone": "(817) 457-6656",
    "fax": "(817) 457-8191",
    "webSite": ""
  },
  {
    "name": "Cloud, George H",
    "street": "3002 Gilmer Road Suite #3",
    "city": "Longview",
    "state": "TX",
    "zipCode": "75604",
    "phone": "(903) 759-4366",
    "fax": "(903) 759-2663",
    "webSite": ""
  },
  {
    "name": "Cloyes, Brian Morgan",
    "street": "909 Dairy Ashford Suite 214 ",
    "city": "Houston",
    "state": "TX",
    "zipCode": "77079",
    "phone": "(281) 497-7227",
    "fax": "(281) 497-5877",
    "webSite": ""
  },
  {
    "name": "Clyde, William Randolph",
    "street": "1000 Hospital Drive ",
    "city": "Tyler",
    "state": "TX",
    "zipCode": "75701",
    "phone": "(903) 597-3331",
    "fax": "(905) 597-9639",
    "webSite": ""
  },
  {
    "name": "Cmp Dental Group, P.C.",
    "street": "2639 Walnut Hill Ln Ste 225 ",
    "city": "Dallas",
    "state": "TX",
    "zipCode": "75229-5699",
    "phone": "(972) 423-6804",
    "fax": "",
    "webSite": ""
  },
  {
    "name": "Coats, Becky",
    "street": "2631 Ira E Woods Ave ",
    "city": "Grapevine",
    "state": "TX",
    "zipCode": "76051-3829",
    "phone": "(817) 481-6888",
    "fax": "(817) 251-1999",
    "webSite": ""
  },
  {
    "name": "Coats, Christopher Lee",
    "street": "2311 Roosevelt Dr Ste A ",
    "city": "Arlington",
    "state": "TX",
    "zipCode": "76016-5867",
    "phone": "(817) 468-1893",
    "fax": "",
    "webSite": ""
  },
  {
    "name": "Coban, Alper",
    "street": "2708 Cornerstone Blvd ",
    "city": "Edinburg",
    "state": "TX",
    "zipCode": "78539-8327",
    "phone": "(956) 686-5511",
    "fax": "",
    "webSite": ""
  },
  {
    "name": "Cobb, Alyssa Reigh",
    "street": "2647 Bulverde Rd ",
    "city": "Bulverde",
    "state": "TX",
    "zipCode": "78163-2105",
    "phone": "(830) 980-9004",
    "fax": "",
    "webSite": ""
  },
  {
    "name": "Cobb, Nicholas Edward",
    "street": "113 Burnett Ct ",
    "city": "Woodway",
    "state": "TX",
    "zipCode": "76712-3100",
    "phone": "(254) 776-3310",
    "fax": "(254) 224-6066",
    "webSite": ""
  },
  {
    "name": "Cobb, Stanton Winfield",
    "street": "3302 Gaston Ave # 317",
    "city": "Dallas",
    "state": "TX",
    "zipCode": "75246-2013",
    "phone": "(214) 828-8281",
    "fax": "",
    "webSite": ""
  },
  {
    "name": "Cobbett, Judith Ann",
    "street": "2580 Laurel St ",
    "city": "Beaumont",
    "state": "TX",
    "zipCode": "77702-2306",
    "phone": "(409) 835-3450",
    "fax": "(409) 835-0450",
    "webSite": ""
  },
  {
    "name": "Coble, Jeremy Charles",
    "street": "2403 Lacy Ln ",
    "city": "Carrollton",
    "state": "TX",
    "zipCode": "75006-6514",
    "phone": "(972) 869-3789",
    "fax": "(972) 869-3791",
    "webSite": ""
  },
  {
    "name": "Coburn, Keith A.",
    "street": "1224 Kilgore Rd. ",
    "city": "Baytown",
    "state": "TX",
    "zipCode": "77520",
    "phone": "(281) 380-1455",
    "fax": "",
    "webSite": ""
  },
  {
    "name": "Cochran, Bradley Stewart",
    "street": "117 W 2Nd St ",
    "city": "Denver City",
    "state": "TX",
    "zipCode": "79323-3101",
    "phone": "(806) 592-3468",
    "fax": "(806) 592-7566",
    "webSite": ""
  },
  {
    "name": "Cockerell, Thomas F",
    "street": "6849 C Green Oaks Road ",
    "city": "Fort Worth",
    "state": "TX",
    "zipCode": "76116-1713",
    "phone": "(817) 735-8801",
    "fax": "(817) 735-8822",
    "webSite": ""
  },
  {
    "name": "Cockerell, Tom F.",
    "street": "1616 Pennsylvania Ave ",
    "city": "Fort Worth",
    "state": "TX",
    "zipCode": "76104-2029",
    "phone": "(817) 921-2600",
    "fax": "(817) 335-2419",
    "webSite": ""
  },
  {
    "name": "Coco Dental Center Pllc",
    "street": "3450 Forest Ln Suite 101",
    "city": "Dallas",
    "state": "TX",
    "zipCode": "75234-7714",
    "phone": "(469) 261-7889",
    "fax": "",
    "webSite": ""
  },
  {
    "name": "Coconut Dental Duncanville Pllc",
    "street": "1459 Acton Ave ",
    "city": "Duncanville",
    "state": "TX",
    "zipCode": "75137-3338",
    "phone": "(972) 833-4800",
    "fax": "",
    "webSite": ""
  },
  {
    "name": "Coconut Dental Pllc",
    "street": "6600 Brentwood Stair Rd ",
    "city": "Fort Worth",
    "state": "TX",
    "zipCode": "76112-3303",
    "phone": "(817) 457-4141",
    "fax": "",
    "webSite": ""
  },
  {
    "name": "Codentx",
    "street": "701 Commerce St ",
    "city": "Dallas",
    "state": "TX",
    "zipCode": "75202-4522",
    "phone": "(214) 208-3872",
    "fax": "",
    "webSite": ""
  },
  {
    "name": "Cody Brown Dds Pllc",
    "street": "2701 W Heritage Trace Pkwy Ste 130",
    "city": "Fort Worth",
    "state": "TX",
    "zipCode": "76177",
    "phone": "(972) 590-8809",
    "fax": "",
    "webSite": ""
  },
  {
    "name": "Cody, Robert Carroll",
    "street": "13701 Northwest Blvd Ste B3",
    "city": "Corpus Christi",
    "state": "TX",
    "zipCode": "78410-5114",
    "phone": "(361) 387-3559",
    "fax": "(361) 387-1286",
    "webSite": ""
  },
  {
    "name": "Cody, Ryan James",
    "street": "7906 Gulf Fwy ",
    "city": "Houston",
    "state": "TX",
    "zipCode": "77017-3018",
    "phone": "(713) 396-3844",
    "fax": "",
    "webSite": ""
  },
  {
    "name": "Cody, Teresa Ann",
    "street": "1111 Highway 6 Suite 185",
    "city": "Sugar Land",
    "state": "TX",
    "zipCode": "77478-4914",
    "phone": "(281) 242-0241",
    "fax": "(281) 242-3421",
    "webSite": ""
  },
  {
    "name": "Coerver, Ashley",
    "street": "2041 Highway 287 N Ste 105 ",
    "city": "Mansfield",
    "state": "TX",
    "zipCode": "76063-9260",
    "phone": "(682) 302-3283",
    "fax": "(682) 310-0200",
    "webSite": ""
  },
  {
    "name": "Coffin, Kyle Shaughnessy",
    "street": "514 Tenaha St ",
    "city": "Center",
    "state": "TX",
    "zipCode": "75935-3402",
    "phone": "(936) 598-6181",
    "fax": "(936) 598-9138",
    "webSite": ""
  },
  {
    "name": "Cohen, A. Arbe",
    "street": "1200 Medical Ave 101",
    "city": "Plano",
    "state": "TX",
    "zipCode": "75075-4739",
    "phone": "(972) 867-6500",
    "fax": "",
    "webSite": ""
  },
  {
    "name": "Cohen, Howard S",
    "street": "1200 Medical Ave 101",
    "city": "Plano",
    "state": "TX",
    "zipCode": "75075-4739",
    "phone": "(972) 867-6500",
    "fax": "",
    "webSite": ""
  },
  {
    "name": "Grapevine Dental",
    "street": "1015 W Wall St ",
    "city": "Grapevine",
    "state": "TX",
    "zipCode": "76051-5151",
    "phone": "(817) 481-1813",
    "fax": "",
    "webSite": ""
  },
  {
    "name": "Colapret, Jerry Frank",
    "street": "308 Belcher St Ste A ",
    "city": "Cleveland",
    "state": "TX",
    "zipCode": "77327",
    "phone": "(832) 401-5044",
    "fax": "",
    "webSite": ""
  },
  {
    "name": "Colbert, Charisse",
    "street": "4105 Dowlen Rd Suite A",
    "city": "Beaumont",
    "state": "TX",
    "zipCode": "77706-6874",
    "phone": "(409) 924-8100",
    "fax": "(409) 924-8181",
    "webSite": ""
  },
  {
    "name": "Cole, Barry S",
    "street": "1560 Highway 287 N Suite 100",
    "city": "Mansfield",
    "state": "TX",
    "zipCode": "76063-8824",
    "phone": "(817) 473-3010",
    "fax": "(817) 473-1888",
    "webSite": ""
  },
  {
    "name": "Cole, Matthew J",
    "street": "12468 Memorial Dr ",
    "city": "Houston",
    "state": "TX",
    "zipCode": "77024-6100",
    "phone": "(713) 465-8655",
    "fax": "(713) 465-9062",
    "webSite": ""
  },
  {
    "name": "Cole, Micheal Anthony",
    "street": "6500 S Flores St #102",
    "city": "San Antonio",
    "state": "TX",
    "zipCode": "78214-2628",
    "phone": "(210) 924-5933",
    "fax": "(210) 924-5934",
    "webSite": ""
  },
  {
    "name": "Cole, Stacy Virgil",
    "street": "4812 Bryant Irvin Ct ",
    "city": "Fort Worth",
    "state": "TX",
    "zipCode": "76107-7640",
    "phone": "(817) 731-9291",
    "fax": "(817) 737-9767",
    "webSite": ""
  },
  {
    "name": "Cole, Thomas Richard",
    "street": "1400 Grayson St Bldg 44, Suite 213",
    "city": "Fort Sam Houston",
    "state": "TX",
    "zipCode": "78234-7577",
    "phone": "(210) 221-9939",
    "fax": "(210) 221-9943",
    "webSite": ""
  },
  {
    "name": "Cole, William Reese",
    "street": "2830 Town Center Dr Ste 120 ",
    "city": "New Braunfels",
    "state": "TX",
    "zipCode": "78130-2135",
    "phone": "(830) 730-4072",
    "fax": "",
    "webSite": ""
  },
  {
    "name": "Coledent Pllc",
    "street": "7575 San Felipe St Suite 101",
    "city": "Houston",
    "state": "TX",
    "zipCode": "77063-1711",
    "phone": "(713) 227-6453",
    "fax": "(855) 827-7442",
    "webSite": ""
  },
  {
    "name": "Coleman, Alan B",
    "street": "7811 Gladys ",
    "city": "Beaumont",
    "state": "TX",
    "zipCode": "77706",
    "phone": "(409) 866-6444",
    "fax": "",
    "webSite": ""
  },
  {
    "name": "Coleman, Arthur W",
    "street": "8788 Tidwell Rd ",
    "city": "Houston",
    "state": "TX",
    "zipCode": "77028-1244",
    "phone": "(713) 635-5868",
    "fax": "",
    "webSite": ""
  },
  {
    "name": "Coleman, Charles Crary",
    "street": "2120 Glendale Dr ",
    "city": "Plano",
    "state": "TX",
    "zipCode": "75023-5235",
    "phone": "(972) 596-4032",
    "fax": "",
    "webSite": ""
  },
  {
    "name": "Coleman, Debra",
    "street": "1005 N Collins St Suite 100",
    "city": "Arlington",
    "state": "TX",
    "zipCode": "76011-6129",
    "phone": "(817) 795-4044",
    "fax": "",
    "webSite": ""
  },
  {
    "name": "Coleman, Scott Harvey",
    "street": "7575 San Felipe St Suite 135",
    "city": "Houston",
    "state": "TX",
    "zipCode": "77063-1711",
    "phone": "(713) 781-2800",
    "fax": "(713) 783-2910",
    "webSite": ""
  },
  {
    "name": "Coligado, Edwin J",
    "street": "7810 Fm 1960 Rd E Suite 102",
    "city": "Humble",
    "state": "TX",
    "zipCode": "77346-2252",
    "phone": "(281) 852-6424",
    "fax": "(281) 852-0831",
    "webSite": ""
  },
  {
    "name": "Accent Dental",
    "street": "8300 Gaylord Pkwy Ste. 15",
    "city": "Frisco",
    "state": "TX",
    "zipCode": "75034-8566",
    "phone": "(972) 335-7666",
    "fax": "",
    "webSite": ""
  },
  {
    "name": "Collantes, Jo-Ann V",
    "street": "125 W Park Ave ",
    "city": "Hereford",
    "state": "TX",
    "zipCode": "79045-4201",
    "phone": "(806) 364-7688",
    "fax": "(806) 364-7694",
    "webSite": ""
  },
  {
    "name": "Collazo, Caesar",
    "street": "1303 San Antonio St Ste 500 ",
    "city": "Austin",
    "state": "TX",
    "zipCode": "78701-0025",
    "phone": "(512) 879-6600",
    "fax": "",
    "webSite": ""
  },
  {
    "name": "College Station Dentistry And Orthodontics",
    "street": "11671 Fm 2154 Suite 400",
    "city": "College Station",
    "state": "TX",
    "zipCode": "77845",
    "phone": "(979) 221-2423",
    "fax": "(979) 221-2426",
    "webSite": ""
  },
  {
    "name": "Collier Family Dnetistry Pllc",
    "street": "918 E Pleasant Run Rd Ste 120",
    "city": "Cedar Hill",
    "state": "TX",
    "zipCode": "75104",
    "phone": "(972) 779-0300",
    "fax": "",
    "webSite": ""
  },
  {
    "name": "Collier, Clarissa",
    "street": "3806 E Broad St Ste 108 ",
    "city": "Mansfield",
    "state": "TX",
    "zipCode": "76063-5621",
    "phone": "(817) 842-2600",
    "fax": "",
    "webSite": ""
  },
  {
    "name": "Collier, Mary Zoe",
    "street": "2301 Eldorado Pkwy Suite 500",
    "city": "Mckinney",
    "state": "TX",
    "zipCode": "75070-4362",
    "phone": "(972) 542-3005",
    "fax": "(972) 542-6776",
    "webSite": ""
  },
  {
    "name": "Collins, Brent Andrew",
    "street": "1301 W Glade Rd Ste 110 ",
    "city": "Euless",
    "state": "TX",
    "zipCode": "76039-5419",
    "phone": "(817) 358-2008",
    "fax": "",
    "webSite": ""
  },
  {
    "name": "Collins, David Michael",
    "street": "3.5 Miles South On Fm 2054 ",
    "city": "Tennessee Colony",
    "state": "TX",
    "zipCode": "75886-0001",
    "phone": "(902) 928-2311",
    "fax": "",
    "webSite": ""
  },
  {
    "name": "Collins, John William",
    "street": "500 N Zaragoza Rd Ste K ",
    "city": "El Paso",
    "state": "TX",
    "zipCode": "79907-4737",
    "phone": "(915) 730-6386",
    "fax": "",
    "webSite": ""
  },
  {
    "name": "Collins, Joseph Daniel",
    "street": "2101 Crawford St Ste 103 ",
    "city": "Houston",
    "state": "TX",
    "zipCode": "77002-8941",
    "phone": "(713) 654-7756",
    "fax": "(713) 654-7858",
    "webSite": ""
  },
  {
    "name": "Collins, Kandace Renae",
    "street": "305A S Bosque St ",
    "city": "Whitney",
    "state": "TX",
    "zipCode": "76692-2739",
    "phone": "(254) 694-3114",
    "fax": "(254) 694-7084",
    "webSite": ""
  },
  {
    "name": "Collins, Richard Dath",
    "street": "11540 Harwin Dr ",
    "city": "Houston",
    "state": "TX",
    "zipCode": "77072-1340",
    "phone": "(281) 983-5677",
    "fax": "(281) 495-5545",
    "webSite": ""
  },
  {
    "name": "Collins, Richard Edward",
    "street": "Rural Route 2 ",
    "city": "Teague",
    "state": "TX",
    "zipCode": "75860",
    "phone": "(254) 739-3837",
    "fax": "(254) 739-3837",
    "webSite": ""
  },
  {
    "name": "Collins, Scharla Rusk",
    "street": "2758 N Galloway Ave Ste 200",
    "city": "Mesquite",
    "state": "TX",
    "zipCode": "75150",
    "phone": "(972) 270-5113",
    "fax": "(972) 270-5157",
    "webSite": ""
  },
  {
    "name": "Collins, Todd M",
    "street": "404 N. Bryant Ave. ",
    "city": "Sherman",
    "state": "TX",
    "zipCode": "75092",
    "phone": "(903) 893-5757",
    "fax": "(903) 893-5250",
    "webSite": ""
  },
  {
    "name": "Collins, Troy V",
    "street": "9567 S Gessner Dr ",
    "city": "Houston",
    "state": "TX",
    "zipCode": "77074-3813",
    "phone": "(713) 981-0025",
    "fax": "(713) 981-1660",
    "webSite": ""
  },
  {
    "name": "Collinsworth, Klaus Dieter",
    "street": "8601 Village Dr Ste 201 ",
    "city": "San Antonio",
    "state": "TX",
    "zipCode": "78217-5509",
    "phone": "(210) 657-6453",
    "fax": "",
    "webSite": ""
  },
  {
    "name": "Colluru, Krishna Prasad",
    "street": "3900 N Tarrant Pkwy 100",
    "city": "Fort Worth",
    "state": "TX",
    "zipCode": "76244-5410",
    "phone": "(817) 379-9091",
    "fax": "",
    "webSite": ""
  },
  {
    "name": "Colombo, David",
    "street": "4410 Seawall Blvd ",
    "city": "Galveston",
    "state": "TX",
    "zipCode": "77550-8655",
    "phone": "(409) 763-8444",
    "fax": "(409) 763-8444",
    "webSite": ""
  },
  {
    "name": "Colter, Shandon M",
    "street": "5408 Alpha Rd ",
    "city": "Dallas",
    "state": "TX",
    "zipCode": "75240-4506",
    "phone": "(972) 386-6200",
    "fax": "",
    "webSite": ""
  },
  {
    "name": "Columbia Dental",
    "street": "907 S Columbia Dr ",
    "city": "West Columbia",
    "state": "TX",
    "zipCode": "77486-3637",
    "phone": "(979) 345-3621",
    "fax": "(979) 345-3723",
    "webSite": ""
  },
  {
    "name": "Columbia Dental, P.A.",
    "street": "4611 Columbia Ave Ste 104 ",
    "city": "Dallas",
    "state": "TX",
    "zipCode": "75226-2304",
    "phone": "(214) 827-8000",
    "fax": "(214) 827-8001",
    "webSite": ""
  },
  {
    "name": "Colvin, Vernon L",
    "street": "206 Stone Gate Dr ",
    "city": "New Braunfels",
    "state": "TX",
    "zipCode": "78130",
    "phone": "(830) 625-6410",
    "fax": "(830) 626-3545",
    "webSite": ""
  },
  {
    "name": "Combs, Chiara Rai",
    "street": "8191 Southwest Fwy Ste 117 ",
    "city": "Houston",
    "state": "TX",
    "zipCode": "77074-1700",
    "phone": "(713) 270-9926",
    "fax": "(713) 270-9931",
    "webSite": ""
  },
  {
    "name": "Comeaux, Ryan Wayne",
    "street": "8008 Ashlane Waye Suite 150",
    "city": "The Woodlands",
    "state": "TX",
    "zipCode": "77382",
    "phone": "(281) 419-0333",
    "fax": "(832) 634-3333",
    "webSite": ""
  },
  {
    "name": "Comer, Kenneth Max",
    "street": "4600 W Interstate 40 Ste 302 ",
    "city": "Amarillo",
    "state": "TX",
    "zipCode": "79106-5800",
    "phone": "(806) 353-2893",
    "fax": "",
    "webSite": ""
  },
  {
    "name": "Cometti, Peyton D",
    "street": "1583 Common St Suite 102",
    "city": "New Braunfels",
    "state": "TX",
    "zipCode": "78130-3173",
    "phone": "(830) 608-1818",
    "fax": "",
    "webSite": ""
  },
  {
    "name": "Comfort Center For Dentistry, Pa",
    "street": "210B Hwy. 87 N. ",
    "city": "Comfort",
    "state": "TX",
    "zipCode": "78013",
    "phone": "(830) 995-0547",
    "fax": "(830) 995-5355",
    "webSite": ""
  },
  {
    "name": "Comfort Dental Addison, Pllc",
    "street": "3744 Beltline Rd ",
    "city": "Addison",
    "state": "TX",
    "zipCode": "75001",
    "phone": "(972) 243-3948",
    "fax": "(972) 241-3761",
    "webSite": ""
  },
  {
    "name": "Comfort Dental Clay Mathis, Pllc",
    "street": "540 Clay Mathis Rd 110",
    "city": "Mesquite",
    "state": "TX",
    "zipCode": "75181-1167",
    "phone": "(972) 222-5313",
    "fax": "",
    "webSite": ""
  },
  {
    "name": "Comfort Dental Denton",
    "street": "612 W University Dr ",
    "city": "Denton",
    "state": "TX",
    "zipCode": "76201-1889",
    "phone": "(940) 484-1200",
    "fax": "",
    "webSite": ""
  },
  {
    "name": "Comfort Dental Richardson, Pllc",
    "street": "516 W Arapaho 103",
    "city": "Richardson",
    "state": "TX",
    "zipCode": "75080",
    "phone": "(972) 231-5020",
    "fax": "(972) 231-5950",
    "webSite": ""
  },
  {
    "name": "Comfort Dental Stone Oak, Pllc",
    "street": "203 N Loop 1604 W Suite 101",
    "city": "San Antonio",
    "state": "TX",
    "zipCode": "78232-1027",
    "phone": "(210) 490-8300",
    "fax": "(210) 490-8301",
    "webSite": ""
  },
  {
    "name": "Comfort Dental Thousand Oaks, Pllc",
    "street": "3023 Thousand Oaks Dr Suite 110",
    "city": "San Antonio",
    "state": "TX",
    "zipCode": "78247-3556",
    "phone": "(210) 497-6700",
    "fax": "",
    "webSite": ""
  },
  {
    "name": "Comfort Dental, Pa",
    "street": "6705 Jackson Dr ",
    "city": "Terrell",
    "state": "TX",
    "zipCode": "75161-7402",
    "phone": "(972) 948-9483",
    "fax": "",
    "webSite": ""
  },
  {
    "name": "Comfort Dentistry",
    "street": "203 N Loop 1604 W ",
    "city": "San Antonio",
    "state": "TX",
    "zipCode": "78232-1027",
    "phone": "(831) 247-3041",
    "fax": "",
    "webSite": ""
  },
  {
    "name": "Comfort Smiles Nrh Pllc",
    "street": "2210 Live Oak St Ste C ",
    "city": "Commerce",
    "state": "TX",
    "zipCode": "75428-4441",
    "phone": "(903) 274-0609",
    "fax": "",
    "webSite": ""
  },
  {
    "name": "Comfort Smiles Pllc",
    "street": "216 Dalton Dr ",
    "city": "Desoto",
    "state": "TX",
    "zipCode": "75115-4414",
    "phone": "(201) 299-7257",
    "fax": "",
    "webSite": ""
  },
  {
    "name": "Family Smiles Of Commerce",
    "street": "1409 Live Oak St ",
    "city": "Commerce",
    "state": "TX",
    "zipCode": "75428-2545",
    "phone": "(940) 220-7833",
    "fax": "",
    "webSite": ""
  },
  {
    "name": "Commerce St Family Dental Center Pc",
    "street": "2522 W Commerce St ",
    "city": "San Antonio",
    "state": "TX",
    "zipCode": "78207",
    "phone": "(210) 225-4867",
    "fax": "(210) 225-5643",
    "webSite": ""
  },
  {
    "name": "Community Action Health Center",
    "street": "700 Flournoy Rd Ste 2A ",
    "city": "Alice",
    "state": "TX",
    "zipCode": "78332-4088",
    "phone": "(361) 664-1417",
    "fax": "(361) 664-3218",
    "webSite": ""
  },
  {
    "name": "La Mision Dental Clinic",
    "street": "600 N Garza St ",
    "city": "Rio Grande City",
    "state": "TX",
    "zipCode": "78582-3538",
    "phone": "(956) 487-2585",
    "fax": "(956) 487-6670",
    "webSite": ""
  },
  {
    "name": "Community Dental Care, P.A.",
    "street": "8535 W Bellfort St ",
    "city": "Houston",
    "state": "TX",
    "zipCode": "77071-2207",
    "phone": "(713) 777-8999",
    "fax": "(713) 988-2422",
    "webSite": ""
  },
  {
    "name": "Community Dental For Kids",
    "street": "1108 W Dickinson Blvd Ste B ",
    "city": "Fort Stockton",
    "state": "TX",
    "zipCode": "79735-4201",
    "phone": "(480) 734-4712",
    "fax": "",
    "webSite": ""
  },
  {
    "name": "Complete Family Dentistry",
    "street": "1302 S Gen Mcmullen Dr Suite 102",
    "city": "San Antonio",
    "state": "TX",
    "zipCode": "78237-4200",
    "phone": "(210) 432-7851",
    "fax": "",
    "webSite": ""
  },
  {
    "name": "Complete Dental Care",
    "street": "720 Sw Wilshire Blvd ",
    "city": "Burleson",
    "state": "TX",
    "zipCode": "76028-5711",
    "phone": "(817) 295-6141",
    "fax": "",
    "webSite": ""
  },
  {
    "name": "Compton, Diana",
    "street": "6918 W Military Dr ",
    "city": "San Antonio",
    "state": "TX",
    "zipCode": "78227-3620",
    "phone": "(210) 674-3700",
    "fax": "(210) 674-3738",
    "webSite": ""
  },
  {
    "name": "Concierge Cosmetic Dentistry",
    "street": "10025 Lake June Rd ",
    "city": "Dallas",
    "state": "TX",
    "zipCode": "75217-3041",
    "phone": "(469) 693-2770",
    "fax": "",
    "webSite": ""
  },
  {
    "name": "Conditt, Mitchell Allen",
    "street": "5722 Locke Ave ",
    "city": "Fort Worth",
    "state": "TX",
    "zipCode": "76107-5020",
    "phone": "(817) 527-8500",
    "fax": "(817) 527-8512",
    "webSite": ""
  },
  {
    "name": "Cone, Patrick Robert",
    "street": "3560 S Alameda St ",
    "city": "Corpus Christi",
    "state": "TX",
    "zipCode": "78411-1700",
    "phone": "(361) 854-5955",
    "fax": "",
    "webSite": ""
  },
  {
    "name": "Confi-Dental Pa",
    "street": "1401 W Berry St ",
    "city": "Fort Worth",
    "state": "TX",
    "zipCode": "76110-3814",
    "phone": "(817) 921-9616",
    "fax": "(817) 921-9599",
    "webSite": ""
  },
  {
    "name": "Congo Dental Clinic P.A.",
    "street": "7005 Pastor Bailey Dr. Ste. 103B",
    "city": "Dallas",
    "state": "TX",
    "zipCode": "75237",
    "phone": "(972) 296-2202",
    "fax": "(972) 296-2259",
    "webSite": ""
  },
  {
    "name": "Mosaic Dentistry",
    "street": "1460 E Whitestone Blvd Ste. 210",
    "city": "Cedar Park",
    "state": "TX",
    "zipCode": "78613-2210",
    "phone": "(512) 528-0975",
    "fax": "(512) 528-0184",
    "webSite": ""
  },
  {
    "name": "Conley, Bryant Deon",
    "street": "5602 Lyons Ave ",
    "city": "Houston",
    "state": "TX",
    "zipCode": "77020",
    "phone": "(832) 548-5000",
    "fax": "(713) 523-4897",
    "webSite": ""
  },
  {
    "name": "Conley, Emily Susanne",
    "street": "3066 E Commerce St ",
    "city": "San Antonio",
    "state": "TX",
    "zipCode": "78220-1013",
    "phone": "(210) 434-2647",
    "fax": "",
    "webSite": ""
  },
  {
    "name": "Conley, Trang Thu",
    "street": "3501 Gus Thomasson Rd Ste 105",
    "city": "Mesquite",
    "state": "TX",
    "zipCode": "75150-3699",
    "phone": "(972) 388-1138",
    "fax": "",
    "webSite": ""
  },
  {
    "name": "Conner, Thomas Robert",
    "street": "109 E Kaufman St ",
    "city": "Rockwall",
    "state": "TX",
    "zipCode": "75087-2529",
    "phone": "(972) 771-3684",
    "fax": "(972) 771-3777",
    "webSite": ""
  },
  {
    "name": "Connor Family Dentistry",
    "street": "840 E Redd Rd Bldg 1-B",
    "city": "El Paso",
    "state": "TX",
    "zipCode": "79912-7264",
    "phone": "(915) 581-1771",
    "fax": "(915) 581-5772",
    "webSite": ""
  },
  {
    "name": "Connor,Iii, Thomas W",
    "street": "840 Redd Rd Bldg 1-B",
    "city": "El Paso",
    "state": "TX",
    "zipCode": "79912",
    "phone": "(915) 581-1771",
    "fax": "(915) 581-5772",
    "webSite": ""
  },
  {
    "name": "Conquest Dental Group, Llc",
    "street": "2911 A W Grimes Blvd Ste 600 ",
    "city": "Pflugerville",
    "state": "TX",
    "zipCode": "78660-5461",
    "phone": "(512) 271-1298",
    "fax": "(512) 690-0148",
    "webSite": ""
  },
  {
    "name": "Conrad, Curt",
    "street": "1605 N Garland Ave Suite C",
    "city": "Garland",
    "state": "TX",
    "zipCode": "75040-9417",
    "phone": "(972) 494-0004",
    "fax": "(972) 494-1177",
    "webSite": ""
  },
  {
    "name": "Conroe Family Dentistry Pllc",
    "street": "1517 Wilson Rd ",
    "city": "Conroe",
    "state": "TX",
    "zipCode": "77304-2179",
    "phone": "(936) 539-2211",
    "fax": "",
    "webSite": ""
  },
  {
    "name": "Contreras, Benjamin F",
    "street": "1027 Main St Suite A",
    "city": "Pasadena",
    "state": "TX",
    "zipCode": "77506-4538",
    "phone": "(713) 472-8419",
    "fax": "(713) 472-0344",
    "webSite": ""
  },
  {
    "name": "Comfort Dental Converse",
    "street": "9135 Schaefer Rd ",
    "city": "Converse",
    "state": "TX",
    "zipCode": "78109-1979",
    "phone": "(720) 333-0579",
    "fax": "",
    "webSite": ""
  },
  {
    "name": "Converse Dentistry",
    "street": "6643 Binz Engleman Road 6643 Binz Engleman Road",
    "city": "San Antonio",
    "state": "TX",
    "zipCode": "78109",
    "phone": "(210) 568-7898",
    "fax": "",
    "webSite": ""
  },
  {
    "name": "Conversedentist.Com",
    "street": "6634 Binz Engleman Rd Ste 109110 ",
    "city": "Converse",
    "state": "TX",
    "zipCode": "78109-1078",
    "phone": "(210) 568-7898",
    "fax": "(210) 446-1433",
    "webSite": ""
  },
  {
    "name": "Cook, Alex",
    "street": "301 East Hwy 377 Ste 100 ",
    "city": "Granbury",
    "state": "TX",
    "zipCode": "76048-1201",
    "phone": "(817) 776-4337",
    "fax": "",
    "webSite": ""
  },
  {
    "name": "Cook, Charles Edward",
    "street": "5230 Griggs Rd # Rs ",
    "city": "Houston",
    "state": "TX",
    "zipCode": "77021-3760",
    "phone": "(713) 454-5016",
    "fax": "(713) 454-5018",
    "webSite": ""
  },
  {
    "name": "Cook, John M",
    "street": "7500 San Felipe St Suite 850",
    "city": "Houston",
    "state": "TX",
    "zipCode": "77063-1707",
    "phone": "(713) 974-4700",
    "fax": "(713) 974-4760",
    "webSite": ""
  }
]
