[
  {
    "name": "Gibson, Richard William",
    "street": "3210 Richmond Rd ",
    "city": "Texarkana",
    "state": "TX",
    "zipCode": "75503-0702",
    "phone": "(903) 832-3146",
    "fax": "(903) 838-2579",
    "webSite": ""
  },
  {
    "name": "Gibson, T. Michael",
    "street": "3 Grogans Park Dr Ste: 100",
    "city": "The Woodlands",
    "state": "TX",
    "zipCode": "77380-2192",
    "phone": "(281) 364-9880",
    "fax": "(281) 419-2370",
    "webSite": ""
  },
  {
    "name": "Giesler, Lanny Joe",
    "street": "1 Bayou Dr ",
    "city": "Atlanta",
    "state": "TX",
    "zipCode": "75551-3402",
    "phone": "(903) 796-5843",
    "fax": "",
    "webSite": ""
  },
  {
    "name": "Giesler, Michael Lee",
    "street": "1 Bayou Dr ",
    "city": "Atlanta",
    "state": "TX",
    "zipCode": "75551-3402",
    "phone": "(903) 796-9051",
    "fax": "(903) 799-5475",
    "webSite": ""
  },
  {
    "name": "Giglio, Sam Charles",
    "street": "3560 Delaware St Ste 401",
    "city": "Beaumont",
    "state": "TX",
    "zipCode": "77706-3060",
    "phone": "(409) 898-8152",
    "fax": "(409) 898-3825",
    "webSite": ""
  },
  {
    "name": "Gil Villarreal Jr. Dds.,P.C.",
    "street": "1200 E Ridge Rd Ste 9 ",
    "city": "Mcallen",
    "state": "TX",
    "zipCode": "78503-1528",
    "phone": "(956) 631-7177",
    "fax": "(956) 631-7168",
    "webSite": ""
  },
  {
    "name": "Gil-Torrellas, Olga A",
    "street": "1901 E Main St ",
    "city": "League City",
    "state": "TX",
    "zipCode": "77573-4242",
    "phone": "(281) 332-6323",
    "fax": "",
    "webSite": ""
  },
  {
    "name": "Gilani, Sherwin",
    "street": "5110 Main St Ste 300 ",
    "city": "Frisco",
    "state": "TX",
    "zipCode": "75033-2970",
    "phone": "(972) 377-5990",
    "fax": "",
    "webSite": ""
  },
  {
    "name": "Gilbert, Kimberly Delyn",
    "street": "2915 S Georgia St ",
    "city": "Amarillo",
    "state": "TX",
    "zipCode": "79109-3436",
    "phone": "(806) 353-6422",
    "fax": "",
    "webSite": ""
  },
  {
    "name": "Gilcrease, Greg",
    "street": "119 W San Antonio St ",
    "city": "San Marcos",
    "state": "TX",
    "zipCode": "78666-5510",
    "phone": "(512) 392-5100",
    "fax": "",
    "webSite": ""
  },
  {
    "name": "Giles, Douglas Lee",
    "street": "2206 Munger St ",
    "city": "Houston",
    "state": "TX",
    "zipCode": "77023",
    "phone": "(713) 921-2299",
    "fax": "",
    "webSite": ""
  },
  {
    "name": "Giles, Roberto K.",
    "street": "2414 Crescent Hollow Ct ",
    "city": "Spring",
    "state": "TX",
    "zipCode": "77388-2701",
    "phone": "(281) 362-8979",
    "fax": "(281) 681-2115",
    "webSite": ""
  },
  {
    "name": "Gililland, Judson D",
    "street": "375 Municipal Dr Ste. 114",
    "city": "Richardson",
    "state": "TX",
    "zipCode": "75080-3559",
    "phone": "(972) 437-6035",
    "fax": "(972) 437-0333",
    "webSite": ""
  },
  {
    "name": "Gill, Barbara Julie",
    "street": "8229 Shoal Creek Blvd Suite 109",
    "city": "Austin",
    "state": "TX",
    "zipCode": "78757-7568",
    "phone": "(512) 371-9494",
    "fax": "(512) 371-9909",
    "webSite": ""
  },
  {
    "name": "Gill, Jody Annette",
    "street": "670 W Princeton Dr Ste 600 ",
    "city": "Princeton",
    "state": "TX",
    "zipCode": "75407-2556",
    "phone": "(469) 795-0209",
    "fax": "(469) 378-3228",
    "webSite": ""
  },
  {
    "name": "Gill, Kevin Clyde",
    "street": "3315 Burke Rd Ste 303 ",
    "city": "Pasadena",
    "state": "TX",
    "zipCode": "77504-1825",
    "phone": "(713) 947-0293",
    "fax": "(713) 947-0600",
    "webSite": ""
  },
  {
    "name": "Azalea Dental Care",
    "street": "110 E. Ninth Street ",
    "city": "Tyler",
    "state": "TX",
    "zipCode": "75701",
    "phone": "(903) 593-6585",
    "fax": "(903) 593-7645",
    "webSite": ""
  },
  {
    "name": "Gillespie, Kevin Roger",
    "street": "1811 Army Blvd ",
    "city": "Jbsa Ft Sam Houston",
    "state": "TX",
    "zipCode": "78234-2686",
    "phone": "(210) 221-0826",
    "fax": "(210) 221-0824",
    "webSite": ""
  },
  {
    "name": "Gillespie, Thad Harold",
    "street": "14933 W State Highway 29 ",
    "city": "Liberty Hill",
    "state": "TX",
    "zipCode": "78642-4323",
    "phone": "(512) 515-0171",
    "fax": "",
    "webSite": ""
  },
  {
    "name": "Gillett, Landon Paul",
    "street": "5307-A Airport Blvd ",
    "city": "Austin",
    "state": "TX",
    "zipCode": "78751",
    "phone": "(512) 489-0474",
    "fax": "(512) 458-3033",
    "webSite": ""
  },
  {
    "name": "Gillette, Francis J.",
    "street": "2098 N Valley Mills Dr Ste A ",
    "city": "Waco",
    "state": "TX",
    "zipCode": "76710-2585",
    "phone": "(254) 776-0691",
    "fax": "(254) 751-0214",
    "webSite": ""
  },
  {
    "name": "Gilliland, Brent Leslie",
    "street": "12Th Aeromedical-Dental Squadron 221 3Rd Street West",
    "city": "Randolph Afb",
    "state": "TX",
    "zipCode": "78150-4801",
    "phone": "(210) 652-1846",
    "fax": "(210) 652-1368",
    "webSite": ""
  },
  {
    "name": "Gillum, Tiffany",
    "street": "10750 Barker Cypress Rd Ste #111",
    "city": "Cypress",
    "state": "TX",
    "zipCode": "77433-2298",
    "phone": "(281) 213-8666",
    "fax": "(281) 256-2819",
    "webSite": ""
  },
  {
    "name": "Gilmer Dental Pllc",
    "street": "409 W Tyler St ",
    "city": "Gilmer",
    "state": "TX",
    "zipCode": "75644-2138",
    "phone": "(903) 843-2996",
    "fax": "",
    "webSite": ""
  },
  {
    "name": "Family Smiles Of Sulphur Springs",
    "street": "610 Gilmer St ",
    "city": "Sulphur Springs",
    "state": "TX",
    "zipCode": "75482-4193",
    "phone": "(949) 220-7833",
    "fax": "",
    "webSite": ""
  },
  {
    "name": "Gilson, Jeff R.",
    "street": "110 N. Preston Rd. Suite #10",
    "city": "Prosper",
    "state": "TX",
    "zipCode": "75078",
    "phone": "(972) 346-2080",
    "fax": "(972) 346-3551",
    "webSite": ""
  },
  {
    "name": "Ginjupalli, Kavitha",
    "street": "309 Garland Dr ",
    "city": "Lake Jackson",
    "state": "TX",
    "zipCode": "77566-6238",
    "phone": "(979) 480-9300",
    "fax": "(979) 480-9310",
    "webSite": ""
  },
  {
    "name": "Giple-Johnson, Francisca",
    "street": "401 E Whitestone Blvd Suite C-105",
    "city": "Cedar Park",
    "state": "TX",
    "zipCode": "78613-9051",
    "phone": "(512) 260-1238",
    "fax": "(512) 260-1238",
    "webSite": ""
  },
  {
    "name": "Girndt, Megan",
    "street": "1739 N Central Expy #100",
    "city": "Mckinney",
    "state": "TX",
    "zipCode": "75070-3113",
    "phone": "(972) 457-3195",
    "fax": "",
    "webSite": ""
  },
  {
    "name": "Girod, Teresa E. Canzoneri",
    "street": "590 Dowlen Rd ",
    "city": "Beaumont",
    "state": "TX",
    "zipCode": "77706-6014",
    "phone": "(409) 866-9541",
    "fax": "",
    "webSite": ""
  },
  {
    "name": "Girouard, Chris Anthony",
    "street": "1100 Wilford Hall Loop, Bldg 4554 Attn: 59 Mdw/Sghc",
    "city": "Jbsa Lackland",
    "state": "TX",
    "zipCode": "78236",
    "phone": "(210) 292-0718",
    "fax": "",
    "webSite": ""
  },
  {
    "name": "Girson, Annie",
    "street": "16000 Preston Rd. Suite 310 ",
    "city": "Dallas",
    "state": "TX",
    "zipCode": "75248",
    "phone": "(972) 386-6460",
    "fax": "",
    "webSite": ""
  },
  {
    "name": "Gisch, Gary Raymond",
    "street": "1427 S Broadway St ",
    "city": "Sulphur Springs",
    "state": "TX",
    "zipCode": "75482-4896",
    "phone": "(903) 885-3031",
    "fax": "(903) 885-7144",
    "webSite": ""
  },
  {
    "name": "Gist, Greg L",
    "street": "2379 N Carroll Ave ",
    "city": "Southlake",
    "state": "TX",
    "zipCode": "76092-3121",
    "phone": "(817) 488-7512",
    "fax": "(817) 481-6302",
    "webSite": ""
  },
  {
    "name": "Givan, Mark Steven",
    "street": "2925 Oak Park Circle Suite 100",
    "city": "Ft Worth",
    "state": "TX",
    "zipCode": "76109-1893",
    "phone": "(817) 926-5556",
    "fax": "(817) 926-6002",
    "webSite": ""
  },
  {
    "name": "Gk Dental Pa",
    "street": "7612 W Highway 71 Suite B",
    "city": "Austin",
    "state": "TX",
    "zipCode": "78735-8249",
    "phone": "(512) 301-1505",
    "fax": "(888) 503-5605",
    "webSite": ""
  },
  {
    "name": "Glade Crossing Dental, Pa",
    "street": "1000 W. Galde Road ",
    "city": "Grapevine",
    "state": "TX",
    "zipCode": "76051-7535",
    "phone": "(214) 420-7000",
    "fax": "",
    "webSite": ""
  },
  {
    "name": "Glanz, Helene",
    "street": "2411 Williams Dr Suite 111",
    "city": "Georgetown",
    "state": "TX",
    "zipCode": "78628-3271",
    "phone": "(512) 864-1445",
    "fax": "(512) 864-1447",
    "webSite": ""
  },
  {
    "name": "Glaros, William Petersen",
    "street": "17222 Red Oak Dr Suite 101",
    "city": "Houston",
    "state": "TX",
    "zipCode": "77090-2648",
    "phone": "(281) 440-1190",
    "fax": "",
    "webSite": ""
  },
  {
    "name": "Glaser, Toby J Glaser",
    "street": "2910 Broadway Blvd Suite 102",
    "city": "Garland",
    "state": "TX",
    "zipCode": "75041-3764",
    "phone": "(972) 278-9538",
    "fax": "(972) 271-0917",
    "webSite": ""
  },
  {
    "name": "Glasgow, Brett Jay",
    "street": "4500 S Lancaster Rd Dental Service",
    "city": "Dallas",
    "state": "TX",
    "zipCode": "75216-7167",
    "phone": "(214) 857-1082",
    "fax": "",
    "webSite": ""
  },
  {
    "name": "Glasheen, Mary",
    "street": "105 W. Lubbock Street ",
    "city": "Slaton",
    "state": "TX",
    "zipCode": "79364",
    "phone": "(806) 828-5873",
    "fax": "",
    "webSite": ""
  },
  {
    "name": "Glasper, Voris W",
    "street": "8788 Tidwell Rd ",
    "city": "Houston",
    "state": "TX",
    "zipCode": "77028-1244",
    "phone": "(713) 635-5868",
    "fax": "(713) 635-5841",
    "webSite": ""
  },
  {
    "name": "Glasper, Voris Wade",
    "street": "6418 Laura Koppe Rd ",
    "city": "Houston",
    "state": "TX",
    "zipCode": "77016-5520",
    "phone": "(713) 633-7360",
    "fax": "(713) 633-9364",
    "webSite": ""
  },
  {
    "name": "Glass, Anthony Alexander",
    "street": "945 W Hwy 276 ",
    "city": "West Tawakoni",
    "state": "TX",
    "zipCode": "75474-6467",
    "phone": "(903) 447-3206",
    "fax": "(903) 447-2988",
    "webSite": ""
  },
  {
    "name": "Glass, Paul Steven",
    "street": "301 S Jackson St ",
    "city": "Jacksonville",
    "state": "TX",
    "zipCode": "75766-4913",
    "phone": "(903) 586-6844",
    "fax": "(903) 586-0243",
    "webSite": ""
  },
  {
    "name": "Glass, Stephen Dewayne",
    "street": "7000 Louetta Rd Suite A",
    "city": "Spring",
    "state": "TX",
    "zipCode": "77379-7456",
    "phone": "(281) 376-1214",
    "fax": "(281) 257-2704",
    "webSite": ""
  },
  {
    "name": "Glauser, George L",
    "street": "2450 Fondren Rd #100",
    "city": "Houston",
    "state": "TX",
    "zipCode": "77063-2318",
    "phone": "(713) 782-4093",
    "fax": "(713) 622-9207",
    "webSite": ""
  },
  {
    "name": "Glavash, Myriam",
    "street": "5255 79Th St ",
    "city": "Lubbock",
    "state": "TX",
    "zipCode": "79424-2852",
    "phone": "(561) 398-6590",
    "fax": "",
    "webSite": ""
  },
  {
    "name": "Glazener, C. Fred",
    "street": "2681 State Highway 361 ",
    "city": "Ingleside",
    "state": "TX",
    "zipCode": "78362-4200",
    "phone": "(361) 776-3535",
    "fax": "(361) 776-0222",
    "webSite": ""
  },
  {
    "name": "Glazer, Brittaney Lee",
    "street": "1765 N Town East Blvd #111",
    "city": "Mesquite",
    "state": "TX",
    "zipCode": "75150-4172",
    "phone": "(972) 270-7210",
    "fax": "",
    "webSite": ""
  },
  {
    "name": "Gleaton, Richard Curtis",
    "street": "719 N Fielder Rd ",
    "city": "Arlington",
    "state": "TX",
    "zipCode": "76012-4636",
    "phone": "(817) 461-5455",
    "fax": "(817) 460-2409",
    "webSite": ""
  },
  {
    "name": "Gleaton, Sylvia",
    "street": "719 N Fielder Rd ",
    "city": "Arlington",
    "state": "TX",
    "zipCode": "76012-4636",
    "phone": "(817) 461-5455",
    "fax": "(817) 460-2409",
    "webSite": ""
  },
  {
    "name": "Wimberley Dental Center",
    "street": "181 Fm 3237 ",
    "city": "Wimberley",
    "state": "TX",
    "zipCode": "78676-5324",
    "phone": "(512) 847-8934",
    "fax": "(512) 847-6262",
    "webSite": ""
  },
  {
    "name": "Glendaly Fernandez, Pllc",
    "street": "2515 E Elliott St ",
    "city": "Wichita Falls",
    "state": "TX",
    "zipCode": "76308-3708",
    "phone": "(940) 696-9701",
    "fax": "",
    "webSite": ""
  },
  {
    "name": "Glenn, Janet C",
    "street": "6550 Sierra Drive ",
    "city": "Irving",
    "state": "TX",
    "zipCode": "75039",
    "phone": "(972) 594-0022",
    "fax": "(972) 409-1000",
    "webSite": ""
  },
  {
    "name": "Glenn, Roger Dale",
    "street": "128 Chaffee Rd. ",
    "city": "Fort Bliss",
    "state": "TX",
    "zipCode": "79906-3811",
    "phone": "(915) 568-5001",
    "fax": "(915) 568-5174",
    "webSite": ""
  },
  {
    "name": "Glenn, Sarah L",
    "street": "9824 Fondren Rd ",
    "city": "Houston",
    "state": "TX",
    "zipCode": "77096-3648",
    "phone": "(713) 271-3000",
    "fax": "",
    "webSite": ""
  },
  {
    "name": "Glenn, Victor Clark",
    "street": "4500 S Lancaster Rd ",
    "city": "Dallas",
    "state": "TX",
    "zipCode": "75216-7167",
    "phone": "(214) 857-1082",
    "fax": "",
    "webSite": ""
  },
  {
    "name": "Glenn, William Lloyd",
    "street": "2601 Broadway St ",
    "city": "Galveston",
    "state": "TX",
    "zipCode": "77550-4426",
    "phone": "(409) 765-5538",
    "fax": "(409) 765-6753",
    "webSite": ""
  },
  {
    "name": "Glennon, John Newton",
    "street": "2304 Hancock Dr. Suite 1",
    "city": "Austin",
    "state": "TX",
    "zipCode": "78756",
    "phone": "(512) 454-0414",
    "fax": "",
    "webSite": ""
  },
  {
    "name": "Glezer, Paul",
    "street": "2430 S Interstate 35 E Suite 178",
    "city": "Denton",
    "state": "TX",
    "zipCode": "76205-4986",
    "phone": "(940) 891-0389",
    "fax": "(940) 891-0534",
    "webSite": ""
  },
  {
    "name": "Glllv, Pllc",
    "street": "7030 Village Center Dr ",
    "city": "Austin",
    "state": "TX",
    "zipCode": "78731-3024",
    "phone": "(512) 345-3166",
    "fax": "",
    "webSite": ""
  },
  {
    "name": "Glogowski, Amanda Marie",
    "street": "13319 Corzatt Dr ",
    "city": "Houston",
    "state": "TX",
    "zipCode": "77065-3163",
    "phone": "(281) 222-9164",
    "fax": "",
    "webSite": ""
  },
  {
    "name": "Gloss Dental",
    "street": "1416 W Orem Dr ",
    "city": "Houston",
    "state": "TX",
    "zipCode": "77047",
    "phone": "(903) 360-8657",
    "fax": "",
    "webSite": ""
  },
  {
    "name": "Gloss Dental Of Rosenberg Pllc",
    "street": "3514 Highway 36 S Ste 400 ",
    "city": "Rosenberg",
    "state": "TX",
    "zipCode": "77471-9118",
    "phone": "(903) 360-8657",
    "fax": "",
    "webSite": ""
  },
  {
    "name": "Glover, Edward Augustus",
    "street": "3900 Joe Ramsey Blvd E Ste. 2A",
    "city": "Greenville",
    "state": "TX",
    "zipCode": "75401-7727",
    "phone": "(903) 455-7673",
    "fax": "(903) 455-5534",
    "webSite": ""
  },
  {
    "name": "Glover, J. Michael",
    "street": "403 S Colonial Dr ",
    "city": "Cleburne",
    "state": "TX",
    "zipCode": "76033-4618",
    "phone": "(817) 641-2288",
    "fax": "(817) 641-2426",
    "webSite": ""
  },
  {
    "name": "Gluski, Kenneth Steven",
    "street": "1025 25Th St ",
    "city": "Galveston",
    "state": "TX",
    "zipCode": "77550-4407",
    "phone": "(409) 765-9190",
    "fax": "(409) 766-1825",
    "webSite": ""
  },
  {
    "name": "Glitter Dental",
    "street": "1611 Spencer Hwy Suite H",
    "city": "South Houston",
    "state": "TX",
    "zipCode": "77587-3772",
    "phone": "(713) 782-1800",
    "fax": "(713) 782-1847",
    "webSite": ""
  },
  {
    "name": "Gmorgan Dental Pllc",
    "street": "1611 Spencer Hwy # H ",
    "city": "South Houston",
    "state": "TX",
    "zipCode": "77587-3772",
    "phone": "(713) 779-1800",
    "fax": "",
    "webSite": ""
  },
  {
    "name": "Usmile Dental",
    "street": "14039 Westheimer Rd ",
    "city": "Houston",
    "state": "TX",
    "zipCode": "77077-5360",
    "phone": "(713) 782-1800",
    "fax": "(713) 782-1847",
    "webSite": ""
  },
  {
    "name": "9Th Street Dental",
    "street": "301 S 9Th St 102",
    "city": "Richmond",
    "state": "TX",
    "zipCode": "77469-3448",
    "phone": "(832) 426-4201",
    "fax": "",
    "webSite": ""
  },
  {
    "name": "Floss Dental Care",
    "street": "8514 Bellaire Blvd ",
    "city": "Houston",
    "state": "TX",
    "zipCode": "77036-4704",
    "phone": "(713) 779-6900",
    "fax": "(713) 779-6900",
    "webSite": ""
  },
  {
    "name": "Gmorgan Dental Pllc",
    "street": "14039 Westheimer Rd ",
    "city": "Houston",
    "state": "TX",
    "zipCode": "77077-5360",
    "phone": "(713) 782-1800",
    "fax": "",
    "webSite": ""
  },
  {
    "name": "Dazzle Dental",
    "street": "11682 Southwest Fwy ",
    "city": "Houston",
    "state": "TX",
    "zipCode": "77031-3612",
    "phone": "(281) 564-8300",
    "fax": "(281) 564-8303",
    "webSite": ""
  },
  {
    "name": "Northside Dental",
    "street": "7825 Jensen Dr Ste E",
    "city": "Houston",
    "state": "TX",
    "zipCode": "77093-8249",
    "phone": "(832) 426-4201",
    "fax": "(832) 426-4201",
    "webSite": ""
  },
  {
    "name": "Gneiting, Devin Theodore",
    "street": "7124 Woodway Dr ",
    "city": "Waco",
    "state": "TX",
    "zipCode": "76712-6102",
    "phone": "(254) 753-0313",
    "fax": "(254) 753-0315",
    "webSite": ""
  },
  {
    "name": "Go Ehr, Llc",
    "street": "6861 Seacoast Dr ",
    "city": "Grand Prairie",
    "state": "TX",
    "zipCode": "75054-6828",
    "phone": "(817) 966-0648",
    "fax": "",
    "webSite": ""
  },
  {
    "name": "Goates, James B",
    "street": "1508 N Grandview Ave Suite 3",
    "city": "Odessa",
    "state": "TX",
    "zipCode": "79761-3000",
    "phone": "(432) 367-8907",
    "fax": "(432) 362-0949",
    "webSite": ""
  },
  {
    "name": "Gober, Ralston B",
    "street": "1115 W 2Nd Ave ",
    "city": "Corsicana",
    "state": "TX",
    "zipCode": "75110-3779",
    "phone": "(903) 872-1661",
    "fax": "(903) 872-1731",
    "webSite": ""
  },
  {
    "name": "Gochnour, Myra Lynn",
    "street": "710 Gaslight Blvd Suite C",
    "city": "Lufkin",
    "state": "TX",
    "zipCode": "75904-3153",
    "phone": "(936) 632-0077",
    "fax": "(936) 632-0079",
    "webSite": ""
  },
  {
    "name": "Godbold, Daniel Earl",
    "street": "204 S Cottonwood Dr Ste E ",
    "city": "Richardson",
    "state": "TX",
    "zipCode": "75080-5707",
    "phone": "(972) 680-3776",
    "fax": "(972) 680-2747",
    "webSite": ""
  },
  {
    "name": "Godbole, Sashank",
    "street": "6610 Seawall Blvd. ",
    "city": "Galveston",
    "state": "TX",
    "zipCode": "77551",
    "phone": "(817) 451-4740",
    "fax": "",
    "webSite": ""
  },
  {
    "name": "Godfrey, Amanda Lee",
    "street": "2919 S Georgia St ",
    "city": "Amarillo",
    "state": "TX",
    "zipCode": "79109-3436",
    "phone": "(806) 352-8381",
    "fax": "(806) 352-4429",
    "webSite": ""
  },
  {
    "name": "Godwin, Tracey Michelle",
    "street": "23800 Northwest Fwy 201",
    "city": "Cypress",
    "state": "TX",
    "zipCode": "77429-5747",
    "phone": "(281) 304-6337",
    "fax": "",
    "webSite": ""
  },
  {
    "name": "Goehring, Dennis P",
    "street": "3421 W William Cannon Dr Suite 141",
    "city": "Austin",
    "state": "TX",
    "zipCode": "78745-5000",
    "phone": "(512) 892-8822",
    "fax": "(512) 899-1290",
    "webSite": ""
  },
  {
    "name": "Goel, Avni Mahajan",
    "street": "9310 E Rl Thrtn Fwy Suite 100",
    "city": "Dallas",
    "state": "TX",
    "zipCode": "75228-6191",
    "phone": "(214) 660-8997",
    "fax": "(214) 660-0096",
    "webSite": ""
  },
  {
    "name": "Goel, Pragya",
    "street": "4817 San Dario Ave ",
    "city": "Laredo",
    "state": "TX",
    "zipCode": "78041",
    "phone": "(804) 253-1992",
    "fax": "",
    "webSite": ""
  },
  {
    "name": "Goff, George Vernon",
    "street": "2002 Holcombe Blvd Dental (160)",
    "city": "Houston",
    "state": "TX",
    "zipCode": "77030-4211",
    "phone": "(713) 791-1414",
    "fax": "",
    "webSite": ""
  },
  {
    "name": "Goff, Justin",
    "street": "20042 Eva St Ste 100 ",
    "city": "Montgomery",
    "state": "TX",
    "zipCode": "77356-2042",
    "phone": "(936) 206-7069",
    "fax": "",
    "webSite": ""
  },
  {
    "name": "Neo Dentistry",
    "street": "165 Elmhurst Ste A",
    "city": "Kyle",
    "state": "TX",
    "zipCode": "78640",
    "phone": "(956) 793-9683",
    "fax": "",
    "webSite": ""
  },
  {
    "name": "Gogineni, Harish",
    "street": "4403 Sherwood Way ",
    "city": "San Angelo",
    "state": "TX",
    "zipCode": "76901-5616",
    "phone": "(325) 340-1594",
    "fax": "",
    "webSite": ""
  },
  {
    "name": "Gokhale, Poonam A",
    "street": "5261 Mckinney Ranch Pkwy Ste # 400",
    "city": "Mckinney",
    "state": "TX",
    "zipCode": "75070-6831",
    "phone": "(214) 544-7645",
    "fax": "(972) 548-9368",
    "webSite": ""
  },
  {
    "name": "Golab, Jonathan J",
    "street": "3020 Broadmoor Ln Ste. 100",
    "city": "Flower Mound",
    "state": "TX",
    "zipCode": "75022-2703",
    "phone": "(972) 691-1700",
    "fax": "(972) 691-8269",
    "webSite": ""
  },
  {
    "name": "Gold Star Dental, Pllc",
    "street": "6605 Mccart Ave ",
    "city": "Fort Worth",
    "state": "TX",
    "zipCode": "76133-5633",
    "phone": "(817) 263-4653",
    "fax": "(817) 292-2628",
    "webSite": ""
  },
  {
    "name": "Golden Smile Dentists, Inc",
    "street": "13618 Bellaire Blvd Suite #E6",
    "city": "Houston",
    "state": "TX",
    "zipCode": "77083-1739",
    "phone": "(832) 212-3094",
    "fax": "",
    "webSite": ""
  },
  {
    "name": "Golden, Lauren Nicole",
    "street": "14626 Fm 2100 Rd Ste A ",
    "city": "Crosby",
    "state": "TX",
    "zipCode": "77532-9160",
    "phone": "(281) 328-3525",
    "fax": "",
    "webSite": ""
  },
  {
    "name": "Goldman, Elizabeth S",
    "street": "1575 Redbud Blvd Suite 103",
    "city": "Mckinney",
    "state": "TX",
    "zipCode": "75069-3226",
    "phone": "(214) 585-0268",
    "fax": "(214) 585-0284",
    "webSite": ""
  },
  {
    "name": "Goldsmith, Beverly Brooks",
    "street": "1500 W 38Th St Ste 37 ",
    "city": "Austin",
    "state": "TX",
    "zipCode": "78731-6318",
    "phone": "(512) 451-8256",
    "fax": "",
    "webSite": ""
  },
  {
    "name": "Goldston Dental Health Center, Pllc",
    "street": "301 S Mcgee St ",
    "city": "Borger",
    "state": "TX",
    "zipCode": "79007",
    "phone": "(806) 273-6451",
    "fax": "(806) 273-6456",
    "webSite": ""
  },
  {
    "name": "Goldston, Hugh Owen",
    "street": "301 S Mcgee St ",
    "city": "Borger",
    "state": "TX",
    "zipCode": "79007-4617",
    "phone": "(806) 273-6451",
    "fax": "(806) 273-6456",
    "webSite": ""
  },
  {
    "name": "Goldston, Shadid Hugh",
    "street": "301 S Mcgee St ",
    "city": "Borger",
    "state": "TX",
    "zipCode": "79007-4617",
    "phone": "(806) 273-6451",
    "fax": "(806) 273-6456",
    "webSite": ""
  },
  {
    "name": "Goliad Dental Care",
    "street": "317 S Market ",
    "city": "Goliad",
    "state": "TX",
    "zipCode": "77963",
    "phone": "(361) 645-2381",
    "fax": "(361) 645-3996",
    "webSite": ""
  },
  {
    "name": "Golshani, Sara Elizabeth",
    "street": "5329 Serene Hills Dr Ste 104 ",
    "city": "Lakeway",
    "state": "TX",
    "zipCode": "78738-1256",
    "phone": "(512) 334-0345",
    "fax": "",
    "webSite": ""
  },
  {
    "name": "Golshani, Zohreh",
    "street": "7906 Long Point Rd ",
    "city": "Houston",
    "state": "TX",
    "zipCode": "77055-3502",
    "phone": "(713) 467-4000",
    "fax": "",
    "webSite": ""
  },
  {
    "name": "Gomel, Barry",
    "street": "6300 West Loop S Ste 650 ",
    "city": "Bellaire",
    "state": "TX",
    "zipCode": "77401-2997",
    "phone": "(713) 663-7960",
    "fax": "",
    "webSite": ""
  },
  {
    "name": "Gomes, Andrew Shagor",
    "street": "1500 Research Forest Dr Ste 220 ",
    "city": "Shenandoah",
    "state": "TX",
    "zipCode": "77381-7300",
    "phone": "(281) 859-4624",
    "fax": "",
    "webSite": ""
  },
  {
    "name": "Gomez Dental Family Practice",
    "street": "902 Normandy St Ste 300 ",
    "city": "Houston",
    "state": "TX",
    "zipCode": "77015-4952",
    "phone": "(713) 453-9926",
    "fax": "(713) 453-9927",
    "webSite": ""
  },
  {
    "name": "Gomez Infante Romero, Iracema Karin E",
    "street": "310 W 19Th ",
    "city": "Houston",
    "state": "TX",
    "zipCode": "77008",
    "phone": "(713) 861-6250",
    "fax": "(713) 869-6414",
    "webSite": ""
  },
  {
    "name": "Gomez, David",
    "street": "7101 W Grand Pkwy S 160",
    "city": "Richmond",
    "state": "TX",
    "zipCode": "77407-8660",
    "phone": "(832) 222-0016",
    "fax": "(832) 201-7535",
    "webSite": ""
  },
  {
    "name": "Gomez, Gerzain Whitney",
    "street": "1320 Franklin Ave Albritton Dental Associates",
    "city": "Nederland",
    "state": "TX",
    "zipCode": "77627",
    "phone": "(409) 727-6453",
    "fax": "(409) 722-4322",
    "webSite": ""
  },
  {
    "name": "Gomez, Guillermo",
    "street": "7036 Antoine Dr ",
    "city": "Houston",
    "state": "TX",
    "zipCode": "77088-6613",
    "phone": "(281) 260-8999",
    "fax": "(281) 260-8866",
    "webSite": ""
  },
  {
    "name": "Gomez, Jaime Rafael",
    "street": "1778 S Walnut Ave ",
    "city": "New Braunfels",
    "state": "TX",
    "zipCode": "78130-1127",
    "phone": "(830) 626-1002",
    "fax": "",
    "webSite": ""
  },
  {
    "name": "Gomez, Ralser Archie",
    "street": "2180 W State Highway 46 Ste 106 ",
    "city": "New Braunfels",
    "state": "TX",
    "zipCode": "78132",
    "phone": "(830) 302-4181",
    "fax": "",
    "webSite": ""
  },
  {
    "name": "Gondi, Mahesh Babu",
    "street": "2440 N Josey Ln #103",
    "city": "Carrollton",
    "state": "TX",
    "zipCode": "75006-1668",
    "phone": "(972) 242-0696",
    "fax": "(972) 242-2399",
    "webSite": ""
  },
  {
    "name": "Gonuguntla Kamma, Praveen Kumar",
    "street": "3650 W Stan Schlueter Loop Ste 160 ",
    "city": "Killeen",
    "state": "TX",
    "zipCode": "76549-6814",
    "phone": "(254) 699-6000",
    "fax": "",
    "webSite": ""
  },
  {
    "name": "Gonzales, Cara Brigham",
    "street": "University Of Texas Hsc Dental School 7703 Floyd Curl Dr.",
    "city": "San Antonio",
    "state": "TX",
    "zipCode": "78229",
    "phone": "(210) 567-3333",
    "fax": "(210) 567-3334",
    "webSite": ""
  },
  {
    "name": "Gonzales, David Lloyd",
    "street": "1712 Houston Blvd Suite # 2",
    "city": "South Houston",
    "state": "TX",
    "zipCode": "77587-4517",
    "phone": "(713) 947-8510",
    "fax": "(713) 947-3218",
    "webSite": ""
  },
  {
    "name": "Gonzales, Kenneth",
    "street": "5314 Everhart Rd ",
    "city": "Corpus Christi",
    "state": "TX",
    "zipCode": "78411",
    "phone": "(361) 992-2421",
    "fax": "(361) 992-6427",
    "webSite": ""
  },
  {
    "name": "Gonzales, Manuel Sylvester",
    "street": "4010 Sandy Brook Ste 104",
    "city": "Round Rock",
    "state": "TX",
    "zipCode": "78665",
    "phone": "(512) 501-4020",
    "fax": "(512) 501-4021",
    "webSite": ""
  },
  {
    "name": "Gonzales, Stacy Ricardo",
    "street": "10216 Beechnut St. ",
    "city": "Houston",
    "state": "TX",
    "zipCode": "77072-5016",
    "phone": "(281) 530-1900",
    "fax": "(281) 530-1901",
    "webSite": ""
  },
  {
    "name": "Gonzales, Willie Rodriguez",
    "street": "26219 Interstate 45 ",
    "city": "The Woodlands",
    "state": "TX",
    "zipCode": "77380-1903",
    "phone": "(281) 367-3685",
    "fax": "",
    "webSite": ""
  },
  {
    "name": "Gonzalez Angeli, Tito A",
    "street": "6300 West Loop S Suite 650",
    "city": "Bellaire",
    "state": "TX",
    "zipCode": "77401-2900",
    "phone": "(713) 663-7960",
    "fax": "",
    "webSite": ""
  },
  {
    "name": "Gonzalez Dentistry, Inc",
    "street": "321 Main St ",
    "city": "Teague",
    "state": "TX",
    "zipCode": "75860-1621",
    "phone": "(254) 739-2533",
    "fax": "(254) 739-2534",
    "webSite": ""
  },
  {
    "name": "Gonzalez, Alejandro",
    "street": "10965 Ben Crenshaw Dr Bldg 4B ",
    "city": "El Paso",
    "state": "TX",
    "zipCode": "79935-3021",
    "phone": "(915) 594-1957",
    "fax": "(915) 593-3423",
    "webSite": ""
  },
  {
    "name": "Gonzalez, Alicia G.",
    "street": "614 S Business Loop Ih 35 Suite B",
    "city": "New Braunfels",
    "state": "TX",
    "zipCode": "78130-4741",
    "phone": "(830) 625-4121",
    "fax": "",
    "webSite": ""
  },
  {
    "name": "Gonzalez, Angel",
    "street": "101 Decker Dr Building 200, Suite 260",
    "city": "Irving",
    "state": "TX",
    "zipCode": "75062",
    "phone": "(972) 717-0660",
    "fax": "",
    "webSite": ""
  },
  {
    "name": "Gonzalez, Angela Eloina",
    "street": "251 Medical Center Blvd Suite 220",
    "city": "Webster",
    "state": "TX",
    "zipCode": "77598-4242",
    "phone": "(281) 316-8900",
    "fax": "(281) 316-8945",
    "webSite": ""
  },
  {
    "name": "Gonzalez, Anthony Benjamin",
    "street": "13725 Northwest Blvd Ste 220 ",
    "city": "Corpus Christi",
    "state": "TX",
    "zipCode": "78410-3745",
    "phone": "(361) 387-1507",
    "fax": "(361) 387-2470",
    "webSite": ""
  },
  {
    "name": "Gonzalez, Cesar Oscar",
    "street": "20122 Stone Oak Pkwy Ste 101 ",
    "city": "San Antonio",
    "state": "TX",
    "zipCode": "78258-7041",
    "phone": "(210) 495-2000",
    "fax": "",
    "webSite": ""
  },
  {
    "name": "Gonzalez, Christina Cecilia",
    "street": "916 Coronado Blvd ",
    "city": "Universal City",
    "state": "TX",
    "zipCode": "78148-3226",
    "phone": "(210) 598-5321",
    "fax": "",
    "webSite": ""
  },
  {
    "name": "Gonzalez, Christina Pena",
    "street": "3030 Lbj Ste 1400 ",
    "city": "Dallas",
    "state": "TX",
    "zipCode": "75234-2766",
    "phone": "(972) 444-8888",
    "fax": "",
    "webSite": ""
  },
  {
    "name": "Gonzalez, David",
    "street": "8470 Gulf Fwy ",
    "city": "Houston",
    "state": "TX",
    "zipCode": "77017-5094",
    "phone": "(713) 644-0234",
    "fax": "(713) 644-0767",
    "webSite": ""
  },
  {
    "name": "Gonzalez, Demetrio M",
    "street": "345 Ohio Ave ",
    "city": "Corpus Christi",
    "state": "TX",
    "zipCode": "78404-1724",
    "phone": "(361) 658-9927",
    "fax": "",
    "webSite": ""
  },
  {
    "name": "Gonzalez, Edgardo",
    "street": "1218 Sw Military Dr ",
    "city": "San Antonio",
    "state": "TX",
    "zipCode": "78221-1535",
    "phone": "(210) 927-1000",
    "fax": "",
    "webSite": ""
  },
  {
    "name": "Gonzalez, Elizabeth",
    "street": "7013 S. Cage Ste A ",
    "city": "Pharr",
    "state": "TX",
    "zipCode": "78577",
    "phone": "(956) 787-3333",
    "fax": "",
    "webSite": ""
  },
  {
    "name": "Gonzalez, Federico",
    "street": "901 Roberts Cut Off Rd ",
    "city": "River Oaks",
    "state": "TX",
    "zipCode": "76114-2825",
    "phone": "(817) 738-4141",
    "fax": "(817) 766-7023",
    "webSite": ""
  },
  {
    "name": "Gonzalez, Heather Lynn",
    "street": "6334 Fm 2920 Rd Ste 250 ",
    "city": "Spring",
    "state": "TX",
    "zipCode": "77379-3473",
    "phone": "(281) 655-9175",
    "fax": "",
    "webSite": ""
  },
  {
    "name": "Gonzalez, Iven",
    "street": "11240 Montwood Dr Ste J ",
    "city": "El Paso",
    "state": "TX",
    "zipCode": "79936-4248",
    "phone": "(915) 201-2539",
    "fax": "(915) 613-5082",
    "webSite": ""
  },
  {
    "name": "Gonzalez, Jesse James",
    "street": "2401 Commerce St ",
    "city": "Amarillo",
    "state": "TX",
    "zipCode": "79109-1513",
    "phone": "(806) 358-7633",
    "fax": "",
    "webSite": ""
  },
  {
    "name": "Gonzalez, Jorge R",
    "street": "1301 E Us Highway 83 ",
    "city": "Mcallen",
    "state": "TX",
    "zipCode": "78501",
    "phone": "(956) 994-0349",
    "fax": "(956) 994-0988",
    "webSite": ""
  },
  {
    "name": "Gonzalez, Jose Alberto",
    "street": "321 S 13Th St ",
    "city": "Harlingen",
    "state": "TX",
    "zipCode": "78550-7117",
    "phone": "(956) 428-1889",
    "fax": "",
    "webSite": ""
  },
  {
    "name": "Gonzalez, Jose Fernando",
    "street": "817 W Jefferson Blvd ",
    "city": "Dallas",
    "state": "TX",
    "zipCode": "75208-4924",
    "phone": "(214) 941-5777",
    "fax": "(214) 941-5131",
    "webSite": ""
  },
  {
    "name": "Gonzalez, Jose Manuel",
    "street": "6801 Mcpherson Rd Suite 225",
    "city": "Laredo",
    "state": "TX",
    "zipCode": "78041-6402",
    "phone": "(956) 726-9975",
    "fax": "(956) 726-9979",
    "webSite": ""
  },
  {
    "name": "Gonzalez, Juan M.",
    "street": "1806 Mcrae Blvd ",
    "city": "El Paso",
    "state": "TX",
    "zipCode": "79925-6706",
    "phone": "(915) 591-7117",
    "fax": "(915) 598-8170",
    "webSite": ""
  },
  {
    "name": "Gonzalez, Maritza Ann",
    "street": "3655 Fredricksburg Rd Ste 112 ",
    "city": "San Antonio",
    "state": "TX",
    "zipCode": "78201-3859",
    "phone": "(210) 773-9990",
    "fax": "(210) 733-1878",
    "webSite": ""
  },
  {
    "name": "Gonzalez, Martin",
    "street": "2401 S Stemmons Fwy #1258",
    "city": "Lewisville",
    "state": "TX",
    "zipCode": "75067-8775",
    "phone": "(214) 221-4867",
    "fax": "",
    "webSite": ""
  },
  {
    "name": "Gonzalez, Michael",
    "street": "9601 Jones Rd Ste 220 ",
    "city": "Houston",
    "state": "TX",
    "zipCode": "77065-4778",
    "phone": "(281) 469-0838",
    "fax": "(281) 469-0512",
    "webSite": ""
  },
  {
    "name": "Gonzalez, Nathan Tyler",
    "street": "770 Road To Six Flags St E Ste. 174",
    "city": "Arlington",
    "state": "TX",
    "zipCode": "76011-8408",
    "phone": "(817) 277-7800",
    "fax": "",
    "webSite": ""
  },
  {
    "name": "Gonzalez-Nieto, Gustavo Alberto",
    "street": "109 N 4Th Ave ",
    "city": "Teague",
    "state": "TX",
    "zipCode": "75860-1601",
    "phone": "(254) 739-2533",
    "fax": "(254) 739-2534",
    "webSite": ""
  },
  {
    "name": "Gonzaleztorres, Karen Enid",
    "street": "3551 Roger Brooke Dr ",
    "city": "Jbsa Ft Sam Houston",
    "state": "TX",
    "zipCode": "78234-4504",
    "phone": "(210) 916-2549",
    "fax": "",
    "webSite": ""
  },
  {
    "name": "Good Shepherd Dental Clinic Inc",
    "street": "6220 Dashwood Dr ",
    "city": "Houston",
    "state": "TX",
    "zipCode": "77081-4214",
    "phone": "(713) 771-8883",
    "fax": "(713) 771-9993",
    "webSite": ""
  },
  {
    "name": "Goodell, Kurt",
    "street": "3145 Garden Ave ",
    "city": "Fort Sam Houston",
    "state": "TX",
    "zipCode": "78234-7718",
    "phone": "(210) 808-3637",
    "fax": "",
    "webSite": ""
  },
  {
    "name": "Goodman Family Dental",
    "street": "8204 Pat Booker Rd ",
    "city": "Live Oak",
    "state": "TX",
    "zipCode": "78233-2440",
    "phone": "(210) 654-9094",
    "fax": "",
    "webSite": ""
  },
  {
    "name": "Goodman, Natalie Elizabeth",
    "street": "297 W Round Grove Rd Suite 127",
    "city": "Lewisville",
    "state": "TX",
    "zipCode": "75067-8104",
    "phone": "(214) 488-5505",
    "fax": "(214) 488-0500",
    "webSite": ""
  },
  {
    "name": "Goodman, Reginald Alvin",
    "street": "175 Lee St ",
    "city": "Lumberton",
    "state": "TX",
    "zipCode": "77657-7577",
    "phone": "(409) 755-6565",
    "fax": "",
    "webSite": ""
  },
  {
    "name": "Goodowitz, Wayne",
    "street": "1200 Coit Rd ",
    "city": "Plano",
    "state": "TX",
    "zipCode": "75075-4750",
    "phone": "(972) 596-3702",
    "fax": "",
    "webSite": ""
  },
  {
    "name": "Goodson, Catharine Cecilia",
    "street": "2121 W Main St Ste B ",
    "city": "League City",
    "state": "TX",
    "zipCode": "77573-3431",
    "phone": "(281) 332-2789",
    "fax": "(281) 332-2789",
    "webSite": ""
  },
  {
    "name": "Goodwin, Robert Duane",
    "street": "3004 Coggin Ave ",
    "city": "Brownwood",
    "state": "TX",
    "zipCode": "76801-6005",
    "phone": "(325) 646-3755",
    "fax": "(325) 646-7074",
    "webSite": ""
  },
  {
    "name": "Goodwin, Will Harlan",
    "street": "709 N Fm 1187 600",
    "city": "Aledo",
    "state": "TX",
    "zipCode": "76008-4338",
    "phone": "(682) 214-8490",
    "fax": "",
    "webSite": ""
  },
  {
    "name": "Goodwin, Wingett Harley",
    "street": "214 E Main St ",
    "city": "San Augustine",
    "state": "TX",
    "zipCode": "75972-2032",
    "phone": "(936) 275-3101",
    "fax": "(936) 275-1551",
    "webSite": ""
  },
  {
    "name": "Goodyear, Gary Lamar",
    "street": "841 Keller Pkwy #203 ",
    "city": "Keller",
    "state": "TX",
    "zipCode": "76248",
    "phone": "(817) 741-7000",
    "fax": "(817) 745-1100",
    "webSite": ""
  },
  {
    "name": "Gopalakrishnan, Sanjeev K",
    "street": "1432 Austin Hwy Ste 107 ",
    "city": "San Antonio",
    "state": "TX",
    "zipCode": "78209-4903",
    "phone": "(210) 822-5747",
    "fax": "(210) 822-2738",
    "webSite": ""
  },
  {
    "name": "Gor, Gregory Kevin",
    "street": "14881 Southwest Fwy # A-102",
    "city": "Sugar Land",
    "state": "TX",
    "zipCode": "77478-5016",
    "phone": "(281) 240-2545",
    "fax": "(281) 240-2544",
    "webSite": ""
  },
  {
    "name": "Gordon Lindsey, Donna",
    "street": "5540 Old Jacksonville Hwy ",
    "city": "Tyler",
    "state": "TX",
    "zipCode": "75703-2263",
    "phone": "(903) 597-2121",
    "fax": "(903) 581-7776",
    "webSite": ""
  },
  {
    "name": "Gordon, David J",
    "street": "300 West Ave Suite 1312",
    "city": "Austin",
    "state": "TX",
    "zipCode": "78701-3840",
    "phone": "(512) 708-8900",
    "fax": "(512) 494-8088",
    "webSite": ""
  },
  {
    "name": "Gordon, David Robert",
    "street": "2508 Bay Area Blvd Suite #200",
    "city": "Houston",
    "state": "TX",
    "zipCode": "77058-1531",
    "phone": "(281) 486-8142",
    "fax": "(281) 486-9806",
    "webSite": ""
  },
  {
    "name": "Gordon, Jonathan",
    "street": "1250 Garth Rd ",
    "city": "Baytown",
    "state": "TX",
    "zipCode": "77520-2423",
    "phone": "(832) 572-5820",
    "fax": "",
    "webSite": ""
  },
  {
    "name": "Gordon, Leo Dan",
    "street": "503 E Main St ",
    "city": "Weimar",
    "state": "TX",
    "zipCode": "78962",
    "phone": "(979) 725-8562",
    "fax": "(979) 725-6822",
    "webSite": ""
  },
  {
    "name": "Gordon, Lynn",
    "street": "2846 Thousand Oaks Dr ",
    "city": "San Antonio",
    "state": "TX",
    "zipCode": "78232-4193",
    "phone": "(210) 490-1131",
    "fax": "",
    "webSite": ""
  },
  {
    "name": "Gordon, Megan Helga",
    "street": "742 Fm 712 ",
    "city": "Marlin",
    "state": "TX",
    "zipCode": "76661-4685",
    "phone": "(254) 883-5561",
    "fax": "",
    "webSite": ""
  },
  {
    "name": "Gordon, Nyla Evelyn",
    "street": "143 E Price Rd ",
    "city": "Brownsville",
    "state": "TX",
    "zipCode": "78521-3527",
    "phone": "(956) 546-1161",
    "fax": "",
    "webSite": ""
  },
  {
    "name": "Gordon, Wendell Travis",
    "street": "2409 Falcon Pass #150",
    "city": "Houston",
    "state": "TX",
    "zipCode": "77062",
    "phone": "(281) 286-3343",
    "fax": "",
    "webSite": ""
  },
  {
    "name": "Gore, Richard L.",
    "street": "4601 Buffalo Gap Rd Ste C4 ",
    "city": "Abilene",
    "state": "TX",
    "zipCode": "79606-3363",
    "phone": "(325) 692-2423",
    "fax": "(325) 692-2076",
    "webSite": ""
  },
  {
    "name": "Gorena, Kassandra",
    "street": "9234 N Loop 1604 W ",
    "city": "San Antonio",
    "state": "TX",
    "zipCode": "78249-2983",
    "phone": "(210) 681-1121",
    "fax": "",
    "webSite": ""
  },
  {
    "name": "Gorham, J. Chris",
    "street": "2000 Ih 35 S Suite K-1",
    "city": "Round Rock",
    "state": "TX",
    "zipCode": "78681-6900",
    "phone": "(512) 255-7839",
    "fax": "",
    "webSite": ""
  },
  {
    "name": "Gorhum, Robert J",
    "street": "310 S Oak St ",
    "city": "Pearsall",
    "state": "TX",
    "zipCode": "78061-3118",
    "phone": "(830) 334-4181",
    "fax": "(830) 334-2621",
    "webSite": ""
  },
  {
    "name": "Gorr, Tiffany Rose",
    "street": "1210 W Braker Ln ",
    "city": "Austin",
    "state": "TX",
    "zipCode": "78758-3801",
    "phone": "(512) 978-9880",
    "fax": "(512) 279-2556",
    "webSite": ""
  },
  {
    "name": "Gorugantula, Lakshmi Mitreyi",
    "street": "13115 Josey Ln ",
    "city": "Farmers Branch",
    "state": "TX",
    "zipCode": "75234-6350",
    "phone": "(972) 243-7171",
    "fax": "",
    "webSite": ""
  },
  {
    "name": "Goshimea, Dawit",
    "street": "1336 N Galloway Ave Ste 110 ",
    "city": "Mesquite",
    "state": "TX",
    "zipCode": "75149-2490",
    "phone": "(469) 440-8890",
    "fax": "",
    "webSite": ""
  },
  {
    "name": "Gosnell, Alexandra",
    "street": "3111 Tpc Pkwy Ste 114 ",
    "city": "San Antonio",
    "state": "TX",
    "zipCode": "78259-2398",
    "phone": "(210) 424-3611",
    "fax": "",
    "webSite": ""
  },
  {
    "name": "Gosnell, Josh W",
    "street": "616 W Main ",
    "city": "Tomball",
    "state": "TX",
    "zipCode": "77375",
    "phone": "(281) 290-8000",
    "fax": "(281) 516-2397",
    "webSite": ""
  },
  {
    "name": "Gosney, Kirsten Michelle",
    "street": "3405 Oaklawn Dr ",
    "city": "Temple",
    "state": "TX",
    "zipCode": "76502-2329",
    "phone": "(512) 653-1200",
    "fax": "",
    "webSite": ""
  },
  {
    "name": "Goss, Casey Danielle",
    "street": "2133 Pepperrell St ",
    "city": "Lackland Afb",
    "state": "TX",
    "zipCode": "78236-5313",
    "phone": "(210) 292-0123",
    "fax": "",
    "webSite": ""
  },
  {
    "name": "Goss, Erica Coe",
    "street": "2200 Kell Blvd. ",
    "city": "Wichita Falls",
    "state": "TX",
    "zipCode": "76309",
    "phone": "(940) 322-2252",
    "fax": "(940) 322-7090",
    "webSite": ""
  },
  {
    "name": "Goss, William Chisolm",
    "street": "1162 E Sonterra Blvd Suite 300",
    "city": "San Antonio",
    "state": "TX",
    "zipCode": "78258-4047",
    "phone": "(210) 494-3589",
    "fax": "",
    "webSite": ""
  },
  {
    "name": "Gossett, C J",
    "street": "2409 Yorkstown Dr ",
    "city": "Ennis",
    "state": "TX",
    "zipCode": "75119",
    "phone": "(972) 875-3400",
    "fax": "(972) 875-4020",
    "webSite": ""
  },
  {
    "name": "Gotbeter, Moises",
    "street": "925 South Main St. #8 ",
    "city": "Anthony",
    "state": "TX",
    "zipCode": "79821",
    "phone": "(915) 886-2555",
    "fax": "(915) 886-2555",
    "webSite": ""
  },
  {
    "name": "Gotcher, Corby Weldon",
    "street": "135 Oyster Creek Dr Suite T",
    "city": "Lake Jackson",
    "state": "TX",
    "zipCode": "77566-4183",
    "phone": "(979) 297-2200",
    "fax": "(979) 297-5954",
    "webSite": ""
  },
  {
    "name": "Gott, Karen Lytle",
    "street": "2485 S Main St ",
    "city": "Lindale",
    "state": "TX",
    "zipCode": "75771-7704",
    "phone": "(903) 882-3411",
    "fax": "(903) 882-3394",
    "webSite": ""
  },
  {
    "name": "Gottam, Suguna",
    "street": "8849 N Tarrant Pkwy Suite 105",
    "city": "North Richland Hills",
    "state": "TX",
    "zipCode": "76182-7695",
    "phone": "(858) 231-0299",
    "fax": "",
    "webSite": ""
  },
  {
    "name": "Gottigerenarasimhamurthy, Ashadevi",
    "street": "2001 S Glenbrook Dr ",
    "city": "Garland",
    "state": "TX",
    "zipCode": "75041-1712",
    "phone": "(847) 229-1700",
    "fax": "",
    "webSite": ""
  },
  {
    "name": "Gottwald, Donna Jane",
    "street": "12740 Bandera Rd ",
    "city": "Helotes",
    "state": "TX",
    "zipCode": "78023-4327",
    "phone": "(210) 695-1200",
    "fax": "(210) 695-1370",
    "webSite": ""
  },
  {
    "name": "Gotun, Tor",
    "street": "2724 Bee Cave Rd ",
    "city": "Austin",
    "state": "TX",
    "zipCode": "78746-5642",
    "phone": "(512) 329-5555",
    "fax": "(512) 329-9049",
    "webSite": ""
  },
  {
    "name": "Gould, Stephen Charles",
    "street": "2040 North Loop W # 100",
    "city": "Houston",
    "state": "TX",
    "zipCode": "77018-8127",
    "phone": "(713) 683-6655",
    "fax": "(713) 683-6680",
    "webSite": ""
  },
  {
    "name": "Goulding, Michael Joseph",
    "street": "3600 Hulen St Ste D3",
    "city": "Fort Worth",
    "state": "TX",
    "zipCode": "76107-6872",
    "phone": "(817) 737-3536",
    "fax": "(817) 737-3689",
    "webSite": ""
  },
  {
    "name": "Goutareddy, Snigda",
    "street": "8535 W Bellfort St Ste 110 ",
    "city": "Houston",
    "state": "TX",
    "zipCode": "77071-2264",
    "phone": "(713) 777-8999",
    "fax": "",
    "webSite": ""
  },
  {
    "name": "Govindaiah, Sirisha",
    "street": "1080 Fm 3009 ",
    "city": "Schertz",
    "state": "TX",
    "zipCode": "78154-2726",
    "phone": "(210) 659-7884",
    "fax": "",
    "webSite": ""
  },
  {
    "name": "Govindarajan, Sujatha",
    "street": "1420 W. Mockinbird Lane Suite 500",
    "city": "Dallas",
    "state": "TX",
    "zipCode": "75247",
    "phone": "(214) 630-7080",
    "fax": "(214) 630-7085",
    "webSite": ""
  },
  {
    "name": "Gowali, Radhika",
    "street": "4179 Dowlen Rd None",
    "city": "Beaumont",
    "state": "TX",
    "zipCode": "77706-6852",
    "phone": "(409) 899-4867",
    "fax": "(409) 899-4868",
    "webSite": ""
  },
  {
    "name": "Gowan, J. Chris",
    "street": "4600 Post Oak Place Dr Suite 102",
    "city": "Houston",
    "state": "TX",
    "zipCode": "77027-9700",
    "phone": "(713) 840-7179",
    "fax": "(713) 840-7815",
    "webSite": ""
  },
  {
    "name": "Gowda, Vanitha",
    "street": "2160 N Coit Rd #140",
    "city": "Richardson",
    "state": "TX",
    "zipCode": "75080-2287",
    "phone": "(214) 570-9993",
    "fax": "(214) 570-9750",
    "webSite": ""
  },
  {
    "name": "Gowdara Srinivasa Reddy, Shanthala",
    "street": "3720 Call Field Rd Ste 100 ",
    "city": "Wichita Falls",
    "state": "TX",
    "zipCode": "76308-2766",
    "phone": "(940) 202-0670",
    "fax": "",
    "webSite": ""
  },
  {
    "name": "Gowin, Sara Huizinga",
    "street": "1144 Airport Blvd 240",
    "city": "Austin",
    "state": "TX",
    "zipCode": "78702-3163",
    "phone": "(512) 929-7888",
    "fax": "(512) 929-8091",
    "webSite": ""
  },
  {
    "name": "Goyal, Jasmeen",
    "street": "2830 N Beach St Suite H",
    "city": "Haltom City",
    "state": "TX",
    "zipCode": "76111-6246",
    "phone": "(817) 710-6203",
    "fax": "",
    "webSite": ""
  },
  {
    "name": "Goza, Brandon Nicholas",
    "street": "Building 4431 68Th Street ",
    "city": "Fort Hood",
    "state": "TX",
    "zipCode": "76544",
    "phone": "(254) 287-2938",
    "fax": "",
    "webSite": ""
  },
  {
    "name": "Krest Dental",
    "street": "117 N Belt Line Rd ",
    "city": "Grand Prairie",
    "state": "TX",
    "zipCode": "75050-5800",
    "phone": "(972) 262-1395",
    "fax": "(972) 262-1397",
    "webSite": ""
  },
  {
    "name": "Connect Dental Specialists",
    "street": "2902 N Shepherd Dr Suite C",
    "city": "Houston",
    "state": "TX",
    "zipCode": "77008-2293",
    "phone": "(713) 230-8350",
    "fax": "(713) 574-2956",
    "webSite": ""
  },
  {
    "name": "Gr8 Smiles Pllc",
    "street": "501 East State. Rd. 114",
    "city": "Leveland",
    "state": "TX",
    "zipCode": "79336",
    "phone": "(423) 946-9375",
    "fax": "",
    "webSite": ""
  },
  {
    "name": "Gr8 Smiles-Levelland Pllc",
    "street": "501 E State Road 114 Ste 122 ",
    "city": "Levelland",
    "state": "TX",
    "zipCode": "79336-2653",
    "phone": "(806) 897-0010",
    "fax": "(806) 897-2594",
    "webSite": ""
  },
  {
    "name": "Graciela Rodriguez Dds Pa",
    "street": "15634 Wallisville Rd Suite 900",
    "city": "Houston",
    "state": "TX",
    "zipCode": "77049-4635",
    "phone": "(713) 968-9842",
    "fax": "(504) 617-6430",
    "webSite": ""
  },
  {
    "name": "Grady, Kimberly",
    "street": "1100 Wilford Hall Loop Bldg 4554 Attn 59 Mdw/Sghc",
    "city": "Jbsa Lackland",
    "state": "TX",
    "zipCode": "78236-9908",
    "phone": "(210) 292-6255",
    "fax": "",
    "webSite": ""
  },
  {
    "name": "Graham Family Dentistry",
    "street": "2130 Ne Loop 410 Ste. 225",
    "city": "San Antonio",
    "state": "TX",
    "zipCode": "78217-4659",
    "phone": "(210) 654-9383",
    "fax": "(210) 654-0570",
    "webSite": ""
  },
  {
    "name": "Graham, Robert Wesley",
    "street": "2130 Ne Loop 410 Suite 225",
    "city": "San Antonio",
    "state": "TX",
    "zipCode": "78217-4659",
    "phone": "(210) 654-9383",
    "fax": "(210) 654-0570",
    "webSite": ""
  },
  {
    "name": "Graham, Stephen Lee",
    "street": "8762 Long Point #102",
    "city": "Houston",
    "state": "TX",
    "zipCode": "77055",
    "phone": "(713) 468-1400",
    "fax": "(713) 468-8146",
    "webSite": ""
  },
  {
    "name": "Grainge, Edwin L",
    "street": "4242 E Southcross #9",
    "city": "San Antonio",
    "state": "TX",
    "zipCode": "78222-3728",
    "phone": "(210) 333-4421",
    "fax": "(210) 333-4521",
    "webSite": ""
  },
  {
    "name": "Grammer, Robert Turpin",
    "street": "351 E Hildebrand Ave ",
    "city": "San Antonio",
    "state": "TX",
    "zipCode": "78212-2412",
    "phone": "(210) 824-2303",
    "fax": "(210) 824-6612",
    "webSite": ""
  },
  {
    "name": "Granato, Nicole",
    "street": "7272 Wurzbach Rd Ste 1004 ",
    "city": "San Antonio",
    "state": "TX",
    "zipCode": "78240-4804",
    "phone": "(210) 615-2319",
    "fax": "",
    "webSite": ""
  },
  {
    "name": "Granberry, James Curtis",
    "street": "3883 Southwest Fwy ",
    "city": "Houston",
    "state": "TX",
    "zipCode": "77027-7515",
    "phone": "(713) 629-0900",
    "fax": "(713) 629-4990",
    "webSite": ""
  },
  {
    "name": "Grand Lakes Dental Group And Orthodontics",
    "street": "6501 South Fry Road Suite 800",
    "city": "Katy",
    "state": "TX",
    "zipCode": "77494",
    "phone": "(281) 574-5005",
    "fax": "(281) 574-5085",
    "webSite": ""
  },
  {
    "name": "Grand Parkway Smiles",
    "street": "7101 W Grand Pkwy S ",
    "city": "Richmond",
    "state": "TX",
    "zipCode": "77407-8660",
    "phone": "(832) 222-0016",
    "fax": "(832) 201-7535",
    "webSite": ""
  },
  {
    "name": "Grand Prairie Family Dental",
    "street": "2475 W Pioneer Pkwy ",
    "city": "Grand Prairie",
    "state": "TX",
    "zipCode": "75051-3527",
    "phone": "(972) 988-0900",
    "fax": "(972) 660-1167",
    "webSite": ""
  },
  {
    "name": "Grand Trails Dental",
    "street": "28533 Spring Trails Rdg Suite 250",
    "city": "Spring",
    "state": "TX",
    "zipCode": "77386-4355",
    "phone": "(832) 616-8822",
    "fax": "",
    "webSite": ""
  },
  {
    "name": "Grandbury Dental , Pllc",
    "street": "708 Paluxy Rd ",
    "city": "Granbury",
    "state": "TX",
    "zipCode": "76048-2396",
    "phone": "(817) 573-4600",
    "fax": "",
    "webSite": ""
  },
  {
    "name": "Granger, Lekeba Tier",
    "street": "1553 Fm 685 Ste 400 ",
    "city": "Pflugerville",
    "state": "TX",
    "zipCode": "78660-3686",
    "phone": "(512) 989-3330",
    "fax": "",
    "webSite": ""
  },
  {
    "name": "Grangerland Dental Pllc",
    "street": "14756 Fm 1485 Rd ",
    "city": "Conroe",
    "state": "TX",
    "zipCode": "77306-8959",
    "phone": "(713) 248-8780",
    "fax": "(682) 222-1093",
    "webSite": ""
  },
  {
    "name": "Grant, Jennifer Erin",
    "street": "1601 Lake Success Dr ",
    "city": "Waco",
    "state": "TX",
    "zipCode": "76710-2908",
    "phone": "(254) 235-4986",
    "fax": "(254) 235-5023",
    "webSite": ""
  },
  {
    "name": "Grant, Mark Cullen",
    "street": "4613 W Orem Dr ",
    "city": "Houston",
    "state": "TX",
    "zipCode": "77045-4107",
    "phone": "(713) 433-4333",
    "fax": "",
    "webSite": ""
  },
  {
    "name": "Grant, Nicole Reyes",
    "street": "1830 E Broad St Ste 100 ",
    "city": "Mansfield",
    "state": "TX",
    "zipCode": "76063-9161",
    "phone": "(817) 477-4441",
    "fax": "",
    "webSite": ""
  },
  {
    "name": "Grant, Roman",
    "street": "703 S Goliad St ",
    "city": "Rockwall",
    "state": "TX",
    "zipCode": "75087-3935",
    "phone": "(972) 771-9131",
    "fax": "",
    "webSite": ""
  },
  {
    "name": "Grantham, Joshua N",
    "street": "3600 E Mckinney St Ste 190 ",
    "city": "Denton",
    "state": "TX",
    "zipCode": "76209-6543",
    "phone": "(940) 220-7016",
    "fax": "",
    "webSite": ""
  },
  {
    "name": "Grapevine Kids Pllc",
    "street": "1230 S Main St ",
    "city": "Grapevine",
    "state": "TX",
    "zipCode": "76051-5544",
    "phone": "(972) 258-0758",
    "fax": "",
    "webSite": ""
  },
  {
    "name": "Grapevine Smiles Pllc",
    "street": "2700 William D Tate Ave Ste 100 ",
    "city": "Grapevine",
    "state": "TX",
    "zipCode": "76051-4346",
    "phone": "(817) 281-3444",
    "fax": "",
    "webSite": ""
  },
  {
    "name": "Grapevine, Jacob Lynn",
    "street": "1200 Coit Rd Ste 100 ",
    "city": "Plano",
    "state": "TX",
    "zipCode": "75075-7756",
    "phone": "(210) 601-4980",
    "fax": "",
    "webSite": ""
  },
  {
    "name": "Gras, Harold Richard",
    "street": "4718 Ingersoll St ",
    "city": "Houston",
    "state": "TX",
    "zipCode": "77027-6602",
    "phone": "(713) 965-9666",
    "fax": "(713) 621-0335",
    "webSite": ""
  },
  {
    "name": "Grasso, Robert",
    "street": "1100 Wilford Hall Loop, Bldg 4554 Attn: 59 Mdw/Sghc",
    "city": "Jbsa-Lackland",
    "state": "TX",
    "zipCode": "78236-9908",
    "phone": "(210) 292-6225",
    "fax": "",
    "webSite": ""
  },
  {
    "name": "Grave, Gregory Alan",
    "street": "5800 Coit Rd Suite 100",
    "city": "Plano",
    "state": "TX",
    "zipCode": "75023-5942",
    "phone": "(972) 758-5300",
    "fax": "(469) 241-0446",
    "webSite": ""
  },
  {
    "name": "Graves, Brian Taylor",
    "street": "401 Oak St ",
    "city": "Graham",
    "state": "TX",
    "zipCode": "76450-2521",
    "phone": "(940) 549-2183",
    "fax": "",
    "webSite": ""
  },
  {
    "name": "Graves, Cody C.",
    "street": "1318 Fisher Street ",
    "city": "Goldthwaite",
    "state": "TX",
    "zipCode": "76844",
    "phone": "(325) 648-2251",
    "fax": "(325) 648-2271",
    "webSite": ""
  },
  {
    "name": "Graves, Cynthia Lynne",
    "street": "10418 Lake Creek Pkwy ",
    "city": "Austin",
    "state": "TX",
    "zipCode": "78750-1226",
    "phone": "(512) 258-8001",
    "fax": "(512) 258-4106",
    "webSite": ""
  },
  {
    "name": "Graves, De Shaunda Tamita",
    "street": "9413 Glenfield Ct ",
    "city": "Houston",
    "state": "TX",
    "zipCode": "77096-3817",
    "phone": "(713) 283-5210",
    "fax": "(713) 283-5488",
    "webSite": ""
  },
  {
    "name": "Graves, John Judson",
    "street": "402 E Austin St ",
    "city": "Kermit",
    "state": "TX",
    "zipCode": "79745-3222",
    "phone": "(432) 586-2911",
    "fax": "",
    "webSite": ""
  },
  {
    "name": "Graves, Morris Russell",
    "street": "9411 Alameda Ave Ste P",
    "city": "El Paso",
    "state": "TX",
    "zipCode": "79907-5640",
    "phone": "(915) 858-6868",
    "fax": "",
    "webSite": ""
  },
  {
    "name": "Gray, Billy Alvin",
    "street": "2112 Monte Cristo Dr ",
    "city": "Sherman",
    "state": "TX",
    "zipCode": "75092-3194",
    "phone": "(903) 892-0593",
    "fax": "(903) 868-2489",
    "webSite": ""
  },
  {
    "name": "Gray, Chet K",
    "street": "2701 W Cuthbert Ave ",
    "city": "Midland",
    "state": "TX",
    "zipCode": "79701-3819",
    "phone": "(432) 694-5741",
    "fax": "(432) 694-5815",
    "webSite": ""
  },
  {
    "name": "Gray, David",
    "street": "4502 S Mccoll Rd ",
    "city": "Edinburg",
    "state": "TX",
    "zipCode": "78539-9739",
    "phone": "(956) 630-4900",
    "fax": "(956) 682-9806",
    "webSite": ""
  },
  {
    "name": "Gray, Gerald Duane",
    "street": "606 Turtle Creek Dr ",
    "city": "Tyler",
    "state": "TX",
    "zipCode": "75701-1831",
    "phone": "(903) 592-7855",
    "fax": "(903) 592-7966",
    "webSite": ""
  },
  {
    "name": "Gray, James T.",
    "street": "901 S Center St ",
    "city": "Arlington",
    "state": "TX",
    "zipCode": "76010-2744",
    "phone": "(817) 460-4131",
    "fax": "",
    "webSite": ""
  },
  {
    "name": "Gray, Mark",
    "street": "1127 Eldridge Pkwy Ste 1040",
    "city": "Houston",
    "state": "TX",
    "zipCode": "77077-1773",
    "phone": "(281) 493-9395",
    "fax": "",
    "webSite": ""
  },
  {
    "name": "Gray, Minda",
    "street": "8940 Culebra Rd ",
    "city": "San Antonio",
    "state": "TX",
    "zipCode": "78251-2812",
    "phone": "(210) 684-1313",
    "fax": "",
    "webSite": ""
  },
  {
    "name": "Gray, Tamara Kay",
    "street": "1870 Keller Pkwy Ste 300 ",
    "city": "Keller",
    "state": "TX",
    "zipCode": "76248-3781",
    "phone": "(817) 337-4344",
    "fax": "(817) 337-4388",
    "webSite": ""
  },
  {
    "name": "Gray, Terry James",
    "street": "712 N Hampton Rd Suite 130",
    "city": "Desoto",
    "state": "TX",
    "zipCode": "75115-4500",
    "phone": "(972) 223-5500",
    "fax": "(972) 223-5501",
    "webSite": ""
  },
  {
    "name": "Gray, Wesley D",
    "street": "2701 W Cuthbert Ave ",
    "city": "Midland",
    "state": "TX",
    "zipCode": "79701-3819",
    "phone": "(432) 694-5741",
    "fax": "(432) 694-5815",
    "webSite": ""
  },
  {
    "name": "Grayson L. Sellers, Dds, Pa",
    "street": "314 E Queen Isabella Blvd ",
    "city": "Port Isabel",
    "state": "TX",
    "zipCode": "78578-2407",
    "phone": "(956) 943-4166",
    "fax": "(956) 943-4168",
    "webSite": ""
  },
  {
    "name": "Great American Smiles, Pc",
    "street": "11615 Angus Rd Ste 116 ",
    "city": "Austin",
    "state": "TX",
    "zipCode": "78759-4065",
    "phone": "(512) 345-9995",
    "fax": "(512) 340-9229",
    "webSite": ""
  },
  {
    "name": "Great Night Sleep Company Llc",
    "street": "1309 Avon Ter ",
    "city": "Southlake",
    "state": "TX",
    "zipCode": "76092-9509",
    "phone": "(214) 924-1114",
    "fax": "(214) 924-1114",
    "webSite": ""
  },
  {
    "name": "Great Smiles Dental & Orthodontic",
    "street": "1927 E Belt Line Rd Ste 130 ",
    "city": "Carrollton",
    "state": "TX",
    "zipCode": "75006-5814",
    "phone": "(972) 416-1360",
    "fax": "",
    "webSite": ""
  },
  {
    "name": "Great Southwest Family Dental",
    "street": "2501 W I 20 Suite 100",
    "city": "Grand Prairie",
    "state": "TX",
    "zipCode": "75052-3947",
    "phone": "(972) 660-8457",
    "fax": "",
    "webSite": ""
  },
  {
    "name": "Great White Dental Pllc",
    "street": "238 Sw Military Dr Ste 104 ",
    "city": "San Antonio",
    "state": "TX",
    "zipCode": "78221-1657",
    "phone": "(210) 853-5600",
    "fax": "(833) 790-3376",
    "webSite": ""
  },
  {
    "name": "Green Dental Group",
    "street": "3020 Legacy Dr Ste 210 ",
    "city": "Plano",
    "state": "TX",
    "zipCode": "75023-8323",
    "phone": "(801) 440-1488",
    "fax": "(817) 426-3337",
    "webSite": ""
  },
  {
    "name": "Green Earth Dentistry",
    "street": "1202 Elgin St A",
    "city": "Houston",
    "state": "TX",
    "zipCode": "77004-2829",
    "phone": "(713) 523-3264",
    "fax": "",
    "webSite": ""
  },
  {
    "name": "Green Family Dental Pc",
    "street": "10510 Montwood Dr Suite D",
    "city": "El Paso",
    "state": "TX",
    "zipCode": "79935-2703",
    "phone": "(915) 778-4681",
    "fax": "",
    "webSite": ""
  },
  {
    "name": "Green Oaks Family Dentistry Pc",
    "street": "2711 W Green Oaks Blvd ",
    "city": "Arlington",
    "state": "TX",
    "zipCode": "76016-1671",
    "phone": "(817) 451-9292",
    "fax": "(817) 451-3137",
    "webSite": ""
  },
  {
    "name": "Green, Austin Revvie",
    "street": "7911 Woodway Dr ",
    "city": "Waco",
    "state": "TX",
    "zipCode": "76712-3866",
    "phone": "(254) 772-3632",
    "fax": "",
    "webSite": ""
  },
  {
    "name": "Green, Eric Coleman",
    "street": "910 Oak Ln ",
    "city": "Childress",
    "state": "TX",
    "zipCode": "79201-2210",
    "phone": "(940) 937-2248",
    "fax": "(940) 937-8260",
    "webSite": ""
  },
  {
    "name": "Green, Harry",
    "street": "10850 Louetta Rd Suite 800",
    "city": "Houston",
    "state": "TX",
    "zipCode": "77070-3533",
    "phone": "(281) 374-0031",
    "fax": "(281) 826-0034",
    "webSite": ""
  },
  {
    "name": "Green, Henry Thomas",
    "street": "18850 Stone Oak Pkwy ",
    "city": "San Antonio",
    "state": "TX",
    "zipCode": "78258-4113",
    "phone": "(210) 499-0303",
    "fax": "",
    "webSite": ""
  },
  {
    "name": "Green, James Brian",
    "street": "6102 82Nd St Suite #1",
    "city": "Lubbock",
    "state": "TX",
    "zipCode": "79424-0802",
    "phone": "(806) 799-8160",
    "fax": "",
    "webSite": ""
  },
  {
    "name": "Green, John Eddie",
    "street": "38 Pembroke Ln ",
    "city": "San Antonio",
    "state": "TX",
    "zipCode": "78240-2594",
    "phone": "(210) 641-2943",
    "fax": "",
    "webSite": ""
  },
  {
    "name": "Green, Jordon J",
    "street": "4610 N Garfield St Ste B12 ",
    "city": "Midland",
    "state": "TX",
    "zipCode": "79705-2653",
    "phone": "(432) 682-8941",
    "fax": "",
    "webSite": ""
  },
  {
    "name": "Green, Mark Daniel",
    "street": "415 1St St E ",
    "city": "Humble",
    "state": "TX",
    "zipCode": "77338-4602",
    "phone": "(281) 446-6060",
    "fax": "(281) 540-1737",
    "webSite": ""
  },
  {
    "name": "Green, Nikki P",
    "street": "2512 Horne St Ste. C",
    "city": "Fort Worth",
    "state": "TX",
    "zipCode": "76107-4651",
    "phone": "(817) 737-6601",
    "fax": "(817) 737-6446",
    "webSite": ""
  },
  {
    "name": "Green, Robert Tyler",
    "street": "1805 W White Oak Terrace Suite A",
    "city": "Conroe",
    "state": "TX",
    "zipCode": "77304-3950",
    "phone": "(936) 588-4433",
    "fax": "(936) 588-4603",
    "webSite": ""
  },
  {
    "name": "Green, Shelby Marie",
    "street": "6102 82Nd St Suite 1",
    "city": "Lubbock",
    "state": "TX",
    "zipCode": "79424-0802",
    "phone": "(806) 799-8160",
    "fax": "(806) 799-7826",
    "webSite": ""
  },
  {
    "name": "Green-Dileo, Evie Alice",
    "street": "1208 W Elm St ",
    "city": "Orange",
    "state": "TX",
    "zipCode": "77630-5535",
    "phone": "(409) 883-3131",
    "fax": "(409) 883-6811",
    "webSite": ""
  },
  {
    "name": "Greene, Christina",
    "street": "5336 N Tarrant Pkwy ",
    "city": "Fort Worth",
    "state": "TX",
    "zipCode": "76244-6293",
    "phone": "(214) 218-0248",
    "fax": "",
    "webSite": ""
  },
  {
    "name": "Greene, Dennis S",
    "street": "6757 Arapaho Rd Ste 777 ",
    "city": "Dallas",
    "state": "TX",
    "zipCode": "75248-4073",
    "phone": "(972) 458-0818",
    "fax": "",
    "webSite": ""
  },
  {
    "name": "Greene, Jeffery Charles",
    "street": "1901 S 1St St ",
    "city": "Temple",
    "state": "TX",
    "zipCode": "76504-7451",
    "phone": "(254) 744-2260",
    "fax": "",
    "webSite": ""
  },
  {
    "name": "Greene, Johnny L",
    "street": "515 N Van Buren ",
    "city": "Mt Pleasant",
    "state": "TX",
    "zipCode": "75455",
    "phone": "(903) 572-7502",
    "fax": "(903) 572-9242",
    "webSite": ""
  },
  {
    "name": "Greening, Rebecca",
    "street": "313 Ridgecrest Rd ",
    "city": "Georgetown",
    "state": "TX",
    "zipCode": "78628-3016",
    "phone": "(281) 910-0037",
    "fax": "",
    "webSite": ""
  },
  {
    "name": "Krest Dental",
    "street": "5006 Wesley St. ",
    "city": "Greenville",
    "state": "TX",
    "zipCode": "75402-6307",
    "phone": "(903) 454-1121",
    "fax": "(903) 454-2515",
    "webSite": ""
  },
  {
    "name": "Greenway, Bruce C.",
    "street": "4507 Sweetwater Blvd ",
    "city": "Sugar Land",
    "state": "TX",
    "zipCode": "77479-3010",
    "phone": "(281) 980-1150",
    "fax": "(281) 980-5099",
    "webSite": ""
  },
  {
    "name": "Greenwood, James Lee",
    "street": "5925 Forest Ln Ste 129 ",
    "city": "Dallas",
    "state": "TX",
    "zipCode": "75230-2787",
    "phone": "(972) 239-0914",
    "fax": "",
    "webSite": ""
  },
  {
    "name": "Greer, Brittany Turchi",
    "street": "103 S Roosevelt Ave ",
    "city": "Cleveland",
    "state": "TX",
    "zipCode": "77327-4532",
    "phone": "(281) 592-5865",
    "fax": "(281) 593-1756",
    "webSite": ""
  },
  {
    "name": "Greer, Dale Warren",
    "street": "5925 Forest Lane Suite # 311",
    "city": "Dallas",
    "state": "TX",
    "zipCode": "75230",
    "phone": "(972) 233-4546",
    "fax": "(972) 386-9783",
    "webSite": ""
  },
  {
    "name": "Greer, David Jerry",
    "street": "4760 Barwick Dr Ste B ",
    "city": "Ft Worth",
    "state": "TX",
    "zipCode": "76132-1529",
    "phone": "(817) 292-2555",
    "fax": "",
    "webSite": ""
  },
  {
    "name": "Greer, Erin Reed",
    "street": "204 W Main St ",
    "city": "Crowley",
    "state": "TX",
    "zipCode": "76036-2535",
    "phone": "(817) 297-1801",
    "fax": "(817) 297-1867",
    "webSite": ""
  },
  {
    "name": "Greeson, Scott S.",
    "street": "2947 S Buckner Blvd Ste. 100",
    "city": "Dallas",
    "state": "TX",
    "zipCode": "75227-6952",
    "phone": "(214) 381-3800",
    "fax": "(214) 381-4500",
    "webSite": ""
  },
  {
    "name": "Gregg E. Ueckert, Dds",
    "street": "7030 Village Center Dr ",
    "city": "Austin",
    "state": "TX",
    "zipCode": "78731-3024",
    "phone": "(512) 345-3166",
    "fax": "(512) 345-0162",
    "webSite": ""
  },
  {
    "name": "Gregory & Mahaney Dentistry Partnership",
    "street": "3302 64Th St ",
    "city": "Lubbock",
    "state": "TX",
    "zipCode": "79413-5743",
    "phone": "(806) 792-4889",
    "fax": "(806) 793-2624",
    "webSite": ""
  },
  {
    "name": "Gregory B Wright Dds Pa",
    "street": "200 E Southlake Blvd Ste 30 ",
    "city": "Southlake",
    "state": "TX",
    "zipCode": "76092-6239",
    "phone": "(817) 481-7999",
    "fax": "",
    "webSite": ""
  },
  {
    "name": "Gregory J Atwood Dds Ltd",
    "street": "2455 E 11Th St ",
    "city": "Odessa",
    "state": "TX",
    "zipCode": "79761-4232",
    "phone": "(432) 337-6165",
    "fax": "",
    "webSite": ""
  },
  {
    "name": "Gregory Kevin Gor, P.A.",
    "street": "14881 Southwest Fwy ",
    "city": "Sugar Land",
    "state": "TX",
    "zipCode": "77478-5016",
    "phone": "(281) 240-2545",
    "fax": "(281) 240-2544",
    "webSite": ""
  },
  {
    "name": "Gregory R Sopel Dmd Pc",
    "street": "9000 Highway 2147 Ste 103 ",
    "city": "Horseshoe Bay",
    "state": "TX",
    "zipCode": "78657-6247",
    "phone": "(830) 598-5474",
    "fax": "",
    "webSite": ""
  },
  {
    "name": "Gregory, Andra Dunham",
    "street": "3701 Avenue U ",
    "city": "Snyder",
    "state": "TX",
    "zipCode": "79549-4630",
    "phone": "(325) 573-3162",
    "fax": "(325) 573-0942",
    "webSite": ""
  },
  {
    "name": "Gregory, David Brent",
    "street": "3302 64Th St ",
    "city": "Lubbock",
    "state": "TX",
    "zipCode": "79413-5743",
    "phone": "(806) 792-4889",
    "fax": "",
    "webSite": ""
  },
  {
    "name": "Gregory, Tanner Brent",
    "street": "3302 64Th St ",
    "city": "Lubbock",
    "state": "TX",
    "zipCode": "79413-5743",
    "phone": "(806) 792-4889",
    "fax": "",
    "webSite": ""
  },
  {
    "name": "Gres, John Elie",
    "street": "623 E Hempstead St ",
    "city": "Giddings",
    "state": "TX",
    "zipCode": "78942-3419",
    "phone": "(979) 542-1298",
    "fax": "(979) 542-0440",
    "webSite": ""
  },
  {
    "name": "Gress, Gene Gordon",
    "street": "9801 Anderson Mill Rd Suite 109",
    "city": "Austin",
    "state": "TX",
    "zipCode": "78750-2274",
    "phone": "(512) 258-0670",
    "fax": "(512) 258-0672",
    "webSite": ""
  },
  {
    "name": "Grewal, Partapjot Singh",
    "street": "119 Business Park Blvd 200 Ste",
    "city": "Kenedy",
    "state": "TX",
    "zipCode": "78119-2062",
    "phone": "(830) 583-3737",
    "fax": "",
    "webSite": ""
  },
  {
    "name": "Grewal, Sarabjeet Kaur",
    "street": "101 Seagraves Rd ",
    "city": "Brownfield",
    "state": "TX",
    "zipCode": "79316-5447",
    "phone": "(806) 636-5555",
    "fax": "",
    "webSite": ""
  },
  {
    "name": "Griego, Amanda Christine",
    "street": "1050 Sunland Park Dr # B200 ",
    "city": "El Paso",
    "state": "TX",
    "zipCode": "79922-1326",
    "phone": "(915) 213-1200",
    "fax": "",
    "webSite": ""
  },
  {
    "name": "Grier, Michael Ray",
    "street": "302 Dobbs Street ",
    "city": "Grandview",
    "state": "TX",
    "zipCode": "76050",
    "phone": "(817) 866-2065",
    "fax": "(817) 866-3133",
    "webSite": ""
  },
  {
    "name": "Gries, Alix Lea",
    "street": "534 10Th St ",
    "city": "Floresville",
    "state": "TX",
    "zipCode": "78114-3199",
    "phone": "(832) 217-0380",
    "fax": "",
    "webSite": ""
  },
  {
    "name": "Griffey, Clara Dutton",
    "street": "1501 N 25Th St ",
    "city": "Waco",
    "state": "TX",
    "zipCode": "76707-2702",
    "phone": "(254) 752-0305",
    "fax": "",
    "webSite": ""
  },
  {
    "name": "Griffin, Brad W",
    "street": "5020 Fm 1960 Rd W Suite B",
    "city": "Houston",
    "state": "TX",
    "zipCode": "77069-4519",
    "phone": "(281) 580-9058",
    "fax": "",
    "webSite": ""
  },
  {
    "name": "Griffin, David",
    "street": "6729 Bridge St ",
    "city": "Ft Worth",
    "state": "TX",
    "zipCode": "76112-0817",
    "phone": "(817) 451-1192",
    "fax": "",
    "webSite": ""
  },
  {
    "name": "Griffin, Kenneth Wayne",
    "street": "6700 Woodlands Pkwy Suite 160",
    "city": "Spring",
    "state": "TX",
    "zipCode": "77382-2575",
    "phone": "(281) 363-3308",
    "fax": "(281) 298-5719",
    "webSite": ""
  },
  {
    "name": "Griffin, Randall G",
    "street": "697 Louisiana Dr 7 Ados/Sggd",
    "city": "Dyess Afb",
    "state": "TX",
    "zipCode": "79607",
    "phone": "(325) 696-2304",
    "fax": "",
    "webSite": ""
  },
  {
    "name": "Griffiths, Brian",
    "street": "1333 Eldridge Pkwy #1432",
    "city": "Houston",
    "state": "TX",
    "zipCode": "77077-1610",
    "phone": "(480) 370-3860",
    "fax": "",
    "webSite": ""
  },
  {
    "name": "Grigg-Gutierrez, Michelle",
    "street": "1201 E 9Th St Sam Rayburn Memorial Medical Center",
    "city": "Bonham",
    "state": "TX",
    "zipCode": "75418-4059",
    "phone": "(903) 583-6465",
    "fax": "",
    "webSite": ""
  },
  {
    "name": "Grigsby, David",
    "street": "1210 Douglass Rd ",
    "city": "Nacogdoches",
    "state": "TX",
    "zipCode": "75964-4904",
    "phone": "(936) 560-1122",
    "fax": "",
    "webSite": ""
  },
  {
    "name": "Grigsby, James Louis",
    "street": "7424 Greenville Ave Suite 111",
    "city": "Dallas",
    "state": "TX",
    "zipCode": "75231-4552",
    "phone": "(214) 369-7000",
    "fax": "",
    "webSite": ""
  },
  {
    "name": "Grimaldos, Patricia",
    "street": "4843 River Oaks Blvd ",
    "city": "River Oaks",
    "state": "TX",
    "zipCode": "76114",
    "phone": "(682) 235-9059",
    "fax": "",
    "webSite": ""
  },
  {
    "name": "Grimes, Donald Arthur",
    "street": "4217 85Th St ",
    "city": "Lubbock",
    "state": "TX",
    "zipCode": "79423-1931",
    "phone": "(806) 794-9947",
    "fax": "(806) 794-0504",
    "webSite": ""
  },
  {
    "name": "Grimes, Robert Hunter",
    "street": "8901 Milwaukee Avenue ",
    "city": "Lubbock",
    "state": "TX",
    "zipCode": "79424-1931",
    "phone": "(806) 798-3384",
    "fax": "(806) 794-0504",
    "webSite": ""
  },
  {
    "name": "Grimm, Elizabeth M.",
    "street": "901 S Mo Pac Expy Bldg 1 Ste 470",
    "city": "Austin",
    "state": "TX",
    "zipCode": "78746-5776",
    "phone": "(512) 327-6947",
    "fax": "",
    "webSite": ""
  },
  {
    "name": "Grimm, Keith",
    "street": "20555 Fm 2920 Rd ",
    "city": "Hockley",
    "state": "TX",
    "zipCode": "77447-6910",
    "phone": "(281) 516-4605",
    "fax": "(281) 516-4606",
    "webSite": ""
  },
  {
    "name": "Grimm, Thomas J",
    "street": "149 Hart Street 82 Medical Group/Credentials",
    "city": "Sheppard Afb",
    "state": "TX",
    "zipCode": "76311-3482",
    "phone": "(940) 676-6569",
    "fax": "",
    "webSite": ""
  },
  {
    "name": "Grinaldi, John A",
    "street": "6190 Lbj Fwy Suite 900",
    "city": "Dallas",
    "state": "TX",
    "zipCode": "75240-6344",
    "phone": "(972) 437-4746",
    "fax": "(214) 291-7190",
    "webSite": ""
  },
  {
    "name": "Grisanti, Leonello Patrick",
    "street": "2504 Ridge Rd Suite 204",
    "city": "Rockwall",
    "state": "TX",
    "zipCode": "75087-2569",
    "phone": "(972) 772-9505",
    "fax": "(972) 722-7506",
    "webSite": ""
  },
  {
    "name": "Grissom, Austyn C",
    "street": "9099 Katy Fwy Ste 140 ",
    "city": "Houston",
    "state": "TX",
    "zipCode": "77024",
    "phone": "(713) 465-1860",
    "fax": "",
    "webSite": ""
  },
  {
    "name": "Grissom, John Coalson",
    "street": "210 N Park Blvd Suite 110",
    "city": "Grapevine",
    "state": "TX",
    "zipCode": "76051-6985",
    "phone": "(817) 488-8175",
    "fax": "(817) 488-7995",
    "webSite": ""
  },
  {
    "name": "Grizzle, Dennis Reagan",
    "street": "4501 Sweetwater Blvd ",
    "city": "Sugar Land",
    "state": "TX",
    "zipCode": "77479-3010",
    "phone": "(281) 980-4104",
    "fax": "(281) 980-9696",
    "webSite": ""
  },
  {
    "name": "Groba, Ronald E.",
    "street": "820 S Friendswood Dr Ste 101 ",
    "city": "Friendswood",
    "state": "TX",
    "zipCode": "77546-4543",
    "phone": "(281) 482-1275",
    "fax": "(281) 482-0270",
    "webSite": ""
  },
  {
    "name": "Grogans Mill Dental, Pc",
    "street": "25210 Grogans Mill Rd Ste A",
    "city": "The Woodlands",
    "state": "TX",
    "zipCode": "77380-2378",
    "phone": "(281) 298-5225",
    "fax": "(281) 298-5266",
    "webSite": ""
  },
  {
    "name": "Groh, Katelyn M",
    "street": "36000 Darnall Loop ",
    "city": "Fort Hood",
    "state": "TX",
    "zipCode": "76544-5095",
    "phone": "(254) 287-2705",
    "fax": "",
    "webSite": ""
  },
  {
    "name": "Gronich, Anthony Irving",
    "street": "5665 Transmountain Dr Ste 201",
    "city": "El Paso",
    "state": "TX",
    "zipCode": "79924-4100",
    "phone": "(915) 751-7779",
    "fax": "(915) 755-2265",
    "webSite": ""
  },
  {
    "name": "Gronich, Neal Frank",
    "street": "7598 N Mesa St Suite 208",
    "city": "El Paso",
    "state": "TX",
    "zipCode": "79912-3517",
    "phone": "(915) 581-1300",
    "fax": "(915) 581-0824",
    "webSite": ""
  },
  {
    "name": "Grosdidier, Danielle",
    "street": "1100 Wilford Hall Loop Bldg 4554 ",
    "city": "Jbsa Lackland",
    "state": "TX",
    "zipCode": "78236-5638",
    "phone": "(210) 292-0123",
    "fax": "",
    "webSite": ""
  },
  {
    "name": "Gross, Alan Mitchell",
    "street": "3317 Phoenix Dr ",
    "city": "Fort Worth",
    "state": "TX",
    "zipCode": "76116-6307",
    "phone": "(817) 244-1700",
    "fax": "",
    "webSite": ""
  },
  {
    "name": "Grove, Andrew",
    "street": "2133 Pepperrell St ",
    "city": "Lackland Afb",
    "state": "TX",
    "zipCode": "78236-5313",
    "phone": "(210) 292-1658",
    "fax": "",
    "webSite": ""
  },
  {
    "name": "Grove, Arthur William",
    "street": "1909 S Shepherd Dr ",
    "city": "Houston",
    "state": "TX",
    "zipCode": "77019-7005",
    "phone": "(713) 522-2033",
    "fax": "",
    "webSite": ""
  },
  {
    "name": "Grover, James Madison",
    "street": "4105 Medical Pkwy Ste 100 ",
    "city": "Austin",
    "state": "TX",
    "zipCode": "78756-3725",
    "phone": "(512) 458-1133",
    "fax": "",
    "webSite": ""
  },
  {
    "name": "Growing Smiles Of Anna Pllc",
    "street": "2530 W White St Suite 104",
    "city": "Anna",
    "state": "TX",
    "zipCode": "75409-7508",
    "phone": "(214) 501-2721",
    "fax": "",
    "webSite": ""
  },
  {
    "name": "Grubbs, Anna Caroline",
    "street": "4950 Beechnut St ",
    "city": "Houston",
    "state": "TX",
    "zipCode": "77096-1605",
    "phone": "(281) 503-4804",
    "fax": "",
    "webSite": ""
  },
  {
    "name": "Gruber, David Lee",
    "street": "1440 N Macarthur Blvd Suite 101",
    "city": "Irving",
    "state": "TX",
    "zipCode": "75061-4409",
    "phone": "(972) 579-1046",
    "fax": "",
    "webSite": ""
  },
  {
    "name": "Grumbos, Peter",
    "street": "3032 Mountainview Ct ",
    "city": "Grapevine",
    "state": "TX",
    "zipCode": "76051-6326",
    "phone": "(214) 734-1673",
    "fax": "",
    "webSite": ""
  },
  {
    "name": "Grygo-Jozwiak, Teresa",
    "street": "25114 Grogans Mill Rd ",
    "city": "Spring",
    "state": "TX",
    "zipCode": "77380-2248",
    "phone": "(281) 296-7600",
    "fax": "",
    "webSite": ""
  },
  {
    "name": "Guadalupe M. Ward, Dds, Pa",
    "street": "4009 N Mesa St Ste A ",
    "city": "El Paso",
    "state": "TX",
    "zipCode": "79902-1526",
    "phone": "(915) 544-3828",
    "fax": "(915) 533-1762",
    "webSite": ""
  },
  {
    "name": "Guajardo, Ismael",
    "street": "2404 Commercial Ave Ste G",
    "city": "San Antonio",
    "state": "TX",
    "zipCode": "78221-1703",
    "phone": "(210) 928-7975",
    "fax": "(210) 928-7977",
    "webSite": ""
  },
  {
    "name": "Guardiola, Leonel",
    "street": "822 Steger Towne Rd ",
    "city": "Rockwall",
    "state": "TX",
    "zipCode": "75032-5658",
    "phone": "(972) 771-9559",
    "fax": "",
    "webSite": ""
  },
  {
    "name": "Guel, Jorge A",
    "street": "3138 Se Military Dr Ste 104 ",
    "city": "San Antonio",
    "state": "TX",
    "zipCode": "78223-3894",
    "phone": "(210) 533-1100",
    "fax": "(210) 333-3363",
    "webSite": ""
  },
  {
    "name": "Guerra, Jesus Othon",
    "street": "207 North Bryan Rd. ",
    "city": "Mission",
    "state": "TX",
    "zipCode": "78572",
    "phone": "(956) 585-1250",
    "fax": "",
    "webSite": ""
  },
  {
    "name": "Guerra, Juan Carlos",
    "street": "204 E 2Nd St ",
    "city": "Rio Grande City",
    "state": "TX",
    "zipCode": "78582-3804",
    "phone": "(956) 487-4746",
    "fax": "(956) 487-4468",
    "webSite": ""
  },
  {
    "name": "Guerra, Omar I",
    "street": "1305 Wonder World Dr. Suite 303",
    "city": "San Marcos",
    "state": "TX",
    "zipCode": "78666",
    "phone": "(512) 396-3727",
    "fax": "(512) 878-2403",
    "webSite": ""
  },
  {
    "name": "Guerra, Rolando A.",
    "street": "5904 West Drive , Suite 9 ",
    "city": "Laredo",
    "state": "TX",
    "zipCode": "78041",
    "phone": "(956) 726-9418",
    "fax": "",
    "webSite": ""
  },
  {
    "name": "Guerra-Hirji, Patricia",
    "street": "2628 Cedar Elm Ln ",
    "city": "Plano",
    "state": "TX",
    "zipCode": "75075-3105",
    "phone": "(972) 768-6138",
    "fax": "",
    "webSite": ""
  },
  {
    "name": "Guerrafamilydentistry,Pllc",
    "street": "201 N Fm 3167 Suite 11-12",
    "city": "Rio Grande City",
    "state": "TX",
    "zipCode": "78582-6724",
    "phone": "(956) 263-1889",
    "fax": "",
    "webSite": ""
  },
  {
    "name": "Guerrero, Adriana",
    "street": "15825 Hope Village Rd Suite H",
    "city": "Friendswood",
    "state": "TX",
    "zipCode": "77546-2479",
    "phone": "(281) 996-8392",
    "fax": "",
    "webSite": ""
  },
  {
    "name": "Guerrero, Karen",
    "street": "2704 Cross Timbers Rd Ste 108 ",
    "city": "Flower Mound",
    "state": "TX",
    "zipCode": "75028",
    "phone": "(972) 874-1890",
    "fax": "",
    "webSite": ""
  },
  {
    "name": "Guess, Richard Carr",
    "street": "3631 Maplewood Ave Suite 3",
    "city": "Wichita Falls",
    "state": "TX",
    "zipCode": "76308-2149",
    "phone": "(940) 692-8100",
    "fax": "(940) 692-5775",
    "webSite": ""
  },
  {
    "name": "Guidroz, Sydney Elizabeth",
    "street": "3100 S Congress Ave # 1F ",
    "city": "Austin",
    "state": "TX",
    "zipCode": "78704-6462",
    "phone": "(512) 717-3147",
    "fax": "",
    "webSite": ""
  },
  {
    "name": "Guillen, Ricardo",
    "street": "1214 Dixieland Rd Suite # 4",
    "city": "Harlingen",
    "state": "TX",
    "zipCode": "78552-3351",
    "phone": "(956) 428-5322",
    "fax": "(956) 428-7986",
    "webSite": ""
  },
  {
    "name": "Guillory, Mark Ray",
    "street": "13215 Grant Rd Ste 600 ",
    "city": "Cypress",
    "state": "TX",
    "zipCode": "77429-4094",
    "phone": "(832) 717-3000",
    "fax": "",
    "webSite": ""
  },
  {
    "name": "Guirguis, Amber Vickers",
    "street": "16631 Coit Rd Ste 114 ",
    "city": "Dallas",
    "state": "TX",
    "zipCode": "75248-1795",
    "phone": "(214) 484-5978",
    "fax": "",
    "webSite": ""
  },
  {
    "name": "Guirguis, James S",
    "street": "1231 E Belt Line Rd Suite 103",
    "city": "Richardson",
    "state": "TX",
    "zipCode": "75081-3748",
    "phone": "(972) 690-8617",
    "fax": "(972) 690-6423",
    "webSite": ""
  },
  {
    "name": "Guirguis, Peter",
    "street": "10611 Garland Rd Ste 205",
    "city": "Dallas",
    "state": "TX",
    "zipCode": "75218-2666",
    "phone": "(214) 321-3005",
    "fax": "",
    "webSite": ""
  },
  {
    "name": "Guiste, Ayaba",
    "street": "1154, 1002 N Loop 336 W ",
    "city": "Conroe",
    "state": "TX",
    "zipCode": "77301",
    "phone": "(936) 760-3050",
    "fax": "",
    "webSite": ""
  },
  {
    "name": "Gulati, Geeta",
    "street": "2275 Westpark Ct Ste 100",
    "city": "Euless",
    "state": "TX",
    "zipCode": "76040-3999",
    "phone": "(817) 283-1205",
    "fax": "",
    "webSite": ""
  },
  {
    "name": "Kavitha Ginjupalli Dds Pc",
    "street": "309 Garland Dr ",
    "city": "Lake Jackson",
    "state": "TX",
    "zipCode": "77566-6238",
    "phone": "(979) 480-9300",
    "fax": "(979) 480-9310",
    "webSite": ""
  },
  {
    "name": "Gulf Family Dental Pc",
    "street": "4023 Gulf St ",
    "city": "Houston",
    "state": "TX",
    "zipCode": "77087-4723",
    "phone": "(713) 645-8822",
    "fax": "(713) 649-6023",
    "webSite": ""
  },
  {
    "name": "Gulfside Dental - La Marque Pllc",
    "street": "2600 Fm 1764 Rd Ste 170 ",
    "city": "La Marque",
    "state": "TX",
    "zipCode": "77568-2828",
    "phone": "(972) 590-8809",
    "fax": "(972) 619-7622",
    "webSite": ""
  },
  {
    "name": "Gulfside Dental Bridge City Pllc",
    "street": "1860 Texas Ave ",
    "city": "Bridge City",
    "state": "TX",
    "zipCode": "77611-2808",
    "phone": "(409) 735-8146",
    "fax": "(409) 735-2167",
    "webSite": ""
  },
  {
    "name": "Gulfton Dental Pa",
    "street": "5608 Gulfton St Ste D ",
    "city": "Houston",
    "state": "TX",
    "zipCode": "77081-2700",
    "phone": "(713) 665-2483",
    "fax": "(713) 665-0120",
    "webSite": ""
  },
  {
    "name": "Gulley, Clara",
    "street": "2103 Citywest Blvd Building 4 Suite 100",
    "city": "Houston",
    "state": "TX",
    "zipCode": "77042-2853",
    "phone": "(812) 018-6072",
    "fax": "",
    "webSite": ""
  },
  {
    "name": "Gummadi, Vaishnavi",
    "street": "4898 Little Rd ",
    "city": "Arlington",
    "state": "TX",
    "zipCode": "76017-1054",
    "phone": "(817) 672-0034",
    "fax": "",
    "webSite": ""
  },
  {
    "name": "Gums And Smiles Family Dental Pllc",
    "street": "2082 Us Hwy 183 Ste 140 ",
    "city": "Leander",
    "state": "TX",
    "zipCode": "78641-1592",
    "phone": "(512) 337-1919",
    "fax": "(512) 337-8901",
    "webSite": ""
  },
  {
    "name": "Brite Smiles Dental",
    "street": "1307 W Main St ",
    "city": "Gun Barrel City",
    "state": "TX",
    "zipCode": "75156-5241",
    "phone": "(617) 771-2784",
    "fax": "",
    "webSite": ""
  },
  {
    "name": "Gunda, Gayathri",
    "street": "1600 Bedford Rd Ste 200 ",
    "city": "Bedford",
    "state": "TX",
    "zipCode": "76021-5702",
    "phone": "(817) 358-0909",
    "fax": "",
    "webSite": ""
  },
  {
    "name": "Gundappa, Chitravathi",
    "street": "811 E 32Nd St 100",
    "city": "Austin",
    "state": "TX",
    "zipCode": "78705-2507",
    "phone": "(512) 306-0601",
    "fax": "",
    "webSite": ""
  },
  {
    "name": "Family Smiles",
    "street": "708 Paluxy Rd Ste B",
    "city": "Granbury",
    "state": "TX",
    "zipCode": "76048-2396",
    "phone": "(617) 281-7947",
    "fax": "",
    "webSite": ""
  },
  {
    "name": "Guntnur, Rajeswari",
    "street": "5409 N Jim Miller Rd Suite 105",
    "city": "Dallas",
    "state": "TX",
    "zipCode": "75227-1542",
    "phone": "(214) 381-1272",
    "fax": "(214) 381-6131",
    "webSite": ""
  },
  {
    "name": "Guo, Ruixiang",
    "street": "9889 Bellaire Blvd ",
    "city": "Houston",
    "state": "TX",
    "zipCode": "77036-3499",
    "phone": "(713) 272-9800",
    "fax": "",
    "webSite": ""
  },
  {
    "name": "Guo, Xiaoyu",
    "street": "2539 S Gessner Rd Ste 7 ",
    "city": "Houston",
    "state": "TX",
    "zipCode": "77063-2028",
    "phone": "(713) 489-0008",
    "fax": "",
    "webSite": ""
  },
  {
    "name": "Gupta, Aakash Deep",
    "street": "4610 North St Ste 101B ",
    "city": "Nacogdoches",
    "state": "TX",
    "zipCode": "75965",
    "phone": "(936) 560-0900",
    "fax": "",
    "webSite": ""
  },
  {
    "name": "Gupta, Aditi",
    "street": "135 River North Blvd ",
    "city": "Stephenville",
    "state": "TX",
    "zipCode": "76401-1804",
    "phone": "(254) 865-2810",
    "fax": "",
    "webSite": ""
  },
  {
    "name": "Gupta, Hema",
    "street": "5575 Warren Pkwy Ste 210 ",
    "city": "Frisco",
    "state": "TX",
    "zipCode": "75034-4066",
    "phone": "(214) 618-5300",
    "fax": "",
    "webSite": ""
  },
  {
    "name": "Gupta, Mahima",
    "street": "4610 North St Ste A",
    "city": "Nacogdoches",
    "state": "TX",
    "zipCode": "75965-1840",
    "phone": "(936) 560-0900",
    "fax": "",
    "webSite": ""
  },
  {
    "name": "Gupta, Shaily",
    "street": "1000 N Midkiff Rd ",
    "city": "Midland",
    "state": "TX",
    "zipCode": "79701-2101",
    "phone": "(432) 897-0852",
    "fax": "",
    "webSite": ""
  },
  {
    "name": "Gupta, Shipra",
    "street": "6261 Highway 6 Ste 400 ",
    "city": "Missouri City",
    "state": "TX",
    "zipCode": "77459-4372",
    "phone": "(281) 969-1536",
    "fax": "",
    "webSite": ""
  },
  {
    "name": "Gupta, Shreya",
    "street": "4539 E Sam Houston Pkwy S ",
    "city": "Pasadena",
    "state": "TX",
    "zipCode": "77505-3953",
    "phone": "(408) 799-0778",
    "fax": "",
    "webSite": ""
  },
  {
    "name": "Guram, Monjit S",
    "street": "3825 Yucca Ave Suite 121",
    "city": "Fort Worth",
    "state": "TX",
    "zipCode": "76111-6067",
    "phone": "(817) 927-8500",
    "fax": "(817) 927-8508",
    "webSite": ""
  },
  {
    "name": "Gusemano, Frank",
    "street": "1360 Post Oak Blvd Suite 1740",
    "city": "Houston",
    "state": "TX",
    "zipCode": "77056-3030",
    "phone": "(713) 993-9814",
    "fax": "(713) 993-9817",
    "webSite": ""
  },
  {
    "name": "Gustafson, Erin Leigh",
    "street": "9701 N Sam Houston Pkwy E Ste 240",
    "city": "Humble",
    "state": "TX",
    "zipCode": "77396-4636",
    "phone": "(281) 359-9900",
    "fax": "(281) 359-9903",
    "webSite": ""
  },
  {
    "name": "Guthrie, Robert Craig",
    "street": "2200 Bergquist Dr Attn: Credentials (Cmc)",
    "city": "Lackland A F B",
    "state": "TX",
    "zipCode": "78236-9907",
    "phone": "(210) 925-6647",
    "fax": "(210) 925-1126",
    "webSite": ""
  },
  {
    "name": "Guthrie, William James",
    "street": "1278 Justin Rd Suite 108",
    "city": "Lewisville",
    "state": "TX",
    "zipCode": "75077-2200",
    "phone": "(972) 317-1581",
    "fax": "(972) 317-4836",
    "webSite": ""
  },
  {
    "name": "Gutierrez Family Dental Pllc",
    "street": "8740 N Lamar Blvd Suite 202",
    "city": "Austin",
    "state": "TX",
    "zipCode": "78753-5440",
    "phone": "(512) 835-7725",
    "fax": "(512) 835-2840",
    "webSite": ""
  },
  {
    "name": "Gutierrez, Carlos M",
    "street": "3420 Aldine Mail Rte ",
    "city": "Houston",
    "state": "TX",
    "zipCode": "77039-4636",
    "phone": "(281) 442-4044",
    "fax": "(281) 442-4034",
    "webSite": ""
  },
  {
    "name": "Gutierrez, Juan Antonio",
    "street": "1100 Nw Loop 410 Suite #211",
    "city": "San Antonio",
    "state": "TX",
    "zipCode": "78213-2263",
    "phone": "(210) 342-7181",
    "fax": "(210) 342-3598",
    "webSite": ""
  },
  {
    "name": "Gutierrez, Timothy Aaron",
    "street": "21703 Kingsland Blvd #104",
    "city": "Katy",
    "state": "TX",
    "zipCode": "77450-2520",
    "phone": "(713) 540-8877",
    "fax": "",
    "webSite": ""
  },
  {
    "name": "Guttin, Selma B",
    "street": "4501 Groveway ",
    "city": "Houston",
    "state": "TX",
    "zipCode": "77087",
    "phone": "(713) 641-1118",
    "fax": "(713) 640-2221",
    "webSite": ""
  },
  {
    "name": "Guttry, Robert Byron",
    "street": "903 Judson Rd ",
    "city": "Longview",
    "state": "TX",
    "zipCode": "75601-5114",
    "phone": "(903) 758-0189",
    "fax": "(903) 758-7970",
    "webSite": ""
  },
  {
    "name": "Guu, Sheng Yaw Tom",
    "street": "101 Avenue F N ",
    "city": "Bay City",
    "state": "TX",
    "zipCode": "77414-3167",
    "phone": "(979) 245-2008",
    "fax": "",
    "webSite": ""
  },
  {
    "name": "Guy, Henry",
    "street": "2701 Osler Dr Suite 10",
    "city": "Grand Prairie",
    "state": "TX",
    "zipCode": "75051-8352",
    "phone": "(972) 647-4300",
    "fax": "",
    "webSite": ""
  },
  {
    "name": "Guzman, Dahlia E",
    "street": "21318 Provincial Blvd Ste 102",
    "city": "Katy",
    "state": "TX",
    "zipCode": "77450-7580",
    "phone": "(281) 398-0337",
    "fax": "(281) 398-9825",
    "webSite": ""
  },
  {
    "name": "Gwendolyn Kines-Mcleod Dds,Pllc",
    "street": "401 N Ann St Ste B ",
    "city": "Terrell",
    "state": "TX",
    "zipCode": "75160-2549",
    "phone": "(972) 524-5347",
    "fax": "(972) 524-2142",
    "webSite": ""
  },
  {
    "name": "Gwo, Jean-Jean",
    "street": "6300 Stonewood Dr Ste 210 ",
    "city": "Plano",
    "state": "TX",
    "zipCode": "75024-5281",
    "phone": "(972) 596-0100",
    "fax": "",
    "webSite": ""
  },
  {
    "name": "Herzog Dentistry",
    "street": "2828 Routh St Ste 310 ",
    "city": "Dallas",
    "state": "TX",
    "zipCode": "75201-1439",
    "phone": "(214) 969-1000",
    "fax": "(214) 969-1001",
    "webSite": ""
  },
  {
    "name": "H Don Guion Dds Inc",
    "street": "735 N Fielder Road ",
    "city": "Arlington",
    "state": "TX",
    "zipCode": "76012-5805",
    "phone": "(817) 460-4104",
    "fax": "(817) 460-4151",
    "webSite": ""
  },
  {
    "name": "Mellow Dental",
    "street": "14707 Eastex Fwy Ste B",
    "city": "Humble",
    "state": "TX",
    "zipCode": "77396-3206",
    "phone": "(281) 312-0151",
    "fax": "(281) 312-2577",
    "webSite": ""
  },
  {
    "name": "Gonzales Dental",
    "street": "1600 N Sarah Dewitt Dr Ste. 206",
    "city": "Gonzales",
    "state": "TX",
    "zipCode": "78629-3220",
    "phone": "(909) 223-4035",
    "fax": "",
    "webSite": ""
  },
  {
    "name": "Wheatland Dental Care",
    "street": "3940 W Wheatland Rd ",
    "city": "Dallas",
    "state": "TX",
    "zipCode": "75237-3468",
    "phone": "(972) 227-6453",
    "fax": "(972) 780-9167",
    "webSite": ""
  },
  {
    "name": "Shine Dental",
    "street": "736 Telephone Rd ",
    "city": "Houston",
    "state": "TX",
    "zipCode": "77023-3118",
    "phone": "(713) 926-1212",
    "fax": "(713) 926-4082",
    "webSite": ""
  },
  {
    "name": "Empire Dental Center",
    "street": "200A S Wayside Dr ",
    "city": "Houston",
    "state": "TX",
    "zipCode": "77011-4632",
    "phone": "(713) 926-0200",
    "fax": "(713) 926-4197",
    "webSite": ""
  },
  {
    "name": "H. Peter Ku, D.D.S, P.A.",
    "street": "3045 Hamilton Ave ",
    "city": "Fort Worth",
    "state": "TX",
    "zipCode": "76107-2240",
    "phone": "(817) 870-0556",
    "fax": "(817) 870-0570",
    "webSite": ""
  },
  {
    "name": "Ha, Jonathan Minho",
    "street": "3001 Wildflower Dr ",
    "city": "Bryan",
    "state": "TX",
    "zipCode": "77802-3061",
    "phone": "(979) 776-1040",
    "fax": "",
    "webSite": ""
  },
  {
    "name": "Ha, Khanh",
    "street": "1300 S Cage Blvd Ste K ",
    "city": "Pharr",
    "state": "TX",
    "zipCode": "78577-6352",
    "phone": "(956) 413-7540",
    "fax": "",
    "webSite": ""
  },
  {
    "name": "Haase, Deborah Jane",
    "street": "2522 Nottingham St ",
    "city": "Houston",
    "state": "TX",
    "zipCode": "77005-1412",
    "phone": "(713) 521-1202",
    "fax": "(713) 521-1203",
    "webSite": ""
  },
  {
    "name": "Haase, Steven L",
    "street": "12101 Bee Caves Rd Suite 5-H",
    "city": "Bee Cave",
    "state": "TX",
    "zipCode": "78738-5391",
    "phone": "(512) 263-5566",
    "fax": "",
    "webSite": ""
  },
  {
    "name": "Haats, Rebecka Kay",
    "street": "644 Brick Row Dr. Apt 3211 ",
    "city": "Richardson",
    "state": "TX",
    "zipCode": "75081",
    "phone": "(281) 536-8392",
    "fax": "",
    "webSite": ""
  },
  {
    "name": "Haberman, Norika Jk",
    "street": "4833 S Hulen St Ste 101 ",
    "city": "Fort Worth",
    "state": "TX",
    "zipCode": "76132-1427",
    "phone": "(817) 294-4600",
    "fax": "",
    "webSite": ""
  },
  {
    "name": "Haberman, Thomas J",
    "street": "13438 Bandera Rd 202",
    "city": "Helotes",
    "state": "TX",
    "zipCode": "78023-3748",
    "phone": "(210) 695-8884",
    "fax": "(210) 695-9508",
    "webSite": ""
  },
  {
    "name": "Hackbarth, John Gustav",
    "street": "825 W Round Bunch Rd ",
    "city": "Bridge City",
    "state": "TX",
    "zipCode": "77611-2436",
    "phone": "(409) 735-2401",
    "fax": "(409) 735-2404",
    "webSite": ""
  },
  {
    "name": "Hackbarth, John Kendall",
    "street": "1708 N Amburn Rd Suite A",
    "city": "Texas City",
    "state": "TX",
    "zipCode": "77591-2436",
    "phone": "(409) 935-2111",
    "fax": "",
    "webSite": ""
  },
  {
    "name": "Hackett, Clifford John",
    "street": "7324 Southwest Fwy Ste 885 ",
    "city": "Houston",
    "state": "TX",
    "zipCode": "77074-2088",
    "phone": "(713) 266-1937",
    "fax": "(713) 272-6420",
    "webSite": ""
  },
  {
    "name": "Hackney, Joe Michael",
    "street": "240 E Highway 243 ",
    "city": "Canton",
    "state": "TX",
    "zipCode": "75103-2315",
    "phone": "(903) 567-4881",
    "fax": "(903) 567-5149",
    "webSite": ""
  },
  {
    "name": "Haddad, Awras",
    "street": "12379 Red Hawk Drive ",
    "city": "Frisco",
    "state": "TX",
    "zipCode": "75033",
    "phone": "(210) 744-8678",
    "fax": "",
    "webSite": ""
  },
  {
    "name": "Haddad, Yasmine Maria",
    "street": "6137 Kirby Dr ",
    "city": "Houston",
    "state": "TX",
    "zipCode": "77005-3148",
    "phone": "(713) 440-8888",
    "fax": "",
    "webSite": ""
  },
  {
    "name": "Hadden, Katie",
    "street": "3307 Northland Dr Ste 230 ",
    "city": "Austin",
    "state": "TX",
    "zipCode": "78731-4968",
    "phone": "(512) 388-2220",
    "fax": "(512) 388-2230",
    "webSite": ""
  },
  {
    "name": "Haddock, Tatyana",
    "street": "836 Red Bud Ln ",
    "city": "Round Rock",
    "state": "TX",
    "zipCode": "78664-9780",
    "phone": "(512) 419-8208",
    "fax": "",
    "webSite": ""
  },
  {
    "name": "Haddy, George",
    "street": "9314 Juanchido Ln ",
    "city": "El Paso",
    "state": "TX",
    "zipCode": "79907-6832",
    "phone": "(915) 858-1076",
    "fax": "(915) 858-2367",
    "webSite": ""
  },
  {
    "name": "Haecker, Howard Ivan",
    "street": "8434 Fm 2673 ",
    "city": "Canyon Lake",
    "state": "TX",
    "zipCode": "78133-6426",
    "phone": "(830) 899-7128",
    "fax": "(830) 899-7128",
    "webSite": ""
  },
  {
    "name": "Haerens, Olaf J",
    "street": "652 N Houston Ave Suite 1",
    "city": "New Braunfels",
    "state": "TX",
    "zipCode": "78130-4122",
    "phone": "(830) 624-7300",
    "fax": "(830) 626-3100",
    "webSite": ""
  },
  {
    "name": "Hafen, Jerame Kent",
    "street": "916 Coronado Blvd ",
    "city": "Universal City",
    "state": "TX",
    "zipCode": "78148-3226",
    "phone": "(210) 658-3131",
    "fax": "",
    "webSite": ""
  },
  {
    "name": "Hageman, David J",
    "street": "3606 Marvin D Love Fwy ",
    "city": "Dallas",
    "state": "TX",
    "zipCode": "75224-4442",
    "phone": "(214) 371-4763",
    "fax": "(214) 372-6057",
    "webSite": ""
  },
  {
    "name": "Hagemeier, Mary Kathryn",
    "street": "400 East Main Street ",
    "city": "Johnson City",
    "state": "TX",
    "zipCode": "78636",
    "phone": "(830) 868-0274",
    "fax": "",
    "webSite": ""
  },
  {
    "name": "Hagen, Heather",
    "street": "3604 Preston Rd Suite 400",
    "city": "Plano",
    "state": "TX",
    "zipCode": "75093-8629",
    "phone": "(972) 312-0000",
    "fax": "",
    "webSite": ""
  },
  {
    "name": "Haggard, Ann Elizabeth",
    "street": "1015 Medical Center Blvd. Ste 1600",
    "city": "Webster",
    "state": "TX",
    "zipCode": "77598",
    "phone": "(281) 338-9032",
    "fax": "(280) 338-9039",
    "webSite": ""
  },
  {
    "name": "Haggard, Marcus D",
    "street": "1015 Medical Center Blvd Suite 1600",
    "city": "Webster",
    "state": "TX",
    "zipCode": "77598",
    "phone": "(281) 338-9032",
    "fax": "(281) 338-9039",
    "webSite": ""
  },
  {
    "name": "Hagler, Timothy",
    "street": "1273 N Main St ",
    "city": "Vidor",
    "state": "TX",
    "zipCode": "77662-3740",
    "phone": "(409) 769-3887",
    "fax": "(409) 769-5833",
    "webSite": ""
  },
  {
    "name": "Anesthesia Associates For Dentistry",
    "street": "2650 Firewheel Dr ",
    "city": "Flower Mound",
    "state": "TX",
    "zipCode": "75028-4601",
    "phone": "(972) 539-0608",
    "fax": "(972) 539-8899",
    "webSite": ""
  },
  {
    "name": "Hahn, Edward K.",
    "street": "230 N Park Blvd Suit #107",
    "city": "Grapevine",
    "state": "TX",
    "zipCode": "76051-6981",
    "phone": "(817) 481-1036",
    "fax": "(817) 481-5044",
    "webSite": ""
  },
  {
    "name": "Hahn, Paul K",
    "street": "2627 W Jefferson Blvd Ste 318 ",
    "city": "Dallas",
    "state": "TX",
    "zipCode": "75211-2691",
    "phone": "(214) 942-1060",
    "fax": "(214) 942-5410",
    "webSite": ""
  },
  {
    "name": "Haider, Skeena S",
    "street": "790 W Exchange Pkwy 110",
    "city": "Allen",
    "state": "TX",
    "zipCode": "75013-7007",
    "phone": "(469) 888-0091",
    "fax": "",
    "webSite": ""
  },
  {
    "name": "Prima Dental",
    "street": "4043 Trinity Mills Rd Suite 101",
    "city": "Dallas",
    "state": "TX",
    "zipCode": "75287-6778",
    "phone": "(972) 306-2121",
    "fax": "(972) 306-2110",
    "webSite": ""
  },
  {
    "name": "Haight, Fred Aurther",
    "street": "6317 Preston Rd Suite 500",
    "city": "Plano",
    "state": "TX",
    "zipCode": "75024-2676",
    "phone": "(972) 527-5555",
    "fax": "",
    "webSite": ""
  },
  {
    "name": "Hailat, Dana",
    "street": "9888 Bellaire Blvd ",
    "city": "Houston",
    "state": "TX",
    "zipCode": "77036-3429",
    "phone": "(803) 522-7793",
    "fax": "",
    "webSite": ""
  },
  {
    "name": "Hailey, James H",
    "street": "15128 Hwy. 110 S ",
    "city": "Whitehouse",
    "state": "TX",
    "zipCode": "75791-9340",
    "phone": "(903) 561-6604",
    "fax": "(903) 561-2326",
    "webSite": ""
  },
  {
    "name": "Hain, David E.",
    "street": "6545 Preston Rd Suite#100",
    "city": "Plano",
    "state": "TX",
    "zipCode": "75024-2610",
    "phone": "(972) 378-9747",
    "fax": "(972) 378-5755",
    "webSite": ""
  },
  {
    "name": "Hain, Rachel Elizabeth",
    "street": "14726 Swale ",
    "city": "San Antonio",
    "state": "TX",
    "zipCode": "78248-0946",
    "phone": "(214) 886-7057",
    "fax": "",
    "webSite": ""
  },
  {
    "name": "Hajovsky, James H.",
    "street": "11803 Westheimer Rd Ste 710",
    "city": "Houston",
    "state": "TX",
    "zipCode": "77077-6795",
    "phone": "(281) 497-7911",
    "fax": "(281) 497-6433",
    "webSite": ""
  },
  {
    "name": "Hakeem, Aisha",
    "street": "6611 Fm 1464 Rd Ste D ",
    "city": "Richmond",
    "state": "TX",
    "zipCode": "77407-8222",
    "phone": "(346) 368-0100",
    "fax": "",
    "webSite": ""
  },
  {
    "name": "Hakim, Bahman",
    "street": "5600 S Willow Dr Suite 111",
    "city": "Houston",
    "state": "TX",
    "zipCode": "77035-4713",
    "phone": "(818) 857-6020",
    "fax": "",
    "webSite": ""
  },
  {
    "name": "Hakym, Fowzia",
    "street": "3991 Richmond Ave ",
    "city": "Houston",
    "state": "TX",
    "zipCode": "77027-5803",
    "phone": "(713) 244-7797",
    "fax": "",
    "webSite": ""
  },
  {
    "name": "Halbardier, Donald A",
    "street": "5050 Fm 1960 Rd W Ste 126 ",
    "city": "Houston",
    "state": "TX",
    "zipCode": "77069-4525",
    "phone": "(281) 440-0814",
    "fax": "(281) 440-6130",
    "webSite": ""
  },
  {
    "name": "Frankston Family Dentistry",
    "street": "400 N Frankston Hwy ",
    "city": "Frankston",
    "state": "TX",
    "zipCode": "75763-2811",
    "phone": "(903) 876-3600",
    "fax": "",
    "webSite": ""
  },
  {
    "name": "Halberstadt, Kyle William",
    "street": "400 N Frankston Hwy ",
    "city": "Frankston",
    "state": "TX",
    "zipCode": "75763-2811",
    "phone": "(903) 876-3600",
    "fax": "",
    "webSite": ""
  },
  {
    "name": "Hale, Brian E",
    "street": "1100 Nw Loop 410 Ste. 511",
    "city": "San Antonio",
    "state": "TX",
    "zipCode": "78213-2263",
    "phone": "(210) 308-7008",
    "fax": "(210) 308-7379",
    "webSite": ""
  },
  {
    "name": "Hale, Cassie",
    "street": "3500 Gaston Ave ",
    "city": "Dallas",
    "state": "TX",
    "zipCode": "75246",
    "phone": "(214) 820-0111",
    "fax": "",
    "webSite": ""
  },
  {
    "name": "Hale, Frieda Sue",
    "street": "3944 Fm 1960 Rd W ",
    "city": "Houston",
    "state": "TX",
    "zipCode": "77068-3521",
    "phone": "(281) 580-0770",
    "fax": "(281) 580-6952",
    "webSite": ""
  },
  {
    "name": "Hale, Kelly",
    "street": "301 Creekside Dr ",
    "city": "Buda",
    "state": "TX",
    "zipCode": "78610-3184",
    "phone": "(512) 426-6942",
    "fax": "",
    "webSite": ""
  },
  {
    "name": "Hale, Kyle",
    "street": "4005 Broadway St ",
    "city": "Houston",
    "state": "TX",
    "zipCode": "77087-4703",
    "phone": "(713) 644-4331",
    "fax": "",
    "webSite": ""
  },
  {
    "name": "Halko, Gary J",
    "street": "1108 S Church St ",
    "city": "Georgetown",
    "state": "TX",
    "zipCode": "78626-6831",
    "phone": "(512) 818-2976",
    "fax": "",
    "webSite": ""
  },
  {
    "name": "Hall, Arthur E",
    "street": "1601 Hickory St ",
    "city": "Abilene",
    "state": "TX",
    "zipCode": "79601-2940",
    "phone": "(325) 673-1092",
    "fax": "",
    "webSite": ""
  },
  {
    "name": "Hall, Brock",
    "street": "2708 W Nolana Ave Ste 120 ",
    "city": "Mcallen",
    "state": "TX",
    "zipCode": "78504-4181",
    "phone": "(956) 682-2209",
    "fax": "",
    "webSite": ""
  },
  {
    "name": "Hall, Byron Joe",
    "street": "21703 Kingsland Blvd Suite 104",
    "city": "Katy",
    "state": "TX",
    "zipCode": "77450-2520",
    "phone": "(281) 398-3432",
    "fax": "(281) 398-3570",
    "webSite": ""
  },
  {
    "name": "Hall, Byron Joe",
    "street": "4600 Post Oak Place Dr. Ste. 102",
    "city": "Houston",
    "state": "TX",
    "zipCode": "77027",
    "phone": "(713) 840-7179",
    "fax": "(713) 840-7815",
    "webSite": ""
  },
  {
    "name": "Hall, Glen David",
    "street": "3374 S 27Th St ",
    "city": "Abilene",
    "state": "TX",
    "zipCode": "79605-6224",
    "phone": "(325) 698-7560",
    "fax": "(325) 691-0955",
    "webSite": ""
  },
  {
    "name": "Hall, James Britt",
    "street": "3310 West Park Row Drive ",
    "city": "Arlington",
    "state": "TX",
    "zipCode": "76013-3170",
    "phone": "(817) 274-2662",
    "fax": "(817) 795-1377",
    "webSite": ""
  },
  {
    "name": "Hall, Robert A",
    "street": "1615 Barak Ln ",
    "city": "Bryan",
    "state": "TX",
    "zipCode": "77802-3315",
    "phone": "(979) 260-2626",
    "fax": "(979) 260-2631",
    "webSite": ""
  },
  {
    "name": "Hallmark, Carter Leroy",
    "street": "1111 S Macarthur Blvd ",
    "city": "Irving",
    "state": "TX",
    "zipCode": "75060-3827",
    "phone": "(972) 790-4568",
    "fax": "(972) 259-2809",
    "webSite": ""
  },
  {
    "name": "Hallock, Michael Joseph",
    "street": "6940 Coit Rd Ste 200 ",
    "city": "Plano",
    "state": "TX",
    "zipCode": "75023-1084",
    "phone": "(972) 491-2677",
    "fax": "",
    "webSite": ""
  },
  {
    "name": "Hallum, Brent A.",
    "street": "804 N Main St ",
    "city": "Boerne",
    "state": "TX",
    "zipCode": "78006-1626",
    "phone": "(830) 249-8407",
    "fax": "(830) 249-6217",
    "webSite": ""
  },
  {
    "name": "Haltom Dental, P.A.",
    "street": "3103 Denton Hwy ",
    "city": "Haltom City",
    "state": "TX",
    "zipCode": "76117-3710",
    "phone": "(817) 222-2226",
    "fax": "(817) 222-2278",
    "webSite": ""
  },
  {
    "name": "Haltom, James William",
    "street": "320 E 8Th St ",
    "city": "Littlefield",
    "state": "TX",
    "zipCode": "79339-3821",
    "phone": "(806) 385-6935",
    "fax": "(806) 385-6937",
    "webSite": ""
  },
  {
    "name": "Haltom, Lanissa Wagner",
    "street": "206 Stone Gate Dr ",
    "city": "New Braunfels",
    "state": "TX",
    "zipCode": "78130",
    "phone": "(830) 879-6941",
    "fax": "",
    "webSite": ""
  },
  {
    "name": "Hamada Dental Pa",
    "street": "19778 Interstate 45 ",
    "city": "Spring",
    "state": "TX",
    "zipCode": "77373-2941",
    "phone": "(281) 288-0900",
    "fax": "(281) 288-0925",
    "webSite": ""
  },
  {
    "name": "Hamada, Raif",
    "street": "13486 Northwest Fwy ",
    "city": "Houston",
    "state": "TX",
    "zipCode": "77040-6007",
    "phone": "(713) 460-4777",
    "fax": "",
    "webSite": ""
  },
  {
    "name": "Haman, Daniel Charles",
    "street": "149 Hart St 82 Medical Group/Credentials",
    "city": "Sheppard Afb",
    "state": "TX",
    "zipCode": "76311-3477",
    "phone": "(940) 676-7558",
    "fax": "",
    "webSite": ""
  },
  {
    "name": "Hamblen, John David",
    "street": "4215 85Th St ",
    "city": "Lubbock",
    "state": "TX",
    "zipCode": "79423-1931",
    "phone": "(806) 794-1131",
    "fax": "",
    "webSite": ""
  },
  {
    "name": "Hamblin, Blake Alan",
    "street": "11451 Katy Fwy Ste 515 ",
    "city": "Houston",
    "state": "TX",
    "zipCode": "77079-2017",
    "phone": "(713) 984-9887",
    "fax": "",
    "webSite": ""
  },
  {
    "name": "Hambrice, Jeffery B",
    "street": "1811 Army Blvd ",
    "city": "Jbsa Ft Sam Houston",
    "state": "TX",
    "zipCode": "78234-2686",
    "phone": "(210) 221-0826",
    "fax": "",
    "webSite": ""
  },
  {
    "name": "Hamburg, Allan Mark",
    "street": "25300 Borough Park Dr ",
    "city": "Spring",
    "state": "TX",
    "zipCode": "77380-3552",
    "phone": "(281) 296-0058",
    "fax": "(281) 296-0118",
    "webSite": ""
  },
  {
    "name": "Hamdan, Yaser Said",
    "street": "2520 K Ave Ste 180 ",
    "city": "Plano",
    "state": "TX",
    "zipCode": "75074-5378",
    "phone": "(972) 423-1234",
    "fax": "(972) 424-6543",
    "webSite": ""
  },
  {
    "name": "Hamidfar, Ahmad",
    "street": "7912 Spring Valley Rd ",
    "city": "Dallas",
    "state": "TX",
    "zipCode": "75254-2844",
    "phone": "(972) 693-8080",
    "fax": "",
    "webSite": ""
  },
  {
    "name": "Hamidi, Rosita",
    "street": "12711 Fm 1960 Rd.W ",
    "city": "Houston",
    "state": "TX",
    "zipCode": "77065-4014",
    "phone": "(713) 490-8880",
    "fax": "",
    "webSite": ""
  },
  {
    "name": "Hamil, Carl Gene",
    "street": "303 South Central ",
    "city": "Hallsville",
    "state": "TX",
    "zipCode": "75650",
    "phone": "(903) 668-5477",
    "fax": "(903) 660-3229",
    "webSite": ""
  },
  {
    "name": "Hamilton, Bill Thomas",
    "street": "3608 Reagan St ",
    "city": "Dallas",
    "state": "TX",
    "zipCode": "75219-4336",
    "phone": "(214) 543-6134",
    "fax": "",
    "webSite": ""
  },
  {
    "name": "Hamilton, Clayton Montgomery",
    "street": "7121 Chimney Cors ",
    "city": "Austin",
    "state": "TX",
    "zipCode": "78731-2113",
    "phone": "(512) 345-2170",
    "fax": "(512) 345-6356",
    "webSite": ""
  },
  {
    "name": "Hamilton, Margie Nell",
    "street": "3425 Highway 6 Suite 103",
    "city": "Sugar Land",
    "state": "TX",
    "zipCode": "77478-4512",
    "phone": "(281) 313-8988",
    "fax": "",
    "webSite": ""
  },
  {
    "name": "Hamilton, Markquada",
    "street": "9822 Fry Rd ",
    "city": "Cypress",
    "state": "TX",
    "zipCode": "77433-5370",
    "phone": "(718) 901-8110",
    "fax": "(718) 901-8121",
    "webSite": ""
  },
  {
    "name": "Hamilton, Michael B",
    "street": "1111 S Irving Heights Dr ",
    "city": "Irving",
    "state": "TX",
    "zipCode": "75060-6261",
    "phone": "(972) 445-3600",
    "fax": "(972) 785-1223",
    "webSite": ""
  },
  {
    "name": "Hamilton, Robert Hugh",
    "street": "4 Doctor Cir ",
    "city": "Longview",
    "state": "TX",
    "zipCode": "75605-5050",
    "phone": "(903) 757-4499",
    "fax": "(903) 757-7978",
    "webSite": ""
  },
  {
    "name": "Hamilton, Thomas D",
    "street": "310 W Bluff St ",
    "city": "Granbury",
    "state": "TX",
    "zipCode": "76048-2417",
    "phone": "(817) 573-2652",
    "fax": "(271) 279-7116",
    "webSite": ""
  },
  {
    "name": "Hamilton, Toni",
    "street": "910 W Mitchell St ",
    "city": "Arlington",
    "state": "TX",
    "zipCode": "76013-2537",
    "phone": "(817) 274-7764",
    "fax": "",
    "webSite": ""
  },
  {
    "name": "Hamilton, Trevor Alexander",
    "street": "7121 Chimney Cors ",
    "city": "Austin",
    "state": "TX",
    "zipCode": "78731-2113",
    "phone": "(512) 345-2170",
    "fax": "",
    "webSite": ""
  },
  {
    "name": "Hamlett, Kenneth M",
    "street": "8100 Lomo Alto Dr #110",
    "city": "Dallas",
    "state": "TX",
    "zipCode": "75225-6530",
    "phone": "(214) 363-9474",
    "fax": "(214) 363-8749",
    "webSite": ""
  },
  {
    "name": "Hamm, Sandi Lee",
    "street": "1830 E Broad St Ste 100 ",
    "city": "Mansfield",
    "state": "TX",
    "zipCode": "76063-9161",
    "phone": "(817) 477-4441",
    "fax": "(817) 472-9753",
    "webSite": ""
  },
  {
    "name": "Hamman, James B",
    "street": "4730 Boat Club Rd ",
    "city": "Fort Worth",
    "state": "TX",
    "zipCode": "76135-2002",
    "phone": "(817) 237-0388",
    "fax": "(817) 237-0397",
    "webSite": ""
  },
  {
    "name": "Hammond, Charles R",
    "street": "120 E Heritage Dr ",
    "city": "Tyler",
    "state": "TX",
    "zipCode": "75703-5120",
    "phone": "(903) 561-5610",
    "fax": "(903) 509-9267",
    "webSite": ""
  },
  {
    "name": "Hammond, John W",
    "street": "120 E Heritage Dr ",
    "city": "Tyler",
    "state": "TX",
    "zipCode": "75703-5120",
    "phone": "(903) 561-5610",
    "fax": "(903) 509-9267",
    "webSite": ""
  },
  {
    "name": "Hammond, Lynn Katherine",
    "street": "27631 Stagecoach Rd ",
    "city": "Pinehurst",
    "state": "TX",
    "zipCode": "77362-3380",
    "phone": "(281) 356-3351",
    "fax": "(281) 259-9612",
    "webSite": ""
  },
  {
    "name": "Hammond, Ricky Charles",
    "street": "909 Dairy Ashford St Ste 109 ",
    "city": "Houston",
    "state": "TX",
    "zipCode": "77079-5306",
    "phone": "(281) 493-1473",
    "fax": "",
    "webSite": ""
  },
  {
    "name": "Hammons Family Dental",
    "street": "10740 Research Blvd Ste 125 ",
    "city": "Austin",
    "state": "TX",
    "zipCode": "78759-5809",
    "phone": "(512) 795-9960",
    "fax": "(512) 795-9508",
    "webSite": ""
  },
  {
    "name": "Hammons, Travis",
    "street": "10740 Research Blvd Ste 125 ",
    "city": "Austin",
    "state": "TX",
    "zipCode": "78759-5809",
    "phone": "(512) 795-9960",
    "fax": "",
    "webSite": ""
  },
  {
    "name": "Hamner, Margaret Megan",
    "street": "3210B Stone Rd ",
    "city": "Kilgore",
    "state": "TX",
    "zipCode": "75662-2966",
    "phone": "(903) 984-2047",
    "fax": "(903) 983-2980",
    "webSite": ""
  },
  {
    "name": "Hamon Debuyl & Assoc Dds Llp",
    "street": "24022 Cinco Village Center Dr Suite 200",
    "city": "Katy",
    "state": "TX",
    "zipCode": "77494",
    "phone": "(281) 392-9251",
    "fax": "(281) 392-5398",
    "webSite": ""
  },
  {
    "name": "Hamon, Harry Darrell",
    "street": "830 S Mason Rd Ste A6 ",
    "city": "Katy",
    "state": "TX",
    "zipCode": "77450-3863",
    "phone": "(281) 392-9251",
    "fax": "(281) 392-5398",
    "webSite": ""
  }
]
